index,Place_name,Latitude,Longitude,Category,Region,haversine_distance_from_centroid,haversine_distance_from_voosh_kitchen,09_30_voosh,19_00_voosh,distance_in_meters_from_voosh
252,Prestige Sunrise Park Norwood,12.8345426,77.6637588,Apartments,"Adugodi, Bengaluru",1.192962479052092,2.056756576781162,10,12,734
943,Prestige Sunrise Park Norwood,12.8345426,77.6637588,Apartment,"Ambalipura, Bengaluru",1.192962479052092,2.056756576781162,10,12,734
1317,Siemens Technology and Services Private Limited,12.8450867,77.6609407,Office,"Ambalipura, Bengaluru",0.2597834494053711,1.6244650997939638,6,7,432
1546,Zolo Selene PG,12.8386672,77.6482698,PG,"Ambalipura, Bengaluru",1.7899065420656086,0.41142920507380587,3,3,177
1548,Zolo Euphoria Co-Living %7C Redefining PG,12.8492421,77.6551328,PG,"Ambalipura, Bengaluru",0.9927360296630633,1.2597412860479407,9,10,595
3073,Prestige Sunrise Park Norwood,12.8345426,77.6637588,Apartment,"Carmelaram, Bengaluru",1.192962479052092,2.056756576781162,10,12,734
3347,India Post,12.8398847,77.6630109,Office,"Carmelaram, Bengaluru",0.5990421237144549,1.8215973702999022,9,10,590
3621,Paying guest for ladies,12.8505667,77.6645258,PG,"Carmelaram, Bengaluru",0.6038219285017531,2.198067253918554,9,11,630
3639,Zolo Delphi,12.8399688,77.649983,PG,"Carmelaram, Bengaluru",1.5621736549761294,0.44776924889510866,2,2,145
3691,Ajmera Stone Park Apartments,12.8375189,77.6508487,Apartment,"Electronic City, Bengaluru",1.6039165998634228,0.6867776244076742,4,5,278
3692,WOODSTOCK APARTMENTS,12.8327325,77.6591191,Apartment,"Electronic City, Bengaluru",1.4662190239517503,1.7174938905509856,7,9,518
3693,Vasavi Rich Apartment,12.8408616,77.6463191,Apartment,"Electronic City, Bengaluru",1.9080553925816681,0.10959989603970374,1,1,50
3694,Concorde Manhattans Apartment,12.8415743,77.6519022,Apartment,"Electronic City, Bengaluru",1.3050669655269038,0.6048977895693218,3,4,241
3696,Talasila Apartments,12.8429793,77.6457718,Apartment,"Electronic City, Bengaluru",1.9204099788090072,0.1396605639597403,1,1,62
3697,S S Sankalp Apartment,12.8405384,77.6463287,Apartment,"Electronic City, Bengaluru",1.9165883829583636,0.14553216139120484,1,1,61
3698,Ajmera Annex,12.8417682,77.6477055,Apartment,"Electronic City, Bengaluru",1.7379170461244837,0.1494141660075082,1,1,54
3699,Maks Sundance Apartments,12.8512918,77.6569586,Apartment,"Electronic City, Bengaluru",0.9625612467738485,1.559068748680627,8,10,593
3702,Charvi Square Electronics City.,12.8401065,77.6451354,Apartment,"Electronic City, Bengaluru",2.0541967261219525,0.2328717244747985,1,2,91
3703,DS-MAX STARRY,12.8288488,77.6516834,Apartment,"Electronic City, Bengaluru",2.2193836107141416,1.5575490367342189,9,11,636
3704,Keerthi Pride,12.849832,77.649897,Apartment,"Electronic City, Bengaluru",1.5423782544476339,0.9684423298290853,7,7,449
3705,Mahendra Elena 5,12.8276898,77.6559391,Apartment,"Electronic City, Bengaluru",2.111970557223432,1.8877502021334354,8,9,536
3706,kishore neeladri apartments,12.8400301,77.6458673,Apartment,"Electronic City, Bengaluru",1.9806060443027904,0.20817861084553074,1,1,85
3707,Ajmera Infinity,12.843283,77.6477137,Apartment,"Electronic City, Bengaluru",1.7072746516892598,0.21909505960709266,2,2,116
3708,Balaji Classic Apartment,12.8474913,77.6445929,Apartment,"Electronic City, Bengaluru",2.046391934421009,0.6552330988958671,3,4,211
3710,SK Aster Apartment,12.8499653,77.6466076,Apartment,"Electronic City, Bengaluru",1.886806248523595,0.9031954025644545,5,5,315
3711,Paradise Tower Apartment,12.8474202,77.6504676,Apartment,"Electronic City, Bengaluru",1.4149299461112814,0.765021750999595,6,7,407
3712,Vaibhav Residency,12.8428043,77.6460316,Apartment,"Electronic City, Bengaluru",1.895205119715326,0.11122364556494795,1,1,72
3713,Mayura e city apartment,12.8480549,77.6503985,Apartment,"Electronic City, Bengaluru",1.4359000386202423,0.8191724556560533,5,6,366
3714,SVR Orchid,12.8415681,77.6497056,Apartment,"Electronic City, Bengaluru",1.5331529070766328,0.3673077464492268,2,2,126
3715,PSR Krish Kamal,12.8401471,77.6440323,Apartment,"Electronic City, Bengaluru",2.1681021922963244,0.31268733230374385,1,2,111
3716,HARIPRIYA SAMRUDDHI APARTMENTS,12.8417076,77.6467992,Apartment,"Electronic City, Bengaluru",1.8352555857504023,0.053214637799622315,1,1,14
3717,Laasya Pride,12.8406689,77.6641812,Apartment,"Electronic City, Bengaluru",0.5191083175858525,1.9397832104296489,9,10,580
3718,Velocity apartment- Apartments in Electronic City,12.8347451,77.6631014,Apartment,"Electronic City, Bengaluru",1.1698026853848456,1.982398519109322,13,14,869
3720,Vasavi Icon Apartment,12.8326935,77.665385,Apartment,"Electronic City, Bengaluru",1.415311200397633,2.303026915480961,13,15,887
3722,Neo Elite Apartments,12.8477175,77.6501545,Apartment,"Electronic City, Bengaluru",1.4542332619536384,0.7733177585845126,5,6,356
3724,Unitech Apartments,12.8405772,77.6687496,Apartment,"Electronic City, Bengaluru",0.7852957647795293,2.434731309633916,12,14,810
3725,Celebrity Signature,12.8470372,77.6449731,Apartment,"Electronic City, Bengaluru",1.9998743828971826,0.5955481630250402,3,4,223
3726,Ramky One Karnival,12.8286491,77.6617925,Apartment,"Electronic City, Bengaluru",1.8548911695582002,2.228035764114776,10,11,686
3727,Teja Intro Apartment,12.8478083,77.6521786,Apartment,"Electronic City, Bengaluru",1.2416428594535789,0.9172995940967311,7,8,465
3728,Pride Homes Apartment,12.8401517,77.6451823,Apartment,"Electronic City, Bengaluru",2.047913999923419,0.22587165040720594,1,1,89
3730,Sai Tirumala Residency Apartment,12.8476151,77.64552,Apartment,"Electronic City, Bengaluru",1.9484603423320699,0.6473414581291618,4,4,246
3731,My Nest Apartment,12.8328717,77.6565284,Apartment,"Electronic City, Bengaluru",1.5627697281745676,1.4895093247567595,7,8,498
3732,Sai Priya Serenity Apartments,12.8406505,77.646027,Apartment,"Electronic City, Bengaluru",1.9447396389057112,0.13705407001579625,1,1,60
3733,Athithi Pride Apartments,12.84042,77.6465382,Apartment,"Electronic City, Bengaluru",1.8984488498168948,0.16029937701176758,1,1,63
3734,K and T Aiswaryam Apartments,12.8481184,77.6482053,Apartment,"Electronic City, Bengaluru",1.6701646962760726,0.7263682674871659,5,5,326
3735,Jai Ramapir Mobile Point,12.8330776,77.6673629,Apartment,"Electronic City, Bengaluru",1.4237506658560592,2.4800785939468653,13,15,922
3736,Srinivasam Apartments,12.842069,77.6460042,Apartment,"Electronic City, Bengaluru",1.911636734507396,0.04305296025633562,1,1,42
3737,Sujana Apartment I,12.8467041,77.646365,Apartment,"Electronic City, Bengaluru",1.8461900092599421,0.5400769442555171,5,6,335
3739,Srivanth Green View Apartment,12.8411741,77.664317,Apartment,"Electronic City, Bengaluru",0.46708545319932265,1.9515097425436478,9,10,593
3740,Haripriya Samruddi Apartments,12.8412591,77.6489561,Apartment,"Electronic City, Bengaluru",1.6206846870230922,0.29215108577496285,1,1,77
3744,SJR Equinox Apartment,12.8489724,77.6570602,Apartment,"Electronic City, Bengaluru",0.795086839634529,1.4074896041492064,8,10,572
3746,Moon Mist Apartments,12.8483294,77.6495805,Apartment,"Electronic City, Bengaluru",1.5291186865240691,0.8023348496554368,6,7,390
3747,Celebrity Classic Apartment,12.8470154,77.6457699,Apartment,"Electronic City, Bengaluru",1.9136837938217712,0.577874107592121,4,4,264
3748,Sree Sai Home Style Apartments,12.8495091,77.6483623,Apartment,"Electronic City, Bengaluru",1.6899757802588304,0.880001835508754,6,7,419
3749,Vasavi Pearl Apartment,12.8471284,77.6453379,Apartment,"Electronic City, Bengaluru",1.9615685422424036,0.5970060447070399,4,4,254
3750,Neeladri Castle Apartment,12.8390516,77.6503952,Apartment,"Electronic City, Bengaluru",1.5631837036593483,0.5393517350744291,2,3,182
3751,"Manifest White Orchid, Block-A, Celebrity Paradise Main Street",12.8478375,77.6547259,Apartment,"Electronic City, Bengaluru",0.9757377514231317,1.1279356983694278,8,9,541
3752,GLR NEELA,12.842079,77.645755,Apartment,"Electronic City, Bengaluru",1.9379859101117556,0.06742634121449212,1,1,26
3753,Balaji Serenity Apartment,12.8499677,77.6497693,Apartment,"Electronic City, Bengaluru",1.5604497459280842,0.9769268628350509,7,8,453
3754,Arka Residency,12.8532888,77.6576707,Apartment,"Electronic City, Bengaluru",1.0829870602881226,1.769257367949416,9,11,659
3755,Dayakamal Apartments,12.8493965,77.6527777,Apartment,"Electronic City, Bengaluru",1.2328814097338792,1.0923951272077241,8,9,565
3756,Alps South Brook Apartment,12.8394537,77.6462965,Apartment,"Electronic City, Bengaluru",1.9563955302260716,0.2661697622927115,2,2,96
3757,Om Sai Pearls(Apartment),12.8412951,77.6453845,Apartment,"Electronic City, Bengaluru",1.994943636160414,0.11945505782440931,1,1,54
3761,SK Daisy,12.8320322,77.6490269,Apartment,"Electronic City, Bengaluru",2.137535828926304,1.1298755553014554,4,5,271
3765,Srinivasa Nilaya Apartment,12.8464124,77.6491261,Apartment,"Electronic City, Bengaluru",1.545181870709983,0.5912658654679175,4,5,304
3766,"HAMSA RESIDENCY, Electronics City Phase 1.",12.8479255,77.6561651,Apartment,"Electronic City, Bengaluru",0.8312786684165829,1.2624432716307352,8,9,569
3767,Vasavi Rainbow,12.8498033,77.6454386,Apartment,"Electronic City, Bengaluru",2.004270125939001,0.8899381813158018,4,5,279
3770,Phoenix Meadows Apartment,12.8405344,77.6502507,Apartment,"Electronic City, Bengaluru",1.5123296773862962,0.449457566826984,2,2,131
3771,Prashant Residency,12.8477762,77.645249,Apartment,"Electronic City, Bengaluru",1.9800261116423818,0.6696052201147684,4,4,248
3772,Pragathi Royale- II,12.8491267,77.6453934,Apartment,"Electronic City, Bengaluru",1.9914409039236887,0.8157843341882072,4,5,302
3773,Murari Classic,12.8319782,77.666068,Apartment,"Electronic City, Bengaluru",1.506732506318308,2.404915925204459,13,15,914
3775,SRK Silicana,12.8492152,77.6509865,Apartment,"Electronic City, Bengaluru",1.4085030663165055,0.9623440021138793,6,7,429
3776,Sri Balaji Residency,12.8461528,77.6424605,Apartment,"Electronic City, Bengaluru",2.2646821210416,0.6365285243643262,4,5,279
3777,Nenapu Apartments,12.8497392,77.6527039,Apartment,"Electronic City, Bengaluru",1.2549286944796287,1.116975152078991,8,9,556
3778,Aristo Marvel - Aakruti Properties And Constructions,12.8384012,77.6470954,Apartment,"Electronic City, Bengaluru",1.9183342406617154,0.39206724927369213,2,2,145
3779,Sumukha Apartment,12.8410909,77.6461161,Apartment,"Electronic City, Bengaluru",1.9230247487302168,0.0872269178992805,1,1,42
3780,Balaji Residency Apartment,12.8473684,77.6462941,Apartment,"Electronic City, Bengaluru",1.8616850290590072,0.6139424082524865,4,5,277
3781,venkatgiri apartment,12.83954,77.6458804,Apartment,"Electronic City, Bengaluru",1.9959514246916483,0.26113263746723253,2,2,110
3783,Elite Abhyudaya 1,12.8462236,77.6549188,Apartment,"Electronic City, Bengaluru",0.9181233137238661,1.050660776800681,9,10,612
3784,NEST Apartment,12.8411389,77.6471176,Apartment,"Electronic City, Bengaluru",1.816489534307101,0.11618743221490424,1,1,51
3785,Srikara ABODE,12.8464403,77.6525866,Apartment,"Electronic City, Bengaluru",1.1720607760315958,0.8491019873877171,7,8,459
3786,KMB CLASSIC,12.8469486,77.6503393,Apartment,"Electronic City, Bengaluru",1.4207772743325673,0.7146537185488385,6,7,390
3787,Vruddhi Mabella,12.8405841,77.6460336,Apartment,"Electronic City, Bengaluru",1.9460106345753423,0.1440723592629386,1,1,62
3788,Ajmera Infinity G Block,12.8435428,77.6474354,Apartment,"Electronic City, Bengaluru",1.7337730425544604,0.22342268870597964,2,2,112
3789,Falcon Apartment,12.8383273,77.6488824,Apartment,"Electronic City, Bengaluru",1.74590164574155,0.4793547202268016,3,4,222
3791,Maruthi Gold,12.8456391,77.6526181,Apartment,"Electronic City, Bengaluru",1.1620667432238894,0.8015958281949775,7,8,486
3792,Ganga Vertica,12.84157,77.6481756,Apartment,"Electronic City, Bengaluru",1.693490267706852,0.20248095815382933,1,1,72
3793,Passion Elite-1,12.8506842,77.6534134,Apartment,"Electronic City, Bengaluru",1.2325513742206529,1.2471254449466724,8,9,540
3795,VSR Sunshine Apartment,12.8484615,77.6517506,Apartment,"Electronic City, Bengaluru",1.3047630328407895,0.941440327520319,7,8,456
3796,R S Happy Homes Apartment,12.8319947,77.6668787,Apartment,"Electronic City, Bengaluru",1.5247060063338198,2.482638437112089,14,16,942
3797,Shri Ram apartment,12.8328023,77.6471519,Apartment,"Electronic City, Bengaluru",2.2352147815971897,1.0096908648889629,3,4,258
3798,Shree Palace,12.8323503,77.6660214,Apartment,"Electronic City, Bengaluru",1.4651758131498671,2.381788925366548,13,15,912
3800,Abhyudaya apts 2,12.8460086,77.6550716,Apartment,"Electronic City, Bengaluru",0.8991542494455163,1.054664612455217,9,10,618
3801,Grexter Polaris,12.8387213,77.650401,Apartment,"Electronic City, Bengaluru",1.5791978126562114,0.5618169789222235,3,3,192
3802,Concorde Silicon Valley,12.8391069,77.6520589,Apartment,"Electronic City, Bengaluru",1.4006254986462765,0.6918428059869133,3,4,240
3803,Green View Residency,12.8472846,77.6432413,Apartment,"Electronic City, Bengaluru",2.189437009027194,0.6911304359878473,3,4,214
3804,Breeze County,12.8460795,77.6525167,Apartment,"Electronic City, Bengaluru",1.17581635896101,0.8193783256628421,7,8,471
3805,Celebrity Diamond Apartment,12.8457421,77.6528585,Apartment,"Electronic City, Bengaluru",1.1365007236436278,0.8297952484404646,7,8,482
3806,Sri vasane Sreenivasa Apartment,12.8456329,77.652829,Apartment,"Electronic City, Bengaluru",1.1391926252089846,0.8207758328187591,7,8,486
3807,Nakoda Apartments,12.8390445,77.6464846,Apartment,"Electronic City, Bengaluru",1.95280372679125,0.3120985879239195,2,2,114
3808,Sri Sai Brundavanam apartment,12.8487925,77.6505957,Apartment,"Electronic City, Bengaluru",1.4352586776852805,0.9001752035137589,6,7,391
3811,Happy Homes 2,12.8348897,77.6498567,Apartment,"Electronic City, Bengaluru",1.8612254287472514,0.8629794400080505,5,6,345
3813,The Coach Villaments,12.8406738,77.6493038,Apartment,"Electronic City, Bengaluru",1.6039790363986917,0.34783312329434024,2,2,117
3814,ATS NEST Apartment.,12.846391,77.6510066,Apartment,"Electronic City, Bengaluru",1.3418930347921505,0.7157940476105521,6,7,410
3815,Unitech Uniworld Resorts,12.8406761,77.668377,Apartment,"Electronic City, Bengaluru",0.7480071029605362,2.393781489952545,12,14,817
3816,ANR ManjuShri Residency,12.8479551,77.6543304,Apartment,"Electronic City, Bengaluru",1.0205640252863604,1.1016398202184123,8,9,530
3818,Qaiser Residency,12.8384613,77.6432041,Apartment,"Electronic City, Bengaluru",2.309300363401319,0.5065325141834384,3,4,211
3819,Sreevaru Srivasine,12.8454254,77.6528875,Apartment,"Electronic City, Bengaluru",1.1322522411449338,0.8147136002880742,7,8,494
3821,Hamzafar apartments,12.838015,77.6465075,Apartment,"Electronic City, Bengaluru",1.9939434919596715,0.42655755256970496,2,2,141
3824,K and T's Sai Serenity,12.8496018,77.6495345,Apartment,"Electronic City, Bengaluru",1.571491631683277,0.929639352725998,6,7,434
3825,Sairam Palace,12.8428092,77.64542,Apartment,"Electronic City, Bengaluru",1.9607642969011472,0.1454962904964451,1,1,86
3827,Ajmera Infinity Apartments,12.8425178,77.6476291,Apartment,"Electronic City, Bengaluru",1.7293471898416328,0.15939076161647914,5,5,313
3828,Prime city Apartments,12.8489751,77.6496914,Apartment,"Electronic City, Bengaluru",1.5351276718011757,0.8723635820241045,6,7,411
3831,MJR Clique Hercules,12.8299964,77.6658536,Apartment,"Electronic City, Bengaluru",1.7194763678056253,2.493376711304149,10,11,672
3833,SAI NILAYAM,12.8446277,77.6446252,Apartment,"Electronic City, Bengaluru",2.029076365112734,0.3601922189275629,2,3,162
3837,Concorde Tech Turf,12.8320597,77.6554395,Apartment,"Electronic City, Bengaluru",1.6991941901401857,1.4696568839961404,7,8,503
3838,Sanvi Elite,12.8453427,77.6505581,Apartment,"Electronic City, Bengaluru",1.3846723944111876,0.6010134024844983,6,7,436
3839,Shrujana Nilaya,12.8462771,77.6551591,Apartment,"Electronic City, Bengaluru",0.8929855230701914,1.0765262399804527,9,10,610
3840,Balaji Brundhavanam,12.847469,77.6522501,Apartment,"Electronic City, Bengaluru",1.2259951241036313,0.8959557432868025,7,8,455
3841,"Sai Srinivasa Enclave, Block-A",12.8503289,77.6465365,Apartment,"Electronic City, Bengaluru",1.9057688711036957,0.943389749694073,5,5,314
3843,Jmr residency doddathogur electronic city,12.8499759,77.6485998,Apartment,"Electronic City, Bengaluru",1.6807212680058377,0.9367773687545153,7,8,479
3844,SAMK Whitestone Ashraya,12.8322893,77.6657192,Apartment,"Electronic City, Bengaluru",1.4656803488118124,2.3555195860114106,13,15,907
3845,Alps Northbrook,12.8424055,77.6453754,Apartment,"Electronic City, Bengaluru",1.972286595830197,0.12065550747434566,1,1,78
3847,Vijay Krishna Mansion,12.8459356,77.6507647,Apartment,"Electronic City, Bengaluru",1.3642958986203475,0.6617021027455476,6,7,416
3849,Electronic city site,12.8371517,77.6437083,Apartment,"Electronic City, Bengaluru",2.310588089424992,0.594453076991731,2,3,175
3850,Mahaadeva constructions,12.8334276,77.6561398,Apartment,"Electronic City, Bengaluru",1.5295876788537845,1.4169266210686489,6,8,454
3851,3,12.8498316,77.6544841,Apartment,"Electronic City, Bengaluru",1.0852495879616153,1.2528980462938666,9,10,606
3852,Home,12.8464484,77.6547533,Apartment,"Electronic City, Bengaluru",0.9391266819410411,1.0467797598484714,9,10,603
3853,Subha Omkara,12.8321217,77.666002,Apartment,"Electronic City, Bengaluru",1.4896841012652282,2.3912922150139995,13,15,913
3855,Anoop Building,12.8376576,77.6468438,Apartment,"Electronic City, Bengaluru",1.9773193016081279,0.4691851981332314,3,3,159
3856,"No.14, Gowrishikara, Tech City Layout",12.8464053,77.6496887,Apartment,"Electronic City, Bengaluru",1.4843390657838524,0.6240965904307998,4,5,298
3858,"Godrej E-City, Bangalore",12.8517386,77.6527574,Apartment,"Electronic City, Bengaluru",1.3536055208732158,1.3020398177171124,8,9,541
3859,E BLOCK,12.8429066,77.6476183,Apartment,"Electronic City, Bengaluru",1.723397760535529,0.18273867936081958,2,2,98
3860,Banglore home,12.8404408,77.6475333,Apartment,"Electronic City, Bengaluru",1.7945664137435426,0.20367401203610513,1,2,92
3861,Innagai,12.8504074,77.65214,Apartment,"Electronic City, Bengaluru",1.341236135784782,1.1414043645087277,8,9,520
3862,K%26T Sai Swagruha,12.84654,77.6490179,Apartment,"Electronic City, Bengaluru",1.558100699540389,0.5976844598155168,4,5,300
3863,Tarun's Nest,12.8469333,77.652666,Apartment,"Electronic City, Bengaluru",1.1709414836736274,0.8897899578024319,7,8,454
3866,Sreenivasa building,12.8377813,77.6487613,Apartment,"Electronic City, Bengaluru",1.7851638187763916,0.5233524607064672,3,4,241
3868,Sharma Residency Electronic City Bangalore,12.8489445,77.6466452,Apartment,"Electronic City, Bengaluru",1.854581312328441,0.7899257145803472,6,7,393
3872,Vidhaan Residency,12.8428014,77.6456872,Apartment,"Electronic City, Bengaluru",1.9322051376280198,0.12692370962721003,1,1,77
3873,P Ananda Reddy building,12.8516737,77.6639808,Apartment,"Electronic City, Bengaluru",0.7163189694020429,2.2035677587822917,9,10,614
3877,TMT Building,12.8460667,77.6553587,Apartment,"Electronic City, Bengaluru",0.8688070968525395,1.085496989153729,9,10,615
3879,YAP Residence,12.8379706,77.6476242,Apartment,"Electronic City, Bengaluru",1.8859611816360495,0.45332969559264963,3,3,176
3880,"NV Recidency,%23325",12.8389033,77.6490685,Apartment,"Electronic City, Bengaluru",1.7002005554647366,0.44195123560735405,3,4,241
3881,"House no 40, site no 620, 5th cross, neeladri Nagar, electronic city phase 1",12.8372524,77.6486823,Apartment,"Electronic City, Bengaluru",1.8207844026285145,0.5710448821660924,4,4,258
3882,SMP House doddathogur,12.847539,77.6526909,Apartment,"Electronic City, Bengaluru",1.1808557396096278,0.9360329279785606,7,8,471
3883,Gowramma building,12.846977,77.6557463,Apartment,"Electronic City, Bengaluru",0.8439774864339898,1.1694270141356646,8,9,564
3884,Home Electronic City,12.8462987,77.6520142,Apartment,"Electronic City, Bengaluru",1.23217616886109,0.7904442567010592,7,7,446
3885,LAA Moonstone,12.8358052,77.6644558,Apartment,"Electronic City, Bengaluru",1.0587193065229048,2.076813930824082,11,12,739
3886,KGS HOMES,12.8503207,77.6554587,Apartment,"Electronic City, Bengaluru",1.0220026835821001,1.366475158163588,9,10,618
3889,VBM Maple,12.8498899,77.6457023,Apartment,"Electronic City, Bengaluru",1.9790980788947448,0.896891526912729,4,5,289
3890,Ittina Mahaveer Apartments,12.8410322,77.6484401,Apartment,"Electronic City, Bengaluru",1.6814288405685274,0.2460908320540873,1,1,82
3892,Sai Krishna Residency,12.848402,77.6521249,Apartment,"Electronic City, Bengaluru",1.2639265980998542,0.9622702585501176,7,8,466
3894,Lokesh Reddy Building,12.849542,77.655001,Apartment,"Electronic City, Bengaluru",1.020659428754254,1.2711536367185248,9,11,634
3898,Sri Venkateshwara Residency,12.8466851,77.6552184,Apartment,"Electronic City, Bengaluru",0.8935116632383424,1.1036345023012981,9,10,593
3899,Electronic City Bengaluru,12.8452145,77.6601695,Apartment,"Electronic City, Bengaluru",0.34269262010979873,1.5464285339022217,6,7,414
3901,Bellandur gate,12.8479996,77.6655628,Apartment,"Electronic City, Bengaluru",0.38882287120681225,2.1944679861657233,8,10,571
3903,MANYA Hi-Living,12.8499394,77.6535815,Apartment,"Electronic City, Bengaluru",1.177856364538182,1.1948832495226827,9,10,618
3904,"Godrej Nurture, Electronic City, Bangalore",12.8344182,77.6606818,Apartment,"Electronic City, Bengaluru",1.2395989382084724,1.761672235789779,13,15,875
3905,Royal Sai Homes - Serviced Apartment,12.8529704,77.6562283,Apartment,"Electronic City, Bengaluru",1.1520658888849662,1.637490297986901,10,12,711
3906,Shriram SUMMITT LANDOWNER UNITS,12.8408719,77.6643847,Apartment,"Electronic City, Bengaluru",0.5014766987741498,1.9604166965093472,9,10,589
3907,Sicindri Residency,12.8476917,77.6453664,Apartment,"Electronic City, Bengaluru",1.9661145031424807,0.6582172673367793,3,4,240
3908,sushil_home,12.8424871,77.6461849,Apartment,"Electronic City, Bengaluru",1.884217747824469,0.07286487544133848,1,1,59
3909,KSSIDC Complex,12.8395548,77.6622838,Apartment,"Electronic City, Bengaluru",0.6447815272988698,1.7483343467044583,9,10,582
3910,NLR Residency,12.8494539,77.6549284,Apartment,"Electronic City, Bengaluru",1.0231303207129407,1.2587405584194404,9,11,636
3911,Aubree @Electronic City,12.840474,77.6517747,Apartment,"Electronic City, Bengaluru",1.3612434012699084,0.6097430733193404,2,3,155
3912,Amethyst Central Serviced Apartments,12.85112,77.657199,Apartment,"Electronic City, Bengaluru",0.9305652464722537,1.5657838100666126,8,10,580
3913,SLR Habitat,12.8483691,77.6551437,Apartment,"Electronic City, Bengaluru",0.9523396000474862,1.1995787750213107,8,9,566
3914,Krishna Reddy Building,12.8495549,77.6552205,Apartment,"Electronic City, Bengaluru",1.000352031734073,1.2898043911171055,9,11,633
3915,Genesis Ecosphere,12.8408826,77.6497294,Apartment,"Electronic City, Bengaluru",1.552865895729922,0.38386459036992365,1,2,97
3916,House,12.8436868,77.640993,Apartment,"Electronic City, Bengaluru",2.4279607332747752,0.6136656149510453,3,4,232
3918,Rakshahomes,12.8498317,77.6544843,Apartment,"Electronic City, Bengaluru",1.0852356329203798,1.2529212246198385,9,10,606
3919,Kalpavruksha,12.8397041,77.6501611,Apartment,"Electronic City, Bengaluru",1.5557644869219551,0.47888110308137294,2,3,151
3920,Colive Imperia PG,12.8521846,77.6661837,Apartment,"Electronic City, Bengaluru",0.8294932730687116,2.4401056933818634,11,13,757
3922,VBM Pride,12.8461069,77.6528592,Apartment,"Electronic City, Bengaluru",1.1390465501820843,0.8517325252167172,7,8,470
3924,Garudadri Serviced Apartments,12.8375282,77.6498562,Apartment,"Electronic City, Bengaluru",1.6951545517575788,0.6138514354305985,4,4,254
3925,Prime,12.8411679,77.6643814,Apartment,"Electronic City, Bengaluru",0.4694027311358889,1.9585129731557633,9,10,594
3929,Amith apartments,12.8487422,77.6393346,Apartment,"Electronic City, Bengaluru",2.6300013569996192,1.078385746019888,8,9,537
3930,House for rent in Electronic city 1Bhk 2Bhk Room for rent in Electronic city,12.8523238,77.6638879,Apartment,"Electronic City, Bengaluru",0.7874503058136507,2.2316933823430376,10,11,638
3931,symphony suites,12.8358066,77.6644372,Apartment,"Electronic City, Bengaluru",1.058334087598077,2.0748555359479077,11,12,739
3932,Rosario StayAbode,12.8397125,77.6501636,Apartment,"Electronic City, Bengaluru",1.5551448178309104,0.47865232557257703,2,3,151
3934,Concorde Cuppertino,12.8414474,77.6531316,Apartment,"Electronic City, Bengaluru",1.1842638305218114,0.7387591435740157,3,4,232
3935,Maka sundance,12.8430636,77.656476,Apartment,"Electronic City, Bengaluru",0.7822855699742289,1.1082807441848457,8,9,538
3939,CoHo Electronic City,12.8477441,77.6436761,Apartment,"Electronic City, Bengaluru",2.1485137507619707,0.7160394409938674,3,3,198
3940,Laasya pride,12.8572046,77.6461591,Apartment,"Electronic City, Bengaluru",2.2865648794500832,1.7077674760083603,6,7,408
3942,Apartment building,12.845364,77.6282438,Apartment,"Electronic City, Bengaluru",3.803804999071171,1.9993625138426234,8,9,522
3947,Iivaan Residency,12.8369765,77.6383002,Apartment,"Electronic City, Bengaluru",2.865766599407853,1.0252453487688282,5,6,334
3948,FOLK Residency,12.8429241,77.6534924,Apartment,"Electronic City, Bengaluru",1.0977868599005611,0.7857122984808058,4,5,291
3949,Velankani Tech Park,12.8491204,77.6582893,Apartment,"Electronic City, Bengaluru",0.6947072628007551,1.5281205396290418,7,9,510
3950,Electronics City Phase 1,12.8430636,77.656476,Apartment,"Electronic City, Bengaluru",0.7822855699742289,1.1082807441848457,8,9,538
3951,Grexter orion,12.8392021,77.6466313,Apartment,"Electronic City, Bengaluru",1.9317540893994063,0.29593404312509053,2,2,117
3952,BDA Complex,12.8400431,77.6631622,Apartment,"Electronic City, Bengaluru",0.5807137321552095,1.835874786141619,9,10,578
3953,Stanza Living Lisbon House,12.8481906,77.6571926,Apartment,"Electronic City, Bengaluru",0.7407436658975,1.372749015711634,9,11,631
3954,real estate business bangalore,12.846891,77.645209,Apartment,"Electronic City, Bengaluru",1.9728688961385932,0.5738551578305886,4,4,265
3955,Zolo Euphoria Co-Living %7C Redefining PG,12.8492421,77.6551328,Apartment,"Electronic City, Bengaluru",0.9927360296630633,1.2597412860479407,9,10,595
3962,DODDATHOGUR HATHWAY BROBADBAND,12.8503629,77.6532098,Apartment,"Electronic City, Bengaluru",1.2350443166922112,1.2053927241257667,8,9,554
3965,PrimeCity Swimming Pool,12.8487151,77.6483497,Apartment,"Electronic City, Bengaluru",1.6687978261875676,0.7944557649334696,5,6,334
3966,MedPlus Ajmera Infinity Apartment,12.8444095,77.6479151,Apartment,"Electronic City, Bengaluru",1.6738735310524042,0.3327443620398847,3,3,200
3968,Equinox Tech Park,12.8498867,77.6574463,Apartment,"Electronic City, Bengaluru",0.8192758009352592,1.5005314832069132,7,9,530
3970,HELLO PG FOR GENTS,12.8493937,77.6557824,Apartment,"Electronic City, Bengaluru",0.9383580337520095,1.3245131249851134,9,10,627
3974,Sajawat (The Furnishing Studio) ELECTRONIC CITY,12.8413639,77.6493792,Apartment,"Electronic City, Bengaluru",1.573378857281817,0.33494747429646965,1,2,98
3975,Dr Batra%E2%80%99s Homeopathy Clinic,12.8409948,77.6510982,Apartment,"Electronic City, Bengaluru",1.4084727573160536,0.5255890380012296,2,3,150
3981,Infosys Ltd (Corporate Office),12.8458944,77.6629141,Office,"Electronic City, Bengaluru",0.08344606126330364,1.8534285518914606,8,9,523
3982,India Post,12.8398847,77.6630109,Office,"Electronic City, Bengaluru",0.5990421237144549,1.8215973702999022,9,10,590
3983,"Earth block, DXC Office",12.8524696,77.6615528,Office,"Electronic City, Bengaluru",0.8241767845905408,2.0294878003598895,9,10,603
3984,Office,12.8380756,77.6566631,Office,"Electronic City, Bengaluru",1.0775732642763947,1.1962170971597093,8,9,536
3985,"HP %26 DXC Office, Suryawave",12.8471441,77.6590347,Office,"Electronic City, Bengaluru",0.5104940202282215,1.498029148370393,7,8,499
3987,CGI,12.8412294,77.6673679,Office,"Electronic City, Bengaluru",0.6267310876576255,2.2818680742255957,12,13,800
3988,SEW Office Bangalore,12.8397101,77.6615924,Office,"Electronic City, Bengaluru",0.6455570610540299,1.6716707801498167,8,9,552
3989,nAble Co-working Office Space,12.8397492,77.6616898,Office,"Electronic City, Bengaluru",0.6383781069080134,1.6815149338983717,8,9,553
3990,Infosys MNC Building,12.8412829,77.6643536,Office,"Electronic City, Bengaluru",0.4562662020736372,1.955048684286643,9,10,595
3992,Software Technology Parks of India Network Operations Center,12.8384297,77.6630963,Office,"Electronic City, Bengaluru",0.7602531854688683,1.8570397313927258,10,11,633
3993,Hewlett Packard Enterprise - Electronic City Campus,12.8536109,77.6602356,Office,"Electronic City, Bengaluru",0.9870072462478797,1.9959360375158104,9,11,644
3994,GoodWorks CoWork,12.8421071,77.6684583,Office,"Electronic City, Bengaluru",0.6574488936867152,2.3992181903660845,10,11,689
3995,HCL Technologies,12.849919,77.6573626,Office,"Electronic City, Bengaluru",0.8285995903142497,1.4954061417221884,8,9,566
3996,Titan Company,12.8417322,77.6662078,Office,"Electronic City, Bengaluru",0.5014697940323621,2.155098569469973,10,11,659
3997,Cyient Limited,12.8368765,77.6624353,Office,"Electronic City, Bengaluru",0.9375710622558668,1.831478683050914,12,14,810
3999,3M India Limited,12.8436128,77.6597395,Office,"Electronic City, Bengaluru",0.43034942343574156,1.4669984725127572,8,9,523
4000,BESCOM Office,12.8362384,77.6637969,Office,"Electronic City, Bengaluru",1.004767430513022,1.9937626826734896,11,13,760
4001,Electronic citi Post office,12.8398807,77.6628059,Office,"Electronic City, Bengaluru",0.6011787556498704,1.7995884833635634,8,10,572
4002,HPI,12.8411055,77.6659195,Office,"Electronic City, Bengaluru",0.5408528038999283,2.1254083098257452,13,14,829
4003,Doddathogur Panchayat Office,12.8536037,77.6555502,Office,"Electronic City, Bengaluru",1.2536019186252578,1.6456469071150646,10,11,683
4004,"Focus Towers, Infosys",12.8449962,77.6665971,Office,"Electronic City, Bengaluru",0.3554214498192453,2.2249770961283972,11,12,737
4005,Edgeverve Office,12.8463589,77.6615767,Office,"Electronic City, Bengaluru",0.22579681631042248,1.7274235592475462,7,8,469
4006,Infosys Building 1,12.8458794,77.6630264,Office,"Electronic City, Bengaluru",0.07603848916816772,1.8648396574017085,8,9,519
4007,Hewlett Packard Enterprise,12.8542469,77.6608535,Office,"Electronic City, Bengaluru",1.0344164506966327,2.0928999609561507,10,11,674
4010,R And D block 3M India,12.8432905,77.659674,Office,"Electronic City, Bengaluru",0.4530080716255488,1.4555764988669115,7,8,507
4011,Infosys Building 5,12.8468614,77.6620414,Office,"Electronic City, Bengaluru",0.22607230666118625,1.7922781772522236,9,10,592
4013,Infosys Limited,12.8428604,77.6601256,Office,"Electronic City, Bengaluru",0.43825573020422437,1.499900016844864,5,6,368
4014,Prestige Alecto,12.8451168,77.6620927,Office,"Electronic City, Bengaluru",0.13513315882284757,1.7471606535228628,9,11,638
4015,Wipro electronic City,12.8371423,77.6599657,Office,"Electronic City, Bengaluru",0.9738691866486414,1.5681836482396956,5,6,367
4016,EIT Services India Pvt. Ltd.,12.8530933,77.6619941,Office,"Electronic City, Bengaluru",0.8826544423089828,2.108946992737146,9,10,620
4018,Wipro Limited,12.8384639,77.6562719,Office,"Electronic City, Bengaluru",1.075695813610936,1.14164528508694,3,4,246
4019,Infosys Building 6,12.8467211,77.6624927,Office,"Electronic City, Bengaluru",0.1858200546589575,1.834170593830745,9,10,595
4021,Wipro Limited - Gate 4,12.8376979,77.6608416,Office,"Electronic City, Bengaluru",0.8834077782209201,1.639559575447052,6,6,389
4022,Equinox Building Infosys Limited,12.8468138,77.6612824,Office,"Electronic City, Bengaluru",0.2811022346101356,1.7125529163847342,7,8,477
4023,Wipro Limited - Gate 1,12.83858,77.662682,Office,"Electronic City, Bengaluru",0.7464323824789835,1.809667805671882,6,7,395
4025,HPE,12.8400732,77.6645861,Office,"Electronic City, Bengaluru",0.5929281645251138,1.9890580490087046,9,10,606
4027,NRN Holdings,12.8441699,77.6613237,Office,"Electronic City, Bengaluru",0.24917756810004205,1.6459386010225758,7,8,470
4028,Wipro - Gate 11,12.8375538,77.6581442,Office,"Electronic City, Bengaluru",1.0251512667820977,1.3669426846928923,4,5,320
4029,Infosys Building 7,12.846811,77.6627558,Office,"Electronic City, Bengaluru",0.1830438496627464,1.864374161350496,8,9,534
4030,Viteos Capital Market %26 Fund Services,12.8502566,77.6592701,Office,"Electronic City, Bengaluru",0.7085550101249503,1.685969865568943,8,10,588
4031,Infosys Crescent,12.8426244,77.6610466,Office,"Electronic City, Bengaluru",0.3838896437462393,1.5978511986899562,7,8,492
4032,Infosys New Building,12.8450811,77.6665016,Office,"Electronic City, Bengaluru",0.3444220959098834,2.2162650368992765,11,12,739
4033,Infosys Phase 1 - Hiranandani building,12.8422653,77.6613839,Office,"Electronic City, Bengaluru",0.39449763245525193,1.632743525292214,8,9,529
4034,Bharat Heavy Electricals Limited,12.8463643,77.6601685,Office,"Electronic City, Bengaluru",0.36397647462681176,1.5821486536579594,6,7,440
4035,Gate 6 Infosys ltd,12.8502621,77.6640127,Office,"Electronic City, Bengaluru",0.5607780701983162,2.1332141562607587,9,10,581
4036,G4S,12.8459613,77.6517262,Office,"Electronic City, Bengaluru",1.2604000475800363,0.7426711532421572,7,7,448
4037,HP Computing %26 Printing systems India Pvt. Ltd.,12.8430636,77.656476,Office,"Electronic City, Bengaluru",0.7822855699742289,1.1082807441848457,8,9,538
4038,"Wipro Limited, EC-III, Tower 8,",12.8366627,77.6599003,Office,"Electronic City, Bengaluru",1.026059815141467,1.5801689834284274,5,6,386
4039,Infosys Building 2,12.8457964,77.6624575,Office,"Electronic City, Bengaluru",0.1116574183842667,1.80276357962977,8,9,535
4040,Velankani Group,12.8498198,77.6604195,Office,"Electronic City, Bengaluru",0.5969133588607111,1.7661190489427916,9,11,659
4041,HP PPS India Services Private Limited,12.8385924,77.6645905,Office,"Electronic City, Bengaluru",0.7542200908547405,2.0125447704368007,9,10,623
4042,"Yash Technologies,Electronics City",12.8413017,77.667324,Office,"Electronic City, Bengaluru",0.6176574045774388,2.276882183495864,12,13,797
4043,Infosys Building 4,12.8464318,77.6619213,Office,"Electronic City, Bengaluru",0.2005441532007683,1.7655290667002403,8,9,569
4044,Mahindra Electric Corporate Office,12.8491582,77.6585233,Office,"Electronic City, Bengaluru",0.6776122544357541,1.55190068437936,7,9,524
4045,Merck Tower 1,12.8409422,77.6656924,Office,"Electronic City, Bengaluru",0.5444477660847097,2.1015981210636623,9,10,624
4046,Tata Power Service,12.8452869,77.6651523,Office,"Electronic City, Bengaluru",0.19756460360275677,2.0761504027109647,8,9,567
4047,Delta electronics india pvt. Ltd,12.8399611,77.6601856,Office,"Electronic City, Bengaluru",0.6810163811519139,1.5167458894871124,8,9,562
4049,"LIC of India - RR Insurance Solutions, authorized LIC premium collection center",12.8504136,77.6562371,Office,"Electronic City, Bengaluru",0.9588077771737582,1.4356128380782134,8,10,586
4050,Building 9 Infosys,12.8473259,77.6639991,Office,"Electronic City, Bengaluru",0.2405755409869871,2.010124066490415,8,9,534
4051,Schneider Electric,12.8393436,77.6585703,Office,"Electronic City, Bengaluru",0.8363764476178045,1.3559419826667694,4,5,275
4052,Cyber Park,12.8378305,77.6636839,Office,"Electronic City, Bengaluru",0.8273480580029181,1.9337366649960632,10,11,640
4053,HP Inc,12.8411433,77.6655984,Office,"Electronic City, Bengaluru",0.5199233354640452,2.090461495585015,13,14,838
4054,Bharat Sanchar Nigam Limited (BSNL),12.8426035,77.663612,Office,"Electronic City, Bengaluru",0.2972992022926262,1.8755231696541244,10,11,669
4055,Project People Services Pvt. Ltd.,12.843235,77.6643,Office,"Electronic City, Bengaluru",0.24881389196097017,1.9543249958155882,10,11,686
4056,Hicai - Momentive,12.8477047,77.6621829,Office,"Electronic City, Bengaluru",0.29863491643392664,1.8379619598092831,7,8,505
4057,Konnapana Agrahara Grama Panchayath Office.,12.8532012,77.6637259,Office,"Electronic City, Bengaluru",0.8837298901853593,2.2695194792463793,10,11,665
4058,Kewaunee Labway India Pvt Ltd (Corporate Office),12.854555,77.6621794,Office,"Electronic City, Bengaluru",1.040727386796471,2.224677670001615,10,11,672
4059,"Infosys Limited, Building 12",12.8483488,77.6655247,Office,"Electronic City, Bengaluru",0.41753985403866745,2.202977742258308,9,10,575
4060,3M india ltd-Blr plant,12.8433418,77.6595955,Office,"Electronic City, Bengaluru",0.4577832342203417,1.4477618037490176,7,8,507
4061,Infosys Limited,12.8501103,77.6663331,Office,"Electronic City, Bengaluru",0.6296845824156042,2.355225422152501,10,11,635
4062,Office Of Assistance Commissioner,12.8392345,77.6617083,Office,"Electronic City, Bengaluru",0.6930164899785962,1.6923831195724406,9,10,583
4063,"F2, Mahesh Reddy Building,",12.8482751,77.6624073,Office,"Electronic City, Bengaluru",0.3495521740088483,1.8838675572395636,8,9,516
4064,Suhas Tech Park,12.840166,77.6644167,Office,"Electronic City, Bengaluru",0.578875170486742,1.9697776225834667,9,10,602
4065,TUV Rheinland New Building,12.8436607,77.6652137,Office,"Electronic City, Bengaluru",0.2710044826856169,2.0571857782545444,8,10,585
4066,EIT Services India Private Limited,12.8384383,77.6649765,Office,"Electronic City, Bengaluru",0.7795824517895011,2.056813741606373,9,11,631
4067,Infosys Building 34,12.850474,77.665971,Office,"Electronic City, Bengaluru",0.6463086203850731,2.3354468324179583,9,10,614
4068,ZED Tech Park,12.8374512,77.6625544,Office,"Electronic City, Bengaluru",0.8726964599175799,1.8256526743561712,12,14,813
4069,Robert Bosch Engineering and Business Solutions Private Limited,12.8377739,77.6637915,Office,"Electronic City, Bengaluru",0.8342530838030728,1.9465435331083742,10,11,665
4070,Infosys M %26 C (EC53),12.8418845,77.6602511,Office,"Electronic City, Bengaluru",0.5025506158865464,1.5092773088615121,5,6,353
4072,Alankit,12.8432399,77.6618974,Office,"Electronic City, Bengaluru",0.27337307708853326,1.6948385205861916,7,8,503
4073,GE Intelligence Training Center,12.8490103,77.6583396,Office,"Electronic City, Bengaluru",0.6828877189949675,1.5263260548064714,7,9,516
4074,Siemens Technology and Services Private Limited,12.8450867,77.6609407,Office,"Electronic City, Bengaluru",0.2597834494053711,1.6244650997939638,6,7,432
4075,M%26C,12.8424492,77.660231,Office,"Electronic City, Bengaluru",0.4591086231157397,1.5085766694245353,5,6,362
4076,Infosys Plot No 86 A And B,12.8435753,77.6612596,Office,"Electronic City, Bengaluru",0.29258371504588315,1.62996770200526,7,8,492
4077,Novellogic Systems Private Limited,12.8430636,77.656476,Office,"Electronic City, Bengaluru",0.7822855699742289,1.1082807441848457,8,9,538
4078,GoodWorks Infinity Park,12.8422002,77.6686594,Office,"Electronic City, Bengaluru",0.6706696090383865,2.421163879521282,10,12,692
4081,TechnoSoft International LLP,12.8432084,77.6642362,Office,"Electronic City, Bengaluru",0.2486853069831469,1.9471978445139302,10,11,685
4082,Surya Wave Techpark,12.8470951,77.6589387,Office,"Electronic City, Bengaluru",0.5178377387861466,1.486317893153347,7,8,500
4083,GATE 2 INFOSYS LIMITED,12.8455462,77.6626966,Office,"Electronic City, Bengaluru",0.07555596257719281,1.8214326956387663,7,8,475
4084,Timken India Limited,12.8518032,77.6597298,Office,"Electronic City, Bengaluru",0.8253596556170958,1.8264701341716736,9,10,605
4085,STPI IoT Open Lab,12.8389435,77.663964,Office,"Electronic City, Bengaluru",0.7060507655132497,1.93888524924383,9,10,614
4086,Entco Software India Pvt. Ltd.,12.842297,77.6646119,Office,"Electronic City, Bengaluru",0.357885634556648,1.9826717541489607,9,11,643
4087,Infosys Gate 1,12.8413124,77.6609021,Office,"Electronic City, Bengaluru",0.5121171543519235,1.5809695836561946,7,9,519
4088,Rudhra Coworks,12.840116,77.6638772,Office,"Electronic City, Bengaluru",0.5753872279312092,1.9121121579958362,9,10,588
4089,Infosys ec47 gate3,12.8454794,77.6613635,Office,"Electronic City, Bengaluru",0.2145591801297744,1.6791554707994936,6,7,446
4090,Verifone,12.8378287,77.6637483,Office,"Electronic City, Bengaluru",0.8279009617097638,1.94057653607484,10,11,641
4091,Infosys Building 11,12.8489351,77.6647621,Office,"Electronic City, Bengaluru",0.43683440670033435,2.148106027684001,9,10,589
4093,Taneira Logistics Centre,12.8398246,77.6595097,Office,"Electronic City, Bengaluru",0.7329671939734125,1.4464906436140197,4,5,313
4094,Rto Consultants,12.8410943,77.6642908,Office,"Electronic City, Bengaluru",0.4750964940660242,1.949032680467559,9,10,591
4095,Micro Focus India,12.8420449,77.6647361,Office,"Electronic City, Bengaluru",0.38894971265685774,1.9956278649195827,9,11,637
4096,Infosys Heritage Building,12.8477413,77.6640967,Office,"Electronic City, Bengaluru",0.2878324115238083,2.0346141848904207,8,9,548
4097,Oppo Service Center Electronic City,12.8401566,77.6640906,Office,"Electronic City, Bengaluru",0.5737620860835285,1.9346875694905599,9,10,588
4098,OnMobile Global Limited,12.841078,77.665804,Office,"Electronic City, Bengaluru",0.5371079067435265,2.113017668607106,13,14,832
4099,Genpact,12.8390252,77.6645043,Office,"Electronic City, Bengaluru",0.7051983022907377,1.995218242443511,9,10,615
4100,Momentive MBS Office,12.845054,77.6649849,Office,"Electronic City, Bengaluru",0.18089775696963714,2.0536617131239243,8,10,571
4102,ESN World Laptop Service Center,12.8503415,77.6565029,Office,"Electronic City, Bengaluru",0.9309712896335612,1.452069906114285,8,10,575
4103,"GBS Systems %26 Services, Electronic City",12.8411138,77.6501613,Office,"Electronic City, Bengaluru",1.5003723152269766,0.4233281338808982,1,2,108
4104,Neridio Systems Pvt.Ltd,12.8446908,77.6624635,Office,"Electronic City, Bengaluru",0.11346998836416665,1.777466557017429,9,11,630
4105,ByDesign India,12.8500151,77.6586682,Office,"Electronic City, Bengaluru",0.7311976988479617,1.6168388425361444,8,10,571
4106,Centre for Development of Telematics (C-DOT),12.8444691,77.6690607,Office,"Electronic City, Bengaluru",0.6275070805559358,2.4815264327783457,11,12,714
4107,Wipro Campus (Electronic City SEZ),12.8375417,77.6564919,Office,"Electronic City, Bengaluru",1.134353555362954,1.201255782350512,8,9,541
4108,Mahindra Electric Mobility Limited,12.8489146,77.6602011,Office,"Electronic City, Bengaluru",0.5290926170713754,1.6967853240530022,9,11,638
4110,JP Software Park,12.844366,77.6660391,Office,"Electronic City, Bengaluru",0.31016274239953323,2.15503762928047,12,13,772
4111,LIC Housing Finance Ltd Electronic City Business Center,12.8445162,77.6656315,Office,"Electronic City, Bengaluru",0.2629549605444609,2.1135108347312834,8,9,562
4112,Salarpuria Infozone,12.851517,77.658534,Office,"Electronic City, Bengaluru",0.8683024897964896,1.7049026118929902,8,10,591
4113,Sify Technologies Limited,12.8380118,77.6637885,Office,"Electronic City, Bengaluru",0.8078288487199825,1.9402406363200255,10,11,642
4114,Electronic City Traffic Police Station,12.8394479,77.6615385,Office,"Electronic City, Bengaluru",0.6751549329920808,1.6702958942064599,8,9,551
4115,Bangalore Bioinnovation Centre,12.8438799,77.6565638,Office,"Electronic City, Bengaluru",0.749503183609167,1.1323016893956313,8,9,522
4116,Mahindra LMM EVTech,12.8496098,77.6599697,Office,"Electronic City, Bengaluru",0.6052597029652185,1.7122283439548076,10,11,689
4117,"Wipro EC4, Tower 12",12.8366111,77.655836,Office,"Electronic City, Bengaluru",1.2592241892395746,1.1837134122380943,5,6,379
4118,ELCITA,12.8499668,77.6623991,Office,"Electronic City, Bengaluru",0.5326880498718399,1.96217352451901,8,9,559
4119,T%C3%9CV Rheinland (India) Pvt. Ltd.,12.8435452,77.6651963,Office,"Electronic City, Bengaluru",0.27824089888411935,2.0540886429643193,9,10,588
4120,Tektide Global,12.8404586,77.6626442,Office,"Electronic City, Bengaluru",0.539377479190803,1.7754484830650816,9,10,581
4122,TaxiVixi%C2%AE,12.8406224,77.6626073,Office,"Electronic City, Bengaluru",0.5219293308231341,1.7699680656421617,9,10,582
4123,Altorum Leren Private Limited,12.8430636,77.656476,Office,"Electronic City, Bengaluru",0.7822855699742289,1.1082807441848457,8,9,538
4124,Electronic city Bangalore,12.8434228,77.6418215,Office,"Electronic City, Bengaluru",2.3407686889494035,0.5192020450268852,3,3,209
4125,Hewlett Packard Enterprise (HPE) : Bengaluru India,12.8539115,77.6601632,Office,"Electronic City, Bengaluru",1.0211179574621299,2.0121421678021685,9,11,652
4127,Esecurewall Technologies,12.8427912,77.6587493,Office,"Electronic City, Bengaluru",0.5676049718683044,1.3505387732337744,7,8,492
4128,Equinox Tech Park,12.8498867,77.6574463,Office,"Electronic City, Bengaluru",0.8192758009352592,1.5005314832069132,7,9,530
4129,Flyover Bustop to Silkboard,12.8455322,77.6653063,Office,"Electronic City, Bengaluru",0.21632302938657613,2.0977184682055574,8,9,523
4130,Aquaguard Office,12.8430636,77.656476,Office,"Electronic City, Bengaluru",0.7822855699742289,1.1082807441848457,8,9,538
4131,Vi - Vodafone Idea Store,12.8403129,77.66257,Office,"Electronic City, Bengaluru",0.556562478976215,1.7689242607800653,8,9,564
4132,Losynth,12.8452608,77.6590348,Office,"Electronic City, Bengaluru",0.46566565350779326,1.4287423462795295,6,7,437
4133,Madhan Gowda,12.8452145,77.6601695,Office,"Electronic City, Bengaluru",0.34269262010979873,1.5464285339022217,6,7,414
4135,Terrier Security Services (India) Pvt Ltd,12.8525817,77.6569404,Office,"Electronic City, Bengaluru",1.0687035372291356,1.6577023550143877,9,10,606
4136,Imcrinox Technologies Pvt Ltd,12.8404514,77.662624,Office,"Electronic City, Bengaluru",0.5404762832975266,1.7733367424892372,9,10,581
4137,"Godrej E-City, Bangalore",12.8517386,77.6527574,Office,"Electronic City, Bengaluru",1.3536055208732158,1.3020398177171124,8,9,541
4138,Samsung SmartCaf%C3%A9 (Touch Tech Telecom),12.8403443,77.6626129,Office,"Electronic City, Bengaluru",0.5524358853999322,1.7732210305472085,8,9,565
4139,Altimetrik India Private Limited,12.8513498,77.6636359,Office,"Electronic City, Bengaluru",0.6776324384348906,2.1532769600032475,9,10,608
4140,Yokogawa India Limited,12.8483879,77.6630758,Office,"Electronic City, Bengaluru",0.3485645399772753,1.9557454151252809,8,9,567
4141,LR PG for Gents,12.8530943,77.6550951,Office,"Electronic City, Bengaluru",1.247125179288614,1.5706899585690155,9,11,661
4143,A to Z Enterprises,12.8443126,77.6656436,Office,"Electronic City, Bengaluru",0.2721657791826725,2.1117523879317206,8,9,568
4145,iPRIMED Education Solutions Private Limited,12.840362,77.662532,Office,"Electronic City, Bengaluru",0.5517945635127813,1.7643041817848604,8,9,564
4147,Janacare Solutions Pvt. Ltd.,12.8438767,77.6565557,Office,"Electronic City, Bengaluru",0.75043567680851,1.1313702065636524,8,9,522
4149,Electronic City Bengaluru,12.8452145,77.6601695,Office,"Electronic City, Bengaluru",0.34269262010979873,1.5464285339022217,6,7,414
4150,Thomas Cook,12.8404204,77.662487,Office,"Electronic City, Bengaluru",0.5461773044014946,1.7588491788279506,9,10,581
4151,Toll Gate Electronic city phase 1,12.8455924,77.6674593,Office,"Electronic City, Bengaluru",0.4491495444119982,2.3282698099789583,8,10,591
4152,SBI Life Insurance Company Limited,12.8398966,77.6620467,Office,"Electronic City, Bengaluru",0.6127256993049432,1.7176951960647058,8,9,559
4154,Snooker Cafe,12.8393852,77.6652427,Office,"Electronic City, Bengaluru",0.6856860364244857,2.068634844025268,10,11,647
4155,Venkatadri IT City,12.8545923,77.6618345,Office,"Electronic City, Bengaluru",1.0499659434808104,2.198597398498187,13,14,851
4156,EdgeVerve Systems Limited,12.8456489,77.6613048,Office,"Electronic City, Bengaluru",0.2237229020604996,1.6776284214119386,6,7,445
4157,DTDC Electronic city,12.853418,77.6638833,Office,"Electronic City, Bengaluru",0.9087756693019045,2.297133441396718,10,11,677
4159,Velankani Tech Park,12.8491204,77.6582893,Office,"Electronic City, Bengaluru",0.6947072628007551,1.5281205396290418,7,9,510
4161,J J Glastronics (Automotive Division),12.8438726,77.6665756,Office,"Electronic City, Bengaluru",0.3843206423346111,2.2064499137324893,12,13,783
4162,McWelHealthCare,12.8438615,77.6577318,Office,"Electronic City, Bengaluru",0.6266168354074814,1.256267896948275,7,9,516
4164,ENTUNE IT Consulting Pvt. Ltd.,12.8379951,77.6626255,Office,"Electronic City, Bengaluru",0.8117582009811335,1.8178860937243193,6,7,403
4165,DOLPHY PACKAGING,12.8451851,77.6603698,Office,"Electronic City, Bengaluru",0.3210520997773649,1.566728772647498,6,7,419
4166,YULU Cycle Stand Near Building 1,12.8458206,77.66353,Office,"Electronic City, Bengaluru",0.06567892365640327,1.9163620730307613,7,8,506
4167,IIITB Back Gate,12.8433525,77.6634553,Office,"Electronic City, Bengaluru",0.212872347883377,1.8641753386633144,10,11,654
4169,Deutsche India Private Limited,12.8491374,77.6594401,Office,"Electronic City, Bengaluru",0.6028682052817046,1.6362457064956695,9,11,630
4170,Celstream Technologies Private Limited,12.842054,77.664756,Office,"Electronic City, Bengaluru",0.38887154352422465,1.9977965222640186,9,11,637
4171,Kaveri Tours Travels,12.8498317,77.6544843,Office,"Electronic City, Bengaluru",1.0852356329203798,1.2529212246198385,9,10,606
4172,"ICICI Bank Electronic City, Bangalore-Branch %26 ATM",12.8501076,77.6624971,Office,"Electronic City, Bengaluru",0.546211969151216,1.9788304243443553,8,9,559
4173,Emerson Automation Solutions Intelligent Platforms Private Limited,12.8491321,77.6602821,Office,"Electronic City, Bengaluru",0.5424788725606057,1.7158565983308753,10,11,688
4174,Electronic City Fire Station,12.8355428,77.6625775,Office,"Electronic City, Bengaluru",1.0839150389759433,1.8958733615604382,12,14,834
4175,Surya park,12.8395423,77.6642475,Office,"Electronic City, Bengaluru",0.643842859791984,1.9593798450922493,9,10,602
4176,Center for Development of Advanced Computing,12.8421412,77.66306,Office,"Electronic City, Bengaluru",0.3483629711989875,1.814088739198765,10,11,672
4177,Mindgroom Career Counselling,12.8433709,77.6608686,Office,"Electronic City, Bengaluru",0.3398229784471532,1.585292257902403,7,8,486
4178,Web Fixer,12.8430636,77.656476,Office,"Electronic City, Bengaluru",0.7822855699742289,1.1082807441848457,8,9,538
4179,Shodhaka Life Sciences Pvt. Ltd.,12.8396565,77.6623769,Office,"Electronic City, Bengaluru",0.6319236316062476,1.7567163653748907,9,10,579
4180,CANARA BANK - BENGALURU ELECTRONIC CITY,12.8401535,77.6638921,Office,"Electronic City, Bengaluru",0.571409764549372,1.913304243879091,9,10,587
4181,IDBI Bank,12.8404514,77.662624,Office,"Electronic City, Bengaluru",0.5404762832975266,1.7733367424892372,9,10,581
4183,Electronic City,12.8452145,77.6601695,Office,"Electronic City, Bengaluru",0.34269262010979873,1.5464285339022217,6,7,414
4185,BloomSuites %7C Electronic City,12.8401347,77.6595513,Office,"Electronic City, Bengaluru",0.7021469541485348,1.4460016225707544,4,5,321
4186,ADVITHA PET HOSPITAL Electronic City,12.8536626,77.665753,Office,"Electronic City, Bengaluru",0.9702248806627269,2.4819543986200547,11,13,759
4187,Uniglobe Study Abroad overseas,12.8409155,77.6640707,Office,"Electronic City, Bengaluru",0.49004370804336594,1.9261607393768705,9,10,583
4188,Z cafe electronic city,12.853461,77.6633335,Office,"Electronic City, Bengaluru",0.9115762294503504,2.2507431669977005,11,12,700
4190,Coffee Cove,12.8443175,77.6640805,Office,"Electronic City, Bengaluru",0.13293422835205107,1.9439269797920065,9,10,620
4191,HDFC Home Loans - BENGALURU (ELECTRONIC CITY),12.8481125,77.6566562,Office,"Electronic City, Bengaluru",0.7898674522644372,1.3185890891086849,9,10,619
4192,Cyber Park,12.8409515,77.6639705,Office,"Electronic City, Bengaluru",0.48441946131078,1.9151009798907277,9,10,581
4193,"Lemon Tree Hotel, Electronics City, Bangalore",12.8407175,77.6596037,Office,"Electronic City, Bengaluru",0.6470538245646675,1.4445599835776974,4,6,334
4195,Paying guest for ladies,12.8505667,77.6645258,Office,"Electronic City, Bengaluru",0.6038219285017531,2.198067253918554,9,11,630
4197,Stanza Living Lisbon House,12.8481906,77.6571926,Office,"Electronic City, Bengaluru",0.7407436658975,1.372749015711634,9,11,631
4198,Sorsfort International School,12.8546863,77.6633693,Office,"Electronic City, Bengaluru",1.0478320965581114,2.3346550962700054,13,15,870
4199,Juicemaker (Electronic city ),12.8487301,77.6627387,Office,"Electronic City, Bengaluru",0.39081864598076776,1.9365874662757536,8,9,526
4200,"Zone by the Park Hotel, Electronic City, Bengaluru",12.8449611,77.6653033,Office,"Electronic City, Bengaluru",0.21653532968719483,2.085925534713855,8,9,551
4202,Crowne Plaza Bengaluru Electronics City,12.8501104,77.6601115,Office,"Electronic City, Bengaluru",0.6420925112099902,1.7540284582709396,9,11,653
4203,Thinker%E2%80%99s Statue,12.8448929,77.6639749,Office,"Electronic City, Bengaluru",0.08111717032709781,1.9427184065996956,9,10,609
4204,Golden Tulip Hotel,12.8401296,77.6596187,Office,"Electronic City, Bengaluru",0.6983722405482167,1.4533198497579614,4,5,320
4206,nSmiles I Private Limited,12.8445653,77.6625064,Office,"Electronic City, Bengaluru",0.11829503395868235,1.779620835265207,9,10,625
4207,Masjid e Rizwan,12.8501668,77.6572012,Office,"Electronic City, Bengaluru",0.8595423701012719,1.4983016077135856,8,9,553
4208,"Narayana Multispeciality Clinic, Electronic City Phase 1",12.848987,77.657569,Office,"Electronic City, Bengaluru",0.7493729707762881,1.4542978426769997,7,9,526
4209,Kritunga Restaurant,12.8417162,77.6465395,Office,"Electronic City, Bengaluru",1.8625565725965725,0.02700980415263333,1,1,21
4211,Delhi Public School Electronic city,12.847209,77.6294197,Office,"Electronic City, Bengaluru",3.682655538366723,1.9277693880578237,7,8,482
4212,Spectrum Physio Centre - Electronic city phase 1,12.8400791,77.6499548,Office,"Electronic City, Bengaluru",1.5604335228609767,0.43944480594592716,2,2,143
4213,Paradise Biryani %7C Electronic City,12.8482997,77.6575888,Office,"Electronic City, Bengaluru",0.7081185007462978,1.4158793762713004,7,8,494
4223,SLV PG for Men,12.8391923,77.6467864,PG,"Electronic City, Bengaluru",1.9163882255901874,0.29933516166133844,2,2,116
4224,Zolo Chronicle - PG in Electronics City Phase,12.8379215,77.6479482,PG,"Electronic City, Bengaluru",1.856703218600882,0.47046554038003435,3,3,187
4226,Zolo Leia PG,12.8412804,77.6493213,PG,"Electronic City, Bengaluru",1.5819880838464662,0.33039799014663274,1,2,95
4229,Zolo Lumiere PG,12.8381635,77.6501467,PG,"Electronic City, Bengaluru",1.6327889858424522,0.582258975401754,3,4,210
4230,Zolo Selene PG,12.8386672,77.6482698,PG,"Electronic City, Bengaluru",1.7899065420656086,0.41142920507380587,3,3,177
4234,Zolo Euphoria Co-Living %7C Redefining PG,12.8492421,77.6551328,PG,"Electronic City, Bengaluru",0.9927360296630633,1.2597412860479407,9,10,595
4235,Zolo Candeo PG,12.8384253,77.6485617,PG,"Electronic City, Bengaluru",1.77245832568836,0.45092569179232433,3,4,233
4236,NAGGACHAITTANYA LADIES PG In Electronic City Phase 1,12.8389079,77.6498394,PG,"Electronic City, Bengaluru",1.6243461684597023,0.5016008596803999,2,3,174
4238,Wake Up Mens Pg EC,12.8330874,77.6562441,PG,"Electronic City, Bengaluru",1.5566426646987528,1.450560639895121,7,8,471
4239,Zolo Creedence Co-Living %7C Redefining PG,12.8387757,77.6486439,PG,"Electronic City, Bengaluru",1.7479752334542473,0.4237850698962693,4,4,250
4240,Sri Venkata Sai PG For Gents,12.8388517,77.6493717,PG,"Electronic City, Bengaluru",1.6728010686954167,0.4687338227653317,3,4,232
4241,SLV PG For Ladies,12.8392632,77.6504653,PG,"Electronic City, Bengaluru",1.5460713194126317,0.5325247957155963,2,3,176
4242,Zolo Delphi,12.8399688,77.649983,PG,"Electronic City, Bengaluru",1.5621736549761294,0.44776924889510866,2,2,145
4244,Naggachaittanyapg For Gents,12.8417037,77.6499124,PG,"Electronic City, Bengaluru",1.5075361560202623,0.38874180995294993,2,2,130
4245,Daffodils PG for women in electronic city,12.8522549,77.6632859,PG,"Electronic City, Bengaluru",0.7774785493268965,2.172202498279659,10,11,656
4247,Star PG (Gents),12.8373244,77.648909,PG,"Electronic City, Bengaluru",1.795439000100462,0.5754275643390263,3,4,232
4249,Royal Pg,12.8391863,77.6594602,PG,"Electronic City, Bengaluru",0.7953582633105329,1.4539586230928394,8,10,573
4250,Sri Janani PG,12.8404531,77.6474494,PG,"Electronic City, Bengaluru",1.8028425601225144,0.19689115365929052,1,2,92
4251,SV HOMES LUXURY PG FOR LADIES,12.8407477,77.6458518,PG,"Electronic City, Bengaluru",1.960271154514266,0.13278421242362173,1,1,57
4253,VijayaLakshmi PG,12.8393511,77.6500925,PG,"Electronic City, Bengaluru",1.578531953572976,0.4934090148465369,2,3,160
4254,Gauthami PG for Girls,12.838359,77.6497257,PG,"Electronic City, Bengaluru",1.6627391188697918,0.5347869388914402,3,3,189
4256,Zolo Cider Co-Living %7C Redefining PG,12.8387691,77.6490685,PG,"Electronic City, Bengaluru",1.706461589168601,0.45311501576262864,3,4,237
4257,Paying guest for ladies,12.8505667,77.6645258,PG,"Electronic City, Bengaluru",0.6038219285017531,2.198067253918554,9,11,630
4258,Sri Venkateshwara PG Electronic city,12.8381607,77.6479047,PG,"Electronic City, Bengaluru",1.8494261351111565,0.44406252586611755,3,3,167
4260,Kumar Pg For Gents,12.8377514,77.648213,PG,"Electronic City, Bengaluru",1.8394737836645685,0.49910663715559966,3,3,201
4261,Colive Imperia PG,12.8521846,77.6661837,PG,"Electronic City, Bengaluru",0.8294932730687116,2.4401056933818634,11,13,757
4262,Shri Chaitanya PG,12.841833,77.6498235,PG,"Electronic City, Bengaluru",1.5131499878774097,0.37877939773543573,2,2,135
4264,Royal PG for Ladies,12.851198,77.6640706,PG,"Electronic City, Bengaluru",0.6648062138497488,2.1863842447873827,9,10,606
4266,Annapoorneshwari Pg,12.8386884,77.6493315,PG,"Electronic City, Bengaluru",1.6845457036835227,0.4788339094845728,3,4,225
4270,Sri Lakshmi venkateshwara PG for ladies,12.8415397,77.6497419,PG,"Electronic City, Bengaluru",1.5302132841924376,0.37150659667186453,2,2,125
4271,SRI ANNAPOORNESHWARI PG,12.8504342,77.6561053,PG,"Electronic City, Bengaluru",0.9716585209942542,1.4264862240735334,8,10,590
4274,Heaven PG,12.8480596,77.6547299,PG,"Electronic City, Bengaluru",0.982855129261174,1.143038910264903,8,9,542
4276,Sri Balaji PG for Gents In Electronic City Phase 1,12.8396678,77.6499661,PG,"Electronic City, Bengaluru",1.57677569228838,0.46276481165823696,2,3,152
4281,S.S.M PG FOR LADIES,12.8515122,77.6647923,PG,"Electronic City, Bengaluru",0.7127303221456777,2.271834324954344,10,11,651
4282,Comfort Homes Ladies PG,12.8396164,77.6456462,PG,"Electronic City, Bengaluru",2.017372575376685,0.2588856126418905,2,2,123
4284,Svs pg,12.8386264,77.6503537,PG,"Electronic City, Bengaluru",1.5886256931853042,0.5644332354540601,3,3,195
4288,VSR STAY IN LADIES PG MAINTAIN BY PRAZO,12.8536172,77.662762,PG,"Electronic City, Bengaluru",0.9309843406688306,2.2105246384924695,11,12,720
4289,7 Hills PG for Ladies,12.8412622,77.6498739,PG,"Electronic City, Bengaluru",1.525155480616152,0.3897078720126074,2,2,118
4290,Snehita PG,12.8543811,77.6636212,PG,"Electronic City, Bengaluru",1.0143777040608533,2.335917534678539,13,15,878
4293,SRI SAI BALAJI PG FOR GENTS,12.8379352,77.6497707,PG,"Electronic City, Bengaluru",1.6807476530581567,0.5730537767302898,3,4,237
4295,HELLO PG FOR GENTS,12.8493937,77.6557824,PG,"Electronic City, Bengaluru",0.9383580337520095,1.3245131249851134,9,10,627
4299,Angels Nest Ladies PG,12.8410315,77.6476921,PG,"Electronic City, Bengaluru",1.75945031687091,0.17332931808494909,1,1,70
4306,Vijayalakshmi Pg For Gents,12.8391236,77.6486991,PG,"Electronic City, Bengaluru",1.726869570026146,0.3971202402130743,4,4,259
4308,ABHIRAM LUXURY PG FOR WOMEN,12.8383296,77.6502874,PG,"Electronic City, Bengaluru",1.6105303592659497,0.580597411496244,3,3,204
4309,Sri Sai Srinivasa Gents PG,12.8535095,77.6654993,PG,"Electronic City, Bengaluru",0.9466432867659003,2.449608868358783,11,13,759
4310,Royal pg for ladies,12.8399845,77.6499387,PG,"Electronic City, Bengaluru",1.5659681400879635,0.4427072266673223,2,2,145
4311,Sri Balaji PG for Gents,12.8500249,77.6558716,PG,"Electronic City, Bengaluru",0.9665314694961001,1.37730299544483,9,10,608
4315,OYO LIFE BLR1561,12.8390567,77.6482629,PG,"Electronic City, Bengaluru",1.773288111951045,0.37444143630038124,3,3,190
4316,JMJ GRANDLADIES PG,12.8533914,77.6631611,PG,"Electronic City, Bengaluru",0.9040226965045164,2.2309996440900797,11,12,706
4319,Shri Ganesh PG For Gents,12.850683,77.6548938,PG,"Electronic City, Bengaluru",1.0953061420488293,1.3517844145505566,8,10,586
4324,Sri Sai Ganga Gouthami PG for GENTS,12.8381063,77.6495973,PG,"Electronic City, Bengaluru",1.6881623357488509,0.5463769337330036,3,3,198
4325,Manikanta PG For Gents,12.8493453,77.6557352,PG,"Electronic City, Bengaluru",0.940213422353295,1.317144794692363,9,10,629
4328,G K PG,12.8502966,77.6589733,PG,"Electronic City, Bengaluru",0.7323726655211714,1.6618021547054098,8,10,584
4331,Naggachaitanya Ladies Pg,12.839873,77.646783,PG,"Electronic City, Bengaluru",1.891401429902366,0.22495502215570656,1,2,94
4332,Royal luxury pg,12.8400791,77.6499548,PG,"Electronic City, Bengaluru",1.5604335228609767,0.43944480594592716,2,2,143
4334,Best Boys%2FGirls PG in Bangalore,12.8404707,77.6474463,PG,"Electronic City, Bengaluru",1.8025839479899899,0.19514539686743515,1,2,92
4335,Sri Lasya PG For gents,12.8519212,77.6549382,PG,"Electronic City, Bengaluru",1.1729540672497263,1.4580049229333953,9,11,630
4336,Sunshine Pg For Ladies,12.8540156,77.6631534,PG,"Electronic City, Bengaluru",0.9734334941570721,2.2709722829119037,12,13,761
4337,Gents PG,12.8381222,77.6450985,PG,"Electronic City, Bengaluru",2.130085144892893,0.4351780662293868,2,3,154
4338,AVS PG For Ladies,12.8534709,77.6630583,PG,"Electronic City, Bengaluru",0.9131525912398185,2.2270123731447273,11,12,708
4340,S R Comforts,12.8376296,77.6499923,PG,"Electronic City, Bengaluru",1.6767201661894748,0.6145006949664245,4,4,257
4342,VSR PG For Womens,12.851198,77.6640706,PG,"Electronic City, Bengaluru",0.6648062138497488,2.1863842447873827,9,10,606
4346,New Deluxe PG,12.8329072,77.6568181,PG,"Electronic City, Bengaluru",1.544685230759861,1.5103695833233939,7,8,485
4351,LOTUS PG For Ladies,12.8517011,77.6648199,PG,"Electronic City, Bengaluru",0.733876542742857,2.284470170556658,10,11,645
4352,Sri Durga PG,12.8384668,77.6498829,PG,"Electronic City, Bengaluru",1.642089392021919,0.5382210829523126,3,3,185
4354,Stanza Living Lisbon House,12.8481906,77.6571926,PG,"Electronic City, Bengaluru",0.7407436658975,1.372749015711634,9,11,631
4355,Sri Srinivasa Gents P.G,12.8498898,77.6544431,PG,"Electronic City, Bengaluru",1.0922126986100087,1.254371281669258,9,10,592
4357,Sai Baba PG for Gents,12.8382123,77.6477838,PG,"Electronic City, Bengaluru",1.8588592830796054,0.4338387257558479,3,3,166
4363,Sri Venkateshwara PG For Gents,12.8498085,77.6552165,PG,"Electronic City, Bengaluru",1.0144833991868734,1.3083922742120995,9,10,626
4364,Vijayalakshmi pg for Ladies,12.8384292,77.6501085,PG,"Electronic City, Bengaluru",1.6223684413638564,0.558824059854387,3,3,202
4366,Stanza Living Messina House,12.8377641,77.6494264,PG,"Electronic City, Bengaluru",1.7226193239623575,0.5646661205348711,3,4,238
4367,SLN1 LADIES PG,12.8400989,77.6505997,PG,"Electronic City, Bengaluru",1.4948386611651188,0.5020906920194504,2,3,153
4369,Sri Bhuvaneshwari PG for Gents,12.8480202,77.6549523,PG,"Electronic City, Bengaluru",0.9586031841529433,1.1597416929989284,8,9,549
4372,Nishi Ladies PG -- Prazo,12.8540599,77.6632647,PG,"Electronic City, Bengaluru",0.9781965999827977,2.283600011831895,12,13,759
4373,Satya Gents PG Hostel,12.8377061,77.6494842,PG,"Electronic City, Bengaluru",1.7202799060072445,0.5735787183759897,3,4,240
4375,Kaveri PG,12.854098,77.664098,PG,"Electronic City, Bengaluru",0.9859281261443646,2.3592855778021082,11,12,736
4383,VSS PG for Gents,12.8516289,77.6635179,PG,"Electronic City, Bengaluru",0.7081483208079078,2.1576159670916653,10,11,640
4384,Amazing Grace Gents PG,12.8493076,77.6415939,PG,"Electronic City, Bengaluru",2.398988276947479,0.9755859146527641,9,10,594
4385,A.R. Royal PG,12.8324331,77.6580002,PG,"Electronic City, Bengaluru",1.5392063466780217,1.6421612923550726,7,9,517
4388,Shree Sapthagiri Pg For Gents,12.853101,77.66398,PG,"Electronic City, Bengaluru",0.8743889605052472,2.2863454452686276,10,11,665
4389,pure veg pg in electronic city,12.837649,77.6482702,PG,"Electronic City, Bengaluru",1.8391648648248096,0.5120345259048933,3,3,204
4392,Shri Gajalakshmi PG,12.8528396,77.6567462,PG,"Electronic City, Bengaluru",1.104189951015437,1.6641106939201835,9,10,624
4395,VSL PG FOR GENTS,12.8378218,77.6498941,PG,"Electronic City, Bengaluru",1.6752514980442887,0.591337946399377,3,4,243
4396,MS PG FOR GENTS,12.8386409,77.649274,PG,"Electronic City, Bengaluru",1.692455427925238,0.47854111457180737,3,4,223
4397,Sri Dodamma Devi PG,12.851879,77.6572568,PG,"Electronic City, Bengaluru",0.9872754420492066,1.6271590003882719,8,10,584
4401,BALAJI LADIES PG,12.8543659,77.6636214,PG,"Electronic City, Bengaluru",1.0126890341301484,2.334926957216641,13,15,878
4402,Flora Ladies PG,12.8514302,77.6643183,PG,"Electronic City, Bengaluru",0.694078633525949,2.2223071056499504,9,10,623
4403,SRI RAMA SAI PG FOR GENTS,12.8378697,77.64967,PG,"Electronic City, Bengaluru",1.6938276160415593,0.5716237747049677,3,4,234
4404,Guru pg for mens,12.8527465,77.6647045,PG,"Electronic City, Bengaluru",0.8453614905782124,2.3317453934233927,11,12,733
4405,Aadhya Residency (Sri Annapurneshwari Gents PG),12.851793,77.6561506,PG,"Electronic City, Bengaluru",1.064441489790031,1.5351396852084793,9,11,644
4407,Manu Ladies PG maintained by Prazo,12.8531189,77.6635973,PG,"Electronic City, Bengaluru",0.8740164073104828,2.2528435445127912,10,11,674
4410,Sri Mahavishnu PG for Ladies,12.8517655,77.6643115,PG,"Electronic City, Bengaluru",0.7308305174389141,2.239780528538361,10,11,635
4412,PG for Girls,12.8398937,77.6467272,PG,"Electronic City, Bengaluru",1.8964141440587559,0.22145315234868526,1,2,94
4414,Star Paradise PG (Ladies),12.8372015,77.6493761,PG,"Electronic City, Bengaluru",1.7584462441198199,0.613135631709137,3,4,241
4415,Srinivasa pg,12.8533506,77.6631727,PG,"Electronic City, Bengaluru",0.8994621347663835,2.229422399446208,11,12,705
4417,Sri Padmalaya PG for Ladies,12.8508297,77.6568751,PG,"Electronic City, Bengaluru",0.9342703738707435,1.518101847055475,8,10,588
4418,Brindavan ladies pg maintained by prazo,12.853173,77.6633117,PG,"Electronic City, Bengaluru",0.8795542395881337,2.2305727186638604,10,11,684
4419,Tulasi PG for GIRLS,12.8389595,77.6503833,PG,"Electronic City, Bengaluru",1.5688898799199231,0.5442762621712809,2,3,186
4420,Caveland pg for ladies,12.8538406,77.6632813,PG,"Electronic City, Bengaluru",0.9538004925778086,2.270640516231778,11,12,722
4421,Caveland pg for ladies,12.8538406,77.6632813,PG,"Electronic City, Bengaluru",0.9538004925778086,2.270640516231778,11,12,722
4426,Stanza Living Amsterdam House,12.8414469,77.6451781,PG,"Electronic City, Bengaluru",2.0131461274980245,0.13254675128841276,1,1,49
4428,Sri Sai Lakshmi PG for gents (8th cross),12.8383629,77.6480337,PG,"Electronic City, Bengaluru",1.8272348042530262,0.429226875716222,3,3,169
4429,Sri Sathya Sai PG For Gents,12.853859,77.663656,PG,"Electronic City, Bengaluru",0.9564844743837314,2.304826224768855,11,12,745
4432,JMJ LADIES PG,12.8536613,77.662762,PG,"Electronic City, Bengaluru",0.9358773570038167,2.2134313332556794,11,12,720
4439,JMJ grand ladies pg,12.8533952,77.6631605,PG,"Electronic City, Bengaluru",0.9044464711825564,2.2311895836237694,11,12,706
4440,Sri Lakshmi vilas Ladies Hostel,12.853208,77.6634821,PG,"Electronic City, Bengaluru",0.8835974282661535,2.248028760039242,10,11,678
4442,Paradise PG 2,12.837999,77.6479605,PG,"Electronic City, Bengaluru",1.8517301966458586,0.46298847959375977,3,3,183
4443,Balaji PG,12.850948,77.6568503,PG,"Electronic City, Bengaluru",0.9450338196287793,1.5247763177764155,8,10,590
4444,LR PG for Gents,12.8530943,77.6550951,PG,"Electronic City, Bengaluru",1.247125179288614,1.5706899585690155,9,11,661
4446,Sri Srinivasa gents pg,12.8490318,77.6560445,PG,"Electronic City, Bengaluru",0.8941339739163319,1.321917444375781,9,10,620
4454,Uniworld,12.8414502,77.6451686,PG,"Electronic City, Bengaluru",2.014075638289446,0.13339543807307425,1,1,87
4455,RRC Preimum PG,12.8371638,77.6485013,PG,"Electronic City, Bengaluru",1.8427190319339397,0.5715167925692551,4,4,259
4458,Sri BHAVANI PG For Ladies,12.8540612,77.6647474,PG,"Electronic City, Bengaluru",0.9903074209248363,2.414804910188047,11,12,726
4459,Divine homes,12.8414195,77.6492747,PG,"Electronic City, Bengaluru",1.5825915656279788,0.32280145547207906,1,2,100
4461,PG gents,12.8381222,77.6450985,PG,"Electronic City, Bengaluru",2.130085144892893,0.4351780662293868,2,3,154
4462,Stanza Living Regina house,12.8377627,77.6491013,PG,"Electronic City, Bengaluru",1.7536173838613118,0.5445783763205928,3,4,221
4463,Grexter Polaris,12.8387213,77.650401,PG,"Electronic City, Bengaluru",1.5791978126562114,0.5618169789222235,3,3,192
4467,KVR PG FOR GENTS,12.8516951,77.6639789,PG,"Electronic City, Bengaluru",0.7186668274691502,2.2045698121085673,9,10,616
4470,Lakshmi Nivas PG For Gents,12.8528281,77.6632251,PG,"Electronic City, Bengaluru",0.8412778334906018,2.2013296794527992,10,11,663
4473,Zolo Orenda,12.8392271,77.6467843,PG,"Electronic City, Bengaluru",1.915241730713933,0.29548150930533684,2,2,115
4474,Executive PG,12.8530012,77.6639254,PG,"Electronic City, Bengaluru",0.8628653539287211,2.275326061081487,10,11,660
4476,SLN-1 Ladies PG,12.8472624,77.6610756,PG,"Electronic City, Bengaluru",0.33040395284121304,1.7082833755804634,7,8,484
4481,Stanza Living Aurora House,12.8328458,77.6495732,PG,"Electronic City, Bengaluru",2.032452913474272,1.0608858683660651,5,5,328
4482,MY HOME NEW PG,12.8328613,77.6579245,PG,"Electronic City, Bengaluru",1.4983728125487055,1.605793539812734,7,8,495
4484,SFS COLLEGE and PG CENTRE (St Francis de Sales College),12.8452145,77.6601695,PG,"Electronic City, Bengaluru",0.34269262010979873,1.5464285339022217,6,7,414
4485,Grexter orion,12.8392021,77.6466313,PG,"Electronic City, Bengaluru",1.9317540893994063,0.29593404312509053,2,2,117
4487,"Godrej E-City, Bangalore",12.8517386,77.6527574,PG,"Electronic City, Bengaluru",1.3536055208732158,1.3020398177171124,8,9,541
4494,Velankani Tech Park,12.8491204,77.6582893,PG,"Electronic City, Bengaluru",0.6947072628007551,1.5281205396290418,7,9,510
6791,MANYA Hi-Living,12.8499394,77.6535815,Apartment,"J.P. Nagar, Bengaluru",1.177856364538182,1.1948832495226827,9,10,618
7446,SJR Equinox Apartment,12.8489724,77.6570602,Apartments,"Junnasandra, Bengaluru",0.795086839634529,1.4074896041492064,8,10,572
8046,Paying guest for ladies,12.8505667,77.6645258,PG,"Junnasandra, Bengaluru",0.6038219285017531,2.198067253918554,9,11,630
8066,Naggachaittanyapg For Gents,12.8417037,77.6499124,PG,"Junnasandra, Bengaluru",1.5075361560202623,0.38874180995294993,2,2,130
8071,Zolo Delphi,12.8399688,77.649983,PG,"Junnasandra, Bengaluru",1.5621736549761294,0.44776924889510866,2,2,145
8073,New Deluxe PG,12.8329072,77.6568181,PG,"Junnasandra, Bengaluru",1.544685230759861,1.5103695833233939,7,8,485
8086,Stanza Living Messina House,12.8377641,77.6494264,PG,"Junnasandra, Bengaluru",1.7226193239623575,0.5646661205348711,3,4,238
8998,Prestige Sunrise Park Norwood,12.8345426,77.6637588,Apartment,"Kadubeesanahalli, Bengaluru",1.192962479052092,2.056756576781162,10,12,734
10311,Prestige Sunrise Park Norwood,12.8345426,77.6637588,Apartment,"Kaverappa Layout, Bengaluru",1.192962479052092,2.056756576781162,10,12,734
11335,G K PG,12.8502966,77.6589733,PG,"Koramangala, Karnataka",0.7323726655211714,1.6618021547054098,8,10,584
11339,Comfort Homes Ladies PG,12.8396164,77.6456462,PG,"Koramangala, Karnataka",2.017372575376685,0.2588856126418905,2,2,123
11614,Apartment building,12.845364,77.6282438,Apartment,"Lakkasandra, Bengaluru",3.803804999071171,1.9993625138426234,8,9,522
12411,MANYA Hi-Living,12.8499394,77.6535815,Apartment,"Marathahalli, Bengaluru",1.177856364538182,1.1948832495226827,9,10,618
13530,Paying guest for ladies,12.8505667,77.6645258,PG,"MG Road, Bengaluru",0.6038219285017531,2.198067253918554,9,11,630
14594,Paying guest for ladies,12.8505667,77.6645258,PG,"Radha Reddy Layout, Bengaluru",0.6038219285017531,2.198067253918554,9,11,630
14600,Manu Ladies PG maintained by Prazo,12.8531189,77.6635973,PG,"Radha Reddy Layout, Bengaluru",0.8740164073104828,2.2528435445127912,10,11,674
14921,MANYA Hi-Living,12.8499394,77.6535815,Apartments,"Sarjapura, Bengaluru",1.177856364538182,1.1948832495226827,9,10,618
14972,MANYA Hi-Living,12.8499394,77.6535815,Apartments,"Sarjapura, Bengaluru",1.177856364538182,1.1948832495226827,9,10,618
15181,"HP %26 DXC Office, Suryawave",12.8471441,77.6590347,Office,"Sarjapura, Bengaluru",0.5104940202282215,1.498029148370393,7,8,499
15192,HPE,12.8400732,77.6645861,Office,"Sarjapura, Bengaluru",0.5929281645251138,1.9890580490087046,9,10,606
15225,Broadcom Limited,12.8380047,77.6544898,Office,"Sarjapura, Bengaluru",1.2529756064933684,0.9824487121994382,7,8,481
15254,Altimetrik India Private Limited,12.8513498,77.6636359,Office,"Sarjapura, Bengaluru",0.6776324384348906,2.1532769600032475,9,10,608
15411,Colive Imperia PG,12.8521846,77.6661837,PG,"Sarjapura, Bengaluru",0.8294932730687116,2.4401056933818634,11,13,757
15414,Paying guest for ladies,12.8505667,77.6645258,PG,"Sarjapura, Bengaluru",0.6038219285017531,2.198067253918554,9,11,630
15601,Prestige Sunrise Park Norwood,12.8345426,77.6637588,Apartments,"Thygaraja Layout, Bengaluru",1.192962479052092,2.056756576781162,10,12,734
15619,"Godrej E-City, Bangalore",12.8517386,77.6527574,Apartments,"Thygaraja Layout, Bengaluru",1.3536055208732158,1.3020398177171124,8,9,541
16281,Paying guest for ladies,12.8505667,77.6645258,PG,"Thygaraja Layout, Bengaluru",0.6038219285017531,2.198067253918554,9,11,630
16567,Prestige Sunrise Park Norwood,12.8345426,77.6637588,Apartments,"Vivek nagar, Bengaluru",1.192962479052092,2.056756576781162,10,12,734
17388,MANYA Hi-Living,12.8499394,77.6535815,Apartment,"Whitefield, Bengaluru",1.177856364538182,1.1948832495226827,9,10,618
