,index,Place_name,Latitude,Longitude,Category,Region,haversine_distance_from_centroid,haversine_distance_from_voosh_kitchen,09_30_voosh,19_00_voosh,distance_in_meters_from_voosh,13_30_voosh
0,264,Saroj Group,12.9522835,77.7119978,Apartments,"Adugodi, Bengaluru",1.412193687552859,0.6487245116076025,,,448,7
1,277,Sobha Dream Acres - Flats for Sale in Bangalore,12.9382954,77.7262934,Apartments,"Adugodi, Bengaluru",2.9518444478464856,2.4936980867608844,,,806,13
2,789,Zolo Elements PG,12.965503,77.721947,PG,"Adugodi, Bengaluru",3.1491465496284077,1.1933505507515119,,,352,6
3,961,Sobha Dream Acres - Flats for Sale in Bangalore,12.9382954,77.7262934,Apartment,"Ambalipura, Bengaluru",2.9518444478464856,2.4936980867608844,,,806,13
4,992,Saroj Group,12.9522835,77.7119978,Apartment,"Ambalipura, Bengaluru",1.412193687552859,0.6487245116076025,,,448,7
5,1019,DSR Infrastructure Private Limited,12.9520393,77.7208853,Apartment,"Ambalipura, Bengaluru",2.304447182102301,0.9233114694427111,,,444,7
6,1212,Adobe India,12.9439034,77.6968467,Office,"Ambalipura, Bengaluru",0.4811218406436456,2.4457084279283148,,,869,14
7,1227,Capgemini,12.9696806,77.7248741,Office,"Ambalipura, Bengaluru",3.698308234102637,1.7520980160305282,,,976,16
8,1268,IndiQube Omega,12.959603,77.716588,Office,"Ambalipura, Bengaluru",2.280481404422767,0.3175485221851561,,,155,3
9,1314,DivyaSree Technopark,12.9709443,77.7256946,Office,"Ambalipura, Bengaluru",3.8601793946601197,1.9170969040130674,,,927,15
10,1465,Sri ganesh PG (Gents),12.9481157,77.703623,PG,"Ambalipura, Bengaluru",0.39316281326663566,1.5818234827542141,,,763,13
11,1533,LOTUS PG FOR GENTS,12.9544457,77.693669,PG,"Ambalipura, Bengaluru",1.1443739276900435,2.2871272344611624,,,648,11
12,1535,Zolo Pepper - PG in Marathahalli Bangalore,12.9571713,77.7096945,PG,"Ambalipura, Bengaluru",1.556304144007207,0.5258649732243398,,,686,11
13,1536,Zolo Amber PG,12.9510146,77.7150464,PG,"Ambalipura, Bengaluru",1.665292174908811,0.7310730838384942,,,447,7
14,1538,Pg for boys,12.9502831,77.7020503,PG,"Ambalipura, Bengaluru",0.4565808147135951,1.5765234345680517,,,717,12
15,1544,Zolo Utopia - PG in Kundalahalli,12.9516806,77.7158713,PG,"Ambalipura, Bengaluru",1.7733608740766198,0.6708087099562016,,,412,7
16,1546,Zolo Elements PG,12.965503,77.721947,PG,"Ambalipura, Bengaluru",3.1491465496284077,1.1933505507515119,,,352,6
17,1828,Sobha Dream Acres - Flats for Sale in Bangalore,12.9382954,77.7262934,Apartments,"Bellandur, Bengaluru",2.9518444478464856,2.4936980867608844,,,806,13
18,2152,J.p.comforts Pg,12.9502816,77.7011463,PG,"Bellandur, Bengaluru",0.4274338560642755,1.6614013414264082,,,703,12
19,2153,Sri Jp Comforts,12.9512683,77.6939371,PG,"Bellandur, Bengaluru",0.8771008138846409,2.3389787232165573,,,773,13
20,2162,LOTUS LUXURY PG FOR GENTS,12.9518441,77.7039764,PG,"Bellandur, Bengaluru",0.7091597025330854,1.308926479322601,,,592,10
21,3059,Apartments,12.9486089,77.7121414,Apartment,"Carmelaram, Bengaluru",1.294568153589733,1.0295010584573192,,,636,11
22,3068,Sobha Dream Acres - Flats for Sale in Bangalore,12.9382954,77.7262934,Apartment,"Carmelaram, Bengaluru",2.9518444478464856,2.4936980867608844,,,806,13
23,3100,DSR Infrastructure Private Limited,12.9520393,77.7208853,Apartment,"Carmelaram, Bengaluru",2.304447182102301,0.9233114694427111,,,444,7
24,3105,Saroj Group,12.9522835,77.7119978,Apartment,"Carmelaram, Bengaluru",1.412193687552859,0.6487245116076025,,,448,7
25,3305,Myntra Designs Pvt. Ltd.,12.9431803,77.6986567,Office,"Carmelaram, Bengaluru",0.4151027152801748,2.3492723380824585,,,704,12
26,3307,Indian Post Office Kundalahalli,12.9653158,77.7134103,Office,"Carmelaram, Bengaluru",2.5226373413761642,0.8697991111791888,,,230,4
27,3308,MyAnatomy Integration Pvt Ltd,12.9559693,77.7166278,Office,"Carmelaram, Bengaluru",2.049985974961795,0.28871705383894797,,,249,4
28,3325,DSR Infrastructure Private Limited,12.9520393,77.7208853,Office,"Carmelaram, Bengaluru",2.304447182102301,0.9233114694427111,,,444,7
29,3333,CARnD,12.9531248,77.7082378,Office,"Carmelaram, Bengaluru",1.1243801499481374,0.8421632783550649,,,497,8
30,3337,IndiQube Omega,12.959603,77.716588,Office,"Carmelaram, Bengaluru",2.280481404422767,0.3175485221851561,,,155,3
31,3353,Intel Technology India Private Limited (EMB),12.958111,77.7165571,Office,"Carmelaram, Bengaluru",2.1756094616702106,0.2277519672428161,,,202,3
32,3364,Brigade irv Center,12.9701373,77.7311927,Office,"Carmelaram, Bengaluru",4.247781822166409,2.2831834834254576,,,869,14
33,3375,Sobha Dream Acres - Flats for Sale in Bangalore,12.9382954,77.7262934,Office,"Carmelaram, Bengaluru",2.9518444478464856,2.4936980867608844,,,806,13
34,3536,Friends Nest Men's P.G,12.9461004,77.7024694,PG,"Carmelaram, Bengaluru",0.22972560268062428,1.8261153852379304,,,854,14
35,3548,Sri Anjaneya Pg,12.9489076,77.7038769,PG,"Carmelaram, Bengaluru",0.46241643574273295,1.5034931420105713,,,727,12
36,3566,Zolo Mustang Co-Living %7C Redefining PG,12.9516315,77.7047574,PG,"Carmelaram, Bengaluru",0.7405006326165632,1.2480122888805,,,674,11
37,3576,Five star odia pg for gents,12.947878,77.7038876,PG,"Carmelaram, Bengaluru",0.4083327899859629,1.5784419218767838,,,772,13
38,3592,Suyash PG,12.9520119,77.6974223,PG,"Carmelaram, Bengaluru",0.6913628309980963,1.9541781640808369,,,692,12
39,3593,Pg for boys,12.9502831,77.7020503,PG,"Carmelaram, Bengaluru",0.4565808147135951,1.5765234345680517,,,717,12
40,3605,Nandini pg for ladies,12.9502143,77.7014531,PG,"Carmelaram, Bengaluru",0.42781078358232894,1.6361874665609473,,,660,11
41,3606,Akshaya PG For Ladies,12.949562,77.7018484,PG,"Carmelaram, Bengaluru",0.37443581471466564,1.6375149483479297,,,659,11
42,3607,Zolo Pepper - PG in Marathahalli Bangalore,12.9571713,77.7096945,PG,"Carmelaram, Bengaluru",1.556304144007207,0.5258649732243398,,,686,11
43,3610,Ram pg for gents,12.9514904,77.7019242,PG,"Carmelaram, Bengaluru",0.5783136273279333,1.5241507462325559,,,604,10
44,3613,Lighthouse PG (For Gents),12.9510196,77.7029956,PG,"Carmelaram, Bengaluru",0.5755359596570095,1.4466656445988044,,,661,11
45,3614,Sithaara Stays ( PG for Ladies),12.9577771,77.7026107,PG,"Carmelaram, Bengaluru",1.2758664403044069,1.2918236058336008,,,734,12
46,3615,SAI THANMAYEE PG FOR GENTS..,12.9518572,77.7035315,PG,"Carmelaram, Bengaluru",0.6852014547935017,1.3505677778307634,,,607,10
47,3616,LOTUS LUXURY PG FOR GENTS,12.9518441,77.7039764,PG,"Carmelaram, Bengaluru",0.7091597025330854,1.308926479322601,,,592,10
48,3620,Zolo Elements PG,12.965503,77.721947,PG,"Carmelaram, Bengaluru",3.1491465496284077,1.1933505507515119,,,352,6
49,3621,PG For Gents,12.9589914,77.6999564,PG,"Carmelaram, Bengaluru",1.3888182052618279,1.5871333495813402,,,717,12
50,3640,"Spice Garden, Bangalore",12.9577917,77.7093143,PG,"Carmelaram, Bengaluru",1.5839970065155355,0.5657294106789279,,,659,11
51,3980,Sobha Dream Acres - Flats for Sale in Bangalore,12.9382954,77.7262934,Apartment,"Electronic City, Bengaluru",2.9518444478464856,2.4936980867608844,,,806,13
52,4493,Sri Anjaneya Pg,12.9489076,77.7038769,PG,"Electronic City, Bengaluru",0.46241643574273295,1.5034931420105713,,,728,12
53,4498,Zolo Elements PG,12.965503,77.721947,PG,"Electronic City, Bengaluru",3.1491465496284077,1.1933505507515119,,,352,6
54,6233,Electoral Id Registration Office,12.9545393,77.7004503,Office,"Jayanagar, Bengaluru",0.8929893973073942,1.562511320973353,,,895,15
55,6245,Prestige Technostar,12.9740875,77.7108374,Office,"Jayanagar, Bengaluru",3.2688765114154275,1.8797451023336997,,,414,7
56,6479,Zolo Elements PG,12.965503,77.721947,PG,"Jayanagar, Bengaluru",3.1491465496284077,1.1933505507515119,,,352,6
57,7275,Zolo Pepper - PG in Marathahalli Bangalore,12.9571713,77.7096945,PG,"J.P. Nagar, Bengaluru",1.556304144007207,0.5258649732243398,,,686,11
58,7277,Zolo Amber PG,12.9510146,77.7150464,PG,"J.P. Nagar, Bengaluru",1.665292174908811,0.7310730838384942,,,447,7
59,7278,Zolo Elements PG,12.965503,77.721947,PG,"J.P. Nagar, Bengaluru",3.1491465496284077,1.1933505507515119,,,352,6
60,7417,Subiksha Courette,12.9520817,77.6978671,Apartments,"Junnasandra, Bengaluru",0.6773828228870374,1.9060129418700902,,,663,11
61,7444,DC Capitol,12.9370681,77.7053879,Apartments,"Junnasandra, Bengaluru",1.1811704422774987,2.4856769776113956,,,961,16
62,7461,Sobha Dream Acres - Flats for Sale in Bangalore,12.9382954,77.7262934,Apartments,"Junnasandra, Bengaluru",2.9518444478464856,2.4936980867608844,,,806,13
63,7465,UKN Esperanza,12.9518074,77.7207664,Apartments,"Junnasandra, Bengaluru",2.285249466489266,0.9312919517672924,,,480,8
64,7474,Sobha Dream Acres,12.9391078,77.7201689,Apartments,"Junnasandra, Bengaluru",2.295853248100709,2.141923021586672,,,696,12
65,7550,DSR Infrastructure Private Limited,12.9520393,77.7208853,Apartments,"Junnasandra, Bengaluru",2.304447182102301,0.9233114694427111,,,444,7
66,7551,Saroj Group,12.9522835,77.7119978,Apartments,"Junnasandra, Bengaluru",1.412193687552859,0.6487245116076025,,,448,7
67,7553,Benson StayAbode,12.9493461,77.6981495,Apartments,"Junnasandra, Bengaluru",0.39820530931033987,1.9967827506234004,,,743,12
68,7611,Klassik Enterprises Pvt Ltd,12.9627342,77.7023187,Apartments,"Junnasandra, Bengaluru",1.81624770902372,1.4424727967080708,,,616,10
69,7622,Multiplex,12.9516804,77.6996418,Apartments,"Junnasandra, Bengaluru",0.5807790976055217,1.7412103403984505,,,851,14
70,7796,IndiQube Omega,12.959603,77.716588,Offices,"Junnasandra, Bengaluru",2.280481404422767,0.3175485221851561,,,155,3
71,7998,Royal challengers paying guest accommodation,12.9506384,77.7034322,PG,"Junnasandra, Bengaluru",0.5652075148769371,1.428409328564085,,,642,11
72,8009,Sri Residential Paying Guest Hostel For Gents,12.9499676,77.6978187,PG,"Junnasandra, Bengaluru",0.475031106861969,1.9985158356862538,,,843,14
73,8010,Suyash PG,12.9520119,77.6974223,PG,"Junnasandra, Bengaluru",0.6913628309980963,1.9541781640808369,,,692,12
74,8015,Srivari Gents PG,12.9546172,77.707987,PG,"Junnasandra, Bengaluru",1.2208412570201022,0.781361105319862,,,432,7
75,8027,Venkateshwara deluxe pg for gents,12.9421111,77.7015029,PG,"Junnasandra, Bengaluru",0.503606539098968,2.2243472810092273,,,773,13
76,8028,Sri Rama Pg for gents,12.9508068,77.7030448,PG,"Junnasandra, Bengaluru",0.5577649169752605,1.4541571335108199,,,709,12
77,8032,Nandini pg for ladies,12.9502143,77.7014531,PG,"Junnasandra, Bengaluru",0.42781078358232894,1.6361874665609473,,,660,11
78,8034,Sithaara Stays ( PG for Ladies),12.9577771,77.7026107,PG,"Junnasandra, Bengaluru",1.2758664403044069,1.2918236058336008,,,734,12
79,8039,Zolo Pepper - PG in Marathahalli Bangalore,12.9571713,77.7096945,PG,"Junnasandra, Bengaluru",1.556304144007207,0.5258649732243398,,,686,11
80,8053,Zolo Elements PG,12.965503,77.721947,PG,"Junnasandra, Bengaluru",3.1491465496284077,1.1933505507515119,,,352,6
81,8060,Colive Campbell PG in Munnekollal Bengaluru,12.9513605,77.7118356,PG,"Junnasandra, Bengaluru",1.3524479570911272,0.7496630109958362,,,476,8
82,8072,paying guest hostel(male),12.9529562,77.702174,PG,"Junnasandra, Bengaluru",0.7425042294452656,1.433875393480305,,,622,10
83,8080,Paying guest,12.9684613,77.7114946,PG,"Junnasandra, Bengaluru",2.721445283354501,1.2549311146676054,,,384,6
84,8093,"Spice Garden, Bangalore",12.9577917,77.7093143,PG,"Junnasandra, Bengaluru",1.5839970065155355,0.5657294106789279,,,659,11
85,8492,Flipkart Grocery ITPL Hub,12.9751694,77.7243629,Office,"K.R Puram, Bengaluru",4.111461690455175,2.228225820222491,,,737,12
86,8697,Sri Sai Balaji PG For Gents,12.971318,77.7323062,PG,"K.R Puram, Bengaluru",4.423884990067602,2.4591375641508844,,,872,15
87,8728,Venkateshwara Gents Pg,12.9701608,77.7120428,PG,"K.R Puram, Bengaluru",2.9173679130158887,1.4257406919496523,,,351,6
88,8730,Zolo Utopia - PG in Kundalahalli,12.9516806,77.7158713,PG,"K.R Puram, Bengaluru",1.7733608740766198,0.6708087099562016,,,412,7
89,8731,Zolo Elements PG,12.965503,77.721947,PG,"K.R Puram, Bengaluru",3.1491465496284077,1.1933505507515119,,,352,6
90,8735,Lakshmi Vengamamba PG For Gents,12.9583777,77.7019919,PG,"K.R Puram, Bengaluru",1.3311260133745422,1.3616372867937112,,,696,12
91,8736,Sri Venkata Shilpa Mens PG,12.9591073,77.7032317,PG,"K.R Puram, Bengaluru",1.4343205506566936,1.2361970333701169,,,727,12
92,8738,Shivani Executive Pg for Ladies,12.9705882,77.7133996,PG,"K.R Puram, Bengaluru",3.0259145073972995,1.4527330854661002,,,463,8
93,8744,SKYCOURT,12.9418941,77.7023022,Apartment,"Kadubeesanahalli, Bengaluru",0.5533269941775204,2.189567008164328,,,762,13
94,8769,Isha Casablanca,12.9399758,77.704087,Apartment,"Kadubeesanahalli, Bengaluru",0.829510912359663,2.2601236834045864,,,841,14
95,8772,Hima Ram Residency,12.9409639,77.701866,Apartment,"Kadubeesanahalli, Bengaluru",0.6369251898824794,2.3006529267037594,,,804,13
96,8792,Sriven@205 Apartment,12.9415664,77.703225,Apartment,"Kadubeesanahalli, Bengaluru",0.6295322596324087,2.160449867550569,,,775,13
97,8794,Subhodaya Luxuria,12.9375728,77.7044969,Apartment,"Kadubeesanahalli, Bengaluru",1.088689173603212,2.4751773931781815,,,904,15
98,8806,Asha Tranquil Apartments,12.9408582,77.7016518,Apartment,"Kadubeesanahalli, Bengaluru",0.6429810100252471,2.3239617858366333,,,824,14
99,8807,Thaswi Homes,12.9408073,77.7017815,Apartment,"Kadubeesanahalli, Bengaluru",0.6516181335241568,2.3200933271020245,,,805,13
100,8808,DC Capitol,12.9370681,77.7053879,Apartment,"Kadubeesanahalli, Bengaluru",1.1811704422774987,2.4856769776113956,,,961,16
101,8811,House,12.9377862,77.7045686,Apartment,"Kadubeesanahalli, Bengaluru",1.0703392350411112,2.450449385652339,,,899,15
102,8820,SV Brindavanam,12.9378775,77.7041912,Apartment,"Kadubeesanahalli, Bengaluru",1.0443561221705955,2.4596970584816416,,,1061,18
103,8821,Reddy apartments,12.941468,77.7022356,Apartment,"Kadubeesanahalli, Bengaluru",0.5950646353100065,2.231771947475135,,,775,13
104,8826,Grand Bay Apartments,12.9493202,77.7004617,Apartment,"Kadubeesanahalli, Bengaluru",0.31272124470410956,1.779230567581404,,,695,12
105,8837,Anuraag Anmol,12.9408732,77.7046448,Apartment,"Kadubeesanahalli, Bengaluru",0.777909821064269,2.1434807220435714,,,828,14
106,8839,Sri Emerald Park,12.9487115,77.6960848,Apartment,"Kadubeesanahalli, Bengaluru",0.5270664555291665,2.2283554547647366,,,798,13
107,8859,Sai Sunayna,12.941199,77.7016119,Apartment,"Kadubeesanahalli, Bengaluru",0.6050442103710124,2.296405811433172,,,832,14
108,8860,Anjan enclave,12.9478447,77.7021005,Apartment,"Kadubeesanahalli, Bengaluru",0.2374354034174398,1.727328719232112,,,740,12
109,8862,Apartment sabeesh,12.946427,77.7021212,Apartment,"Kadubeesanahalli, Bengaluru",0.1876810529273985,1.8285065108115612,,,851,14
110,8878,New Home,12.949667,77.7004882,Apartment,"Kadubeesanahalli, Bengaluru",0.3513475517978618,1.7571704776452322,,,698,12
111,8884,Brindavan Apartment,12.947947,77.7046945,Apartment,"Kadubeesanahalli, Bengaluru",0.4929885653216132,1.510285096027097,,,827,14
112,8885,Nithya Apartment,12.9520902,77.7049983,Apartment,"Kadubeesanahalli, Bengaluru",0.7965145567587736,1.1992347539496733,,,696,12
113,8887,%E0%A4%AF%E0%A4%BE%E0%A4%A4%E0%A5%8D%E0%A4%B0%E0%A4%BE %E0%A4%AA%E0%A4%BE%E0%A4%B0%E0%A5%8D%E0%A4%9F%E0%A5%80,12.9462552,77.7020919,Apartment,"Kadubeesanahalli, Bengaluru",0.18642889557950576,1.8438251737081175,,,859,14
114,8889,Building No.36,12.9457733,77.7043636,Apartment,"Kadubeesanahalli, Bengaluru",0.43816471645674704,1.7130029406611296,,,852,14
115,8897,Mia Rooms - Fully Furnished Houses,12.9492938,77.7042204,Apartment,"Kadubeesanahalli, Bengaluru",0.5177738292842686,1.4474279576781408,,,725,12
116,8901,Aaspire Heights,12.949386,77.7019825,Apartment,"Kadubeesanahalli, Bengaluru",0.3634510858673332,1.6361427042577816,,,665,11
117,8903,Pranava's BSR Gitaaar,12.9416686,77.7011981,Apartment,"Kadubeesanahalli, Bengaluru",0.5452468226485188,2.283342484740564,,,799,13
118,8907,Sri Apartment,12.9498993,77.7017692,Apartment,"Kadubeesanahalli, Bengaluru",0.4055119336360485,1.6247237934293617,,,668,11
119,8908,Rohan Vasantha Apts,12.9582053,77.7067979,Apartment,"Kadubeesanahalli, Bengaluru",1.474301805472206,0.8408502027866112,,,650,11
120,8910,CKB Apartment,12.9514056,77.7041735,Apartment,"Kadubeesanahalli, Bengaluru",0.6815296950189986,1.3150513276641516,,,601,10
121,8915,Sunkhara residency,12.9536392,77.695126,Apartment,"Kadubeesanahalli, Bengaluru",0.9768475296614207,2.147652595757963,,,734,12
122,8916,Govindam Meghana Homes,12.9556583,77.7097061,Apartment,"Kadubeesanahalli, Bengaluru",1.4331754697768337,0.5643058697465826,,,403,7
123,8923,Royal hights,12.9485211,77.7159555,Apartment,"Kadubeesanahalli, Bengaluru",1.7014356262948283,1.0179819560949188,,,519,9
124,8930,Vanshee Eldorado Apartment,12.9521457,77.6995145,Apartment,"Kadubeesanahalli, Bengaluru",0.6339715488602258,1.735344509589813,,,872,15
125,8931,Shruthi Apartment,12.9490891,77.711463,Apartment,"Kadubeesanahalli, Bengaluru",1.2336438126014926,0.9998874720038609,,,678,11
126,8932,Apartment Number 6,12.9497134,77.7086947,Apartment,"Kadubeesanahalli, Bengaluru",0.9678085496838459,1.0784540140170904,,,740,12
127,8936,Aloknath House,12.949336,77.7130611,Apartment,"Kadubeesanahalli, Bengaluru",1.4085273576305726,0.9293142115784777,,,568,9
128,8938,A block,12.9571099,77.7057722,Apartment,"Kadubeesanahalli, Bengaluru",1.3151381374422402,0.9504060694229822,,,563,9
129,8940,Sree venkateshwara pg accommodation,12.9420344,77.7014584,Apartment,"Kadubeesanahalli, Bengaluru",0.5107783974098503,2.2339994711456197,,,776,13
130,8947,Sobha Dream Acres - Flats for Sale in Bangalore,12.9382954,77.7262934,Apartment,"Kadubeesanahalli, Bengaluru",2.9518444478464856,2.4936980867608844,,,806,13
131,8948,Sobha Dream Acres,12.9391078,77.7201689,Apartment,"Kadubeesanahalli, Bengaluru",2.295853248100709,2.141923021586672,,,696,12
132,8954,Aarna Saptagiri Towers,12.9634024,77.7129251,Apartment,"Kadubeesanahalli, Bengaluru",2.3180843079065503,0.6714473562504787,,,167,3
133,8963,Avina residency,12.9522856,77.7088082,Apartment,"Kadubeesanahalli, Bengaluru",1.115607429458164,0.854239222159659,,,539,9
134,8966,Krishna kutira,12.9411423,77.7021214,Apartment,"Kadubeesanahalli, Bengaluru",0.62547430692943,2.268245334724399,,,788,13
135,8983,TrustedStay Service apartments in AECS Layout,12.9635966,77.7093385,Apartment,"Kadubeesanahalli, Bengaluru",2.133165344479266,0.8749566425154889,,,257,4
136,8987,Venkateswara Deluxe PG for Gents,12.9415712,77.7014598,Apartment,"Kadubeesanahalli, Bengaluru",0.5610991846242679,2.2739679606655447,,,795,13
137,8998,Saroj Group,12.9522835,77.7119978,Apartment,"Kadubeesanahalli, Bengaluru",1.412193687552859,0.6487245116076025,,,448,7
138,9007,Kadubeesanahalli STP,12.94732,77.697276,Apartment,"Kadubeesanahalli, Bengaluru",0.3494511994927919,2.1897431623645915,,,891,15
139,9016,Venkateshwara deluxe pg for gents,12.9421111,77.7015029,Apartment,"Kadubeesanahalli, Bengaluru",0.503606539098968,2.2243472810092273,,,773,13
140,9025,Myntra Office,12.9434156,77.6986434,Office,"Kadubeesanahalli, Bengaluru",0.3926475499197695,2.3325938288245642,,,701,12
141,9030,Logic Information Systems (INDIA) Pvt Ltd,12.9429882,77.6979442,Office,"Kadubeesanahalli, Bengaluru",0.47283072475403054,2.420637477284046,,,699,12
142,9051,BWSSB AE office,12.9473227,77.6982627,Office,"Kadubeesanahalli, Bengaluru",0.2478014925272442,2.099018859370107,,,882,15
143,9053,Office of the Assistant Engineer,12.9476513,77.6985576,Office,"Kadubeesanahalli, Bengaluru",0.23586575446112457,2.052387709187922,,,893,15
144,9107,Adobe India,12.9439034,77.6968467,Office,"Kadubeesanahalli, Bengaluru",0.4811218406436456,2.4457084279283148,,,869,14
145,9139,Printfield Digital Solutions,12.9425323,77.6974204,Office,"Kadubeesanahalli, Bengaluru",0.5469526750103346,2.4967420266256637,,,712,12
146,9145,Sling Media Pvt Ltd,12.944032,77.6982854,Office,"Kadubeesanahalli, Bengaluru",0.3576671932851826,2.316250267395454,,,681,11
147,9155,"Marathahalli Police Station, Kadubeesanahalli",12.9455754,77.6979525,Office,"Kadubeesanahalli, Bengaluru",0.2839384834116483,2.23742406777374,,,892,15
148,9156,P R Business Center,12.943088,77.697952,Office,"Kadubeesanahalli, Bengaluru",0.4632020622019781,2.4125884731154303,,,697,12
149,9183,Croma,12.9431122,77.6978771,Office,"Kadubeesanahalli, Bengaluru",0.465696906316795,2.4168476794488813,,,694,12
150,9218,IndiQube Omega,12.959603,77.716588,Office,"Kadubeesanahalli, Bengaluru",2.280481404422767,0.3175485221851561,,,155,3
151,9230,G4S Secure Solution (India),12.9696551,77.7018511,Office,"Kadubeesanahalli, Bengaluru",2.5786255282613086,1.9218234859298269,,,636,11
152,9253,GoSpaze Interiors,12.9556125,77.7205394,Office,"Kadubeesanahalli, Bengaluru",2.406630963139495,0.6866172418574863,,,326,5
153,9272,Sree venkateshwara pg accommodation,12.9420344,77.7014584,PG,"Kadubeesanahalli, Bengaluru",0.5107783974098503,2.2339994711456197,,,776,13
154,9283,Venkateswara Deluxe PG for Gents,12.9415712,77.7014598,PG,"Kadubeesanahalli, Bengaluru",0.5610991846242679,2.2739679606655447,,,795,13
155,9319,Om Sai Balaji PG For Gents,12.9482855,77.7043559,PG,"Kadubeesanahalli, Bengaluru",0.47288295149134707,1.5104264138868049,,,833,14
156,9327,VISHNU Luxury PG for Women,12.9485471,77.7035149,PG,"Kadubeesanahalli, Bengaluru",0.40737421790465,1.5593058344301929,,,744,12
157,9332,Naveen PG,12.9470571,77.7034992,PG,"Kadubeesanahalli, Bengaluru",0.3422690727534586,1.6719489735145272,,,802,13
158,9335,Anu PG Marathali,12.9481267,77.7027749,PG,"Kadubeesanahalli, Bengaluru",0.3147847315090544,1.6508467301410923,,,727,12
159,9338,Royal challengers paying guest accommodation,12.9506384,77.7034322,PG,"Kadubeesanahalli, Bengaluru",0.5652075148769371,1.428409328564085,,,642,11
160,9339,SS Ladies PG,12.949734,77.7041849,PG,"Kadubeesanahalli, Bengaluru",0.5455503995504172,1.4198453232329196,,,699,12
161,9341,Sri Rajamatha Pg,12.9463348,77.7035894,PG,"Kadubeesanahalli, Bengaluru",0.347106729528827,1.7223158228332982,,,829,14
162,9342,Five star odia pg for gents,12.947878,77.7038876,PG,"Kadubeesanahalli, Bengaluru",0.4083327899859629,1.5784419218767838,,,772,13
163,9343,Stanza Living Scottsdale House Boys PG,12.9494694,77.697967,PG,"Kadubeesanahalli, Bengaluru",0.4211976868535831,2.0081967569237174,,,738,12
164,9344,Sri kamakshi pg for ladies,12.9498374,77.6983029,PG,"Kadubeesanahalli, Bengaluru",0.4338472667673889,1.9574133320162568,,,829,14
165,9345,Parvati Pg,12.9489554,77.7042999,PG,"Kadubeesanahalli, Bengaluru",0.5034116889938106,1.4651098029564233,,,731,12
166,9346,James Bond PG%5BGents%5D,12.9485941,77.7043286,PG,"Kadubeesanahalli, Bengaluru",0.4856147805962109,1.4893768834429102,,,755,13
167,9347,Vijaya pg for gents,12.9494106,77.7025676,PG,"Kadubeesanahalli, Bengaluru",0.39967609590792863,1.582272868367527,,,679,11
168,9349,Nani Luxury PG For Gents,12.950476,77.7049222,PG,"Kadubeesanahalli, Bengaluru",0.6600678562269121,1.3062271341105949,,,658,11
169,9351,J.p.comforts Pg,12.9502816,77.7011463,PG,"Kadubeesanahalli, Bengaluru",0.4274338560642755,1.6614013414264082,,,703,12
170,9354,SRI Rama Delux PG For Gents,12.9504331,77.704144,PG,"Kadubeesanahalli, Bengaluru",0.596491538407698,1.3771309596600538,,,639,11
171,9355,Akshaya PG For Ladies,12.949562,77.7018484,PG,"Kadubeesanahalli, Bengaluru",0.37443581471466564,1.6375149483479297,,,659,11
172,9358,MAA Pg for GENT'S,12.950479,77.7032971,PG,"Kadubeesanahalli, Bengaluru",0.5422737275782686,1.4503165829402103,,,647,11
173,9359,Pg for boys,12.9502831,77.7020503,PG,"Kadubeesanahalli, Bengaluru",0.4565808147135951,1.5765234345680517,,,717,12
174,9361,Suyash PG,12.9520119,77.6974223,PG,"Kadubeesanahalli, Bengaluru",0.6913628309980963,1.9541781640808369,,,692,12
175,9363,Lighthouse PG (For Gents),12.9510196,77.7029956,PG,"Kadubeesanahalli, Bengaluru",0.5755359596570095,1.4466656445988044,,,661,11
176,9365,Sai krishna Pg for gents,12.9500359,77.7015942,PG,"Kadubeesanahalli, Bengaluru",0.41330414568634743,1.6330502835780538,,,661,11
177,9366,SRI LAKSHMI GANESH PG FOR GENTS,12.9483963,77.7041093,PG,"Kadubeesanahalli, Bengaluru",0.45430169853638014,1.5217554756973346,,,759,13
178,9367,Sri SatyaNarayana Swamy PG - Marathahalli,12.9502593,77.7020476,PG,"Kadubeesanahalli, Bengaluru",0.45403360703068135,1.5781360599404983,,,718,12
179,9368,Zolo Mustang Co-Living %7C Redefining PG,12.9516315,77.7047574,PG,"Kadubeesanahalli, Bengaluru",0.7405006326165632,1.2480122888805,,,674,11
180,9369,Neha PG For Ladies,12.9522003,77.7012648,PG,"Kadubeesanahalli, Bengaluru",0.6399202602935753,1.5565542733666347,,,571,10
181,9370,Sri Gayathri Devi PG For Gents,12.9505161,77.7013279,PG,"Kadubeesanahalli, Bengaluru",0.45701828390988314,1.6315553200454151,,,683,11
182,9372,Sri venkateswara ladies pg,12.95008,77.7022329,PG,"Kadubeesanahalli, Bengaluru",0.44443872763088094,1.5714346993801684,,,727,12
183,9374,Sns Pg for Ladies,12.9502212,77.7002364,PG,"Kadubeesanahalli, Bengaluru",0.41315643500983346,1.7512616874370248,,,603,10
184,9375,white house pg,12.9504723,77.7015314,PG,"Kadubeesanahalli, Bengaluru",0.45772436959074997,1.6146284806276672,,,676,11
185,9376,Venkateshwara deluxe pg for gents,12.9421111,77.7015029,PG,"Kadubeesanahalli, Bengaluru",0.503606539098968,2.2243472810092273,,,773,13
186,9377,Lakshmi Srinivasa Ladies PG,12.9512918,77.6989613,PG,"Kadubeesanahalli, Bengaluru",0.5539779564400484,1.8258327350986565,,,865,14
187,9378,Jai Anjaneya pg,12.9535927,77.6962441,PG,"Kadubeesanahalli, Bengaluru",0.9069004878239956,2.0302960549461764,,,702,12
188,9379,Sri ganesh PG (Gents),12.9481157,77.703623,PG,"Kadubeesanahalli, Bengaluru",0.39316281326663566,1.5818234827542141,,,763,13
189,9380,Sri Sai Chandana Pg For Ladies,12.9535122,77.6977677,PG,"Kadubeesanahalli, Bengaluru",0.8290357409711221,1.8716404946324736,,,642,11
190,9382,Zolo Pepper - PG in Marathahalli Bangalore,12.9571713,77.7096945,PG,"Kadubeesanahalli, Bengaluru",1.556304144007207,0.5258649732243398,,,686,11
191,9384,Sai Ladies PG,12.9515566,77.6978757,PG,"Kadubeesanahalli, Bengaluru",0.6240047057075991,1.92463048791461,,,675,11
192,9385,SMS deluxe PG FOR GENTS,12.9504264,77.7013135,PG,"Kadubeesanahalli, Bengaluru",0.44694713950517984,1.6377383977397553,,,683,11
193,9387,GVS PG FOR GENTS,12.957451,77.7038386,PG,"Kadubeesanahalli, Bengaluru",1.2727885238161047,1.1586349807601164,,,793,13
194,9388,Anjanadri Gents PG,12.9509894,77.7041698,PG,"Kadubeesanahalli, Bengaluru",0.6449005114576777,1.3400927241962373,,,613,10
195,9389,SLVR Gents PG,12.9488153,77.7025968,PG,"Kadubeesanahalli, Bengaluru",0.3505796321995721,1.618608610496604,,,700,12
196,9390,PSR PG HOSTEL,12.9532653,77.6942165,PG,"Kadubeesanahalli, Bengaluru",1.006091125665647,2.2527050931955075,,,697,12
197,9391,PRLD PG for Gents,12.9557849,77.6960301,PG,"Kadubeesanahalli, Bengaluru",1.1345906359180749,2.0145267214785214,,,604,10
198,9392,Patels PG,12.9509897,77.6970683,PG,"Kadubeesanahalli, Bengaluru",0.6147772933444434,2.0287797503934923,,,776,13
199,9393,Manasa Devi PG for Gents Marathahalli,12.9505579,77.7011312,PG,"Kadubeesanahalli, Bengaluru",0.4573371030648155,1.6480736608717477,,,688,11
200,9394,Sri Mani Megha Luxury PG for Ladies,12.9521306,77.7018188,PG,"Kadubeesanahalli, Bengaluru",0.643985515483866,1.5043886708746,,,585,10
201,9395,SAI THANMAYEE PG FOR GENTS..,12.9518572,77.7035315,PG,"Kadubeesanahalli, Bengaluru",0.6852014547935017,1.3505677778307634,,,607,10
202,9396,Hanuman pg near RGS,12.9541323,77.6981791,PG,"Kadubeesanahalli, Bengaluru",0.8809569292308574,1.812619897224875,,,611,10
203,9398,Tarigonda Men'S PG,12.9533862,77.6986699,PG,"Kadubeesanahalli, Bengaluru",0.7871715271913587,1.7805234906197802,,,907,15
204,9399,Sree Sathya rama Luxury pg gents,12.9522326,77.6963103,PG,"Kadubeesanahalli, Bengaluru",0.7750384244902367,2.061646832443204,,,729,12
205,9401,Siri Ladies PG,12.9523744,77.7013488,PG,"Kadubeesanahalli, Bengaluru",0.6604413478022183,1.540788652143778,,,572,10
206,9403,PGstay.com,12.9559808,77.6970032,PG,"Kadubeesanahalli, Bengaluru",1.1154157018538369,1.9074771243602142,,,592,10
207,9406,Sri Sai Nilayam Pg,12.9527211,77.698092,PG,"Kadubeesanahalli, Bengaluru",0.7343573713407221,1.8611111432762615,,,647,11
208,9408,Phanindra pg,12.9530869,77.7020766,PG,"Kadubeesanahalli, Bengaluru",0.7539202785563658,1.4386357681725677,,,624,10
209,9409,Srinivasa PG for Gents,12.9554651,77.6991035,PG,"Kadubeesanahalli, Bengaluru",1.0056418684880748,1.6879845890948928,,,598,10
210,9410,Srl PG For Gents,12.9590171,77.7034406,PG,"Kadubeesanahalli, Bengaluru",1.4295882252899546,1.2124097964883271,,,734,12
211,9411,Sri Ganesha PG For Gents,12.9588651,77.7084389,PG,"Kadubeesanahalli, Bengaluru",1.6273681054558051,0.6755792486040408,,,674,11
212,9412,Zolo Clove Cinnamon PG,12.9575572,77.70949,PG,"Kadubeesanahalli, Bengaluru",1.5752720460931309,0.5461546714717254,,,669,11
213,9414,SLN PG For Gents,12.958298,77.703586,PG,"Kadubeesanahalli, Bengaluru",1.3558568238779045,1.1886896268218168,,,755,13
214,9415,Sri Haritha PG,12.9507063,77.7011079,PG,"Kadubeesanahalli, Bengaluru",0.47317081794087307,1.6425662183793244,,,688,11
215,9416,Sri Anjaneya Pg For Gents,12.9591744,77.7024196,PG,"Kadubeesanahalli, Bengaluru",1.4254143518632383,1.3243936506486274,,,694,12
216,9417,Colive Mountain View PG in Marathahalli Bengaluru,12.9588489,77.7099278,PG,"Kadubeesanahalli, Bengaluru",1.7177966297631229,0.5185889713013947,,,734,12
217,9418,Maneesh Paying Guest,12.9571854,77.7032901,PG,"Kadubeesanahalli, Bengaluru",1.2280549035385122,1.2187480952022502,,,770,13
218,9419,Sankar PG for Gents,12.9541113,77.693868,PG,"Kadubeesanahalli, Bengaluru",1.1019924098806417,2.271815164291301,,,666,11
219,9421,Colive Medford PG in Marathahalli Bengaluru,12.9514086,77.7152276,PG,"Kadubeesanahalli, Bengaluru",1.697577783786692,0.6892753254736727,,,438,7
220,9422,Varsha gents pg,12.9578292,77.7036867,PG,"Kadubeesanahalli, Bengaluru",1.3084603609539815,1.1753723971819725,,,793,13
221,9424,Colive Morgan Hill PG in Munnekollal Bengaluru,12.9575097,77.7105306,PG,"Kadubeesanahalli, Bengaluru",1.6442685600144056,0.43344150435174406,,,736,12
222,9425,SLB PG for Gents,12.9593054,77.70022,PG,"Kadubeesanahalli, Bengaluru",1.4230545677535482,1.5626388812601224,,,800,13
223,9426,K R New Gents PG,12.9595198,77.6996984,PG,"Kadubeesanahalli, Bengaluru",1.4487210846375025,1.6217576101520323,,,825,14
224,9427,Sri Lakshmi Venkatwara Pg for Gents,12.9548242,77.6940365,PG,"Kadubeesanahalli, Bengaluru",1.1529155986133877,2.24165275550313,,,648,11
225,9428,Sri Vengamamba pg for gents,12.9524042,77.7004268,PG,"Kadubeesanahalli, Bengaluru",0.6555651874156355,1.6326724244104218,,,549,9
226,9429,Zolo Ginger - PG in Marathahalli Bangalore,12.9574606,77.7100467,PG,"Kadubeesanahalli, Bengaluru",1.6055554668432497,0.4859791390206237,,,700,12
227,9431,Biswajit's PG,12.9586971,77.7027262,PG,"Kadubeesanahalli, Bengaluru",1.378708963700345,1.2852252107036528,,,715,12
228,9432,Home Stay PG for Gents,12.9597282,77.7032864,PG,"Kadubeesanahalli, Bengaluru",1.5030522005757692,1.241801397584896,,,758,13
229,9434,Sri Siddhi Vinayaka PG,12.9578456,77.7032481,PG,"Kadubeesanahalli, Bengaluru",1.2980662935890126,1.2229312321769303,,,781,13
230,9435,Sri Vishnu PG for gents,12.9591922,77.7022192,PG,"Kadubeesanahalli, Bengaluru",1.4241876369812025,1.3461786478174749,,,686,11
231,9436,Srivari Gents PG,12.9546172,77.707987,PG,"Kadubeesanahalli, Bengaluru",1.2208412570201022,0.781361105319862,,,432,7
232,9438,Raj Pg,12.9574167,77.7025336,PG,"Kadubeesanahalli, Bengaluru",1.2349354264221195,1.3000858635386958,,,733,12
233,9440,PG,12.9502139,77.6981023,PG,"Kadubeesanahalli, Bengaluru",0.48091581229537095,1.9591184359077056,,,723,12
234,9441,Colive Campbell PG in Munnekollal Bengaluru,12.9513605,77.7118356,PG,"Kadubeesanahalli, Bengaluru",1.3524479570911272,0.7496630109958362,,,476,8
235,9447,VBR GENTS PG,12.9594817,77.6998871,PG,"Kadubeesanahalli, Bengaluru",1.443571687551274,1.6009274407274707,,,818,14
236,9448,VARUN PG FOR GENTS,12.9597055,77.7035488,PG,"Kadubeesanahalli, Bengaluru",1.5067852341906003,1.2134189293064026,,,767,13
237,9451,PG,12.9524453,77.7012029,PG,"Kadubeesanahalli, Bengaluru",0.6659565675639866,1.5525457971730623,,,568,9
238,9452,Zolo Amber PG,12.9510146,77.7150464,PG,"Kadubeesanahalli, Bengaluru",1.665292174908811,0.7310730838384942,,,447,7
239,9453,Kushpoo Gents pg,12.9593241,77.7020559,PG,"Kadubeesanahalli, Bengaluru",1.4363837793768761,1.3657338543866668,,,673,11
240,9455,PG For Gents,12.9589914,77.6999564,PG,"Kadubeesanahalli, Bengaluru",1.3888182052618279,1.5871333495813402,,,717,12
241,9457,Sri Balaji Ladies PG,12.9583826,77.7145473,PG,"Kadubeesanahalli, Bengaluru",2.023975104943011,0.09037656768969138,,,42,1
242,9458,GRAND LIVE PG FOR GENTS,12.9622593,77.702443,PG,"Kadubeesanahalli, Bengaluru",1.765447613045243,1.4097544299176203,,,644,11
243,9459,Paying Guest Accommation,12.9566294,77.7046823,PG,"Kadubeesanahalli, Bengaluru",1.217657329862067,1.0722479428908287,,,430,7
244,9461,Colive Drava PG in Marathahalli Bengaluru,12.9690036,77.6948067,PG,"Kadubeesanahalli, Bengaluru",2.573492446925574,2.4867951380358866,,,741,12
245,9462,Akhil PG,12.9584093,77.7023285,PG,"Kadubeesanahalli, Bengaluru",1.3398385057230837,1.325486436905436,,,708,12
246,9463,"Grm Pg,srinivasa Residency",12.9501205,77.7004395,PG,"Kadubeesanahalli, Bengaluru",0.4016516212715679,1.7371376802141623,,,610,10
247,9466,Zolo Elements PG,12.965503,77.721947,PG,"Kadubeesanahalli, Bengaluru",3.1491465496284077,1.1933505507515119,,,352,6
248,9469,Colive Boston PG,12.9617895,77.705815,PG,"Kadubeesanahalli, Bengaluru",1.7979302724819455,1.0545107539807292,,,344,6
249,9472,Nellore Mess and pg,12.9500055,77.7002992,PG,"Kadubeesanahalli, Bengaluru",0.3889585044287213,1.7566039694700089,,,607,10
250,9473,LOTUS PARADISE COLIVE,12.9595422,77.7083023,PG,"Kadubeesanahalli, Bengaluru",1.6838313110134457,0.7095910498034721,,,702,12
251,9596,Isha Casablanca,12.9399758,77.704087,Apartment,"Kaverappa Layout, Bengaluru",0.829510912359663,2.2601236834045864,,,841,14
252,9607,Thaswi Homes,12.9408073,77.7017815,Apartment,"Kaverappa Layout, Bengaluru",0.6516181335241568,2.3200933271020245,,,805,13
253,9627,Grand Bay Apartments,12.9493202,77.7004617,Apartment,"Kaverappa Layout, Bengaluru",0.31272124470410956,1.779230567581404,,,695,12
254,9637,Apartment sabeesh,12.946427,77.7021212,Apartment,"Kaverappa Layout, Bengaluru",0.1876810529273985,1.8285065108115612,,,851,14
255,9639,%E0%A4%AF%E0%A4%BE%E0%A4%A4%E0%A5%8D%E0%A4%B0%E0%A4%BE %E0%A4%AA%E0%A4%BE%E0%A4%B0%E0%A5%8D%E0%A4%9F%E0%A5%80,12.9462552,77.7020919,Apartment,"Kaverappa Layout, Bengaluru",0.18642889557950576,1.8438251737081175,,,859,14
256,9649,Sunkhara residency,12.9536392,77.695126,Apartment,"Kaverappa Layout, Bengaluru",0.9768475296614207,2.147652595757963,,,734,12
257,9652,Shri Renuka Apartments,12.9524551,77.7103278,Apartment,"Kaverappa Layout, Bengaluru",1.2635938822270547,0.7285881733059384,,,579,10
258,9657,Mia Rooms - Fully Furnished Houses,12.9492938,77.7042204,Apartment,"Kaverappa Layout, Bengaluru",0.5177738292842686,1.4474279576781408,,,725,12
259,9671,Avina residency,12.9522856,77.7088082,Apartment,"Kaverappa Layout, Bengaluru",1.115607429458164,0.854239222159659,,,539,9
260,9675,Sai Gowri Grand Vault Apartments,12.9638456,77.7136563,Apartment,"Kaverappa Layout, Bengaluru",2.404705744490725,0.704209147661845,,,180,3
261,9690,Abhigruha apartment,12.9677677,77.7052784,Apartment,"Kaverappa Layout, Bengaluru",2.4224936552953826,1.5135541135884534,,,584,10
262,9804,Sree venkateshwara pg accommodation,12.9420344,77.7014584,PG,"Kaverappa Layout, Bengaluru",0.5107783974098503,2.2339994711456197,,,776,13
263,9805,Venkateswara Deluxe PG for Gents,12.9415712,77.7014598,PG,"Kaverappa Layout, Bengaluru",0.5610991846242679,2.2739679606655447,,,795,13
264,9829,Om Sai Balaji PG For Gents,12.9482855,77.7043559,PG,"Kaverappa Layout, Bengaluru",0.47288295149134707,1.5104264138868049,,,833,14
265,9835,Naveen PG,12.9470571,77.7034992,PG,"Kaverappa Layout, Bengaluru",0.3422690727534586,1.6719489735145272,,,802,13
266,9836,Friends Nest Men's P.G,12.9461004,77.7024694,PG,"Kaverappa Layout, Bengaluru",0.22972560268062428,1.8261153852379304,,,854,14
267,9840,Lighthouse PG (For Gents),12.9510196,77.7029956,PG,"Kaverappa Layout, Bengaluru",0.5755359596570095,1.4466656445988044,,,661,11
268,9841,Teertha PG For Gents,12.9496918,77.7044937,PG,"Kaverappa Layout, Bengaluru",0.5682563726332636,1.3965142651655496,,,705,12
269,9842,SLT LUXURY PG FOR GENTS,12.9503953,77.7018491,PG,"Kaverappa Layout, Bengaluru",0.46014119377617496,1.588965030684288,,,725,12
270,9844,Sri Gayathri Devi PG For Gents,12.9505161,77.7013279,PG,"Kaverappa Layout, Bengaluru",0.45701828390988314,1.6315553200454151,,,683,11
271,9845,Sri Residential Paying Guest Hostel For Gents,12.9499676,77.6978187,PG,"Kaverappa Layout, Bengaluru",0.475031106861969,1.9985158356862538,,,843,14
272,9847,J.p.comforts Pg,12.9502816,77.7011463,PG,"Kaverappa Layout, Bengaluru",0.4274338560642755,1.6614013414264082,,,703,12
273,9848,SNS PG %2FSNS paying guest for gents,12.9495245,77.7042449,PG,"Kaverappa Layout, Bengaluru",0.5355809689180264,1.4291831341925842,,,703,12
274,9849,Five star odia pg for gents,12.947878,77.7038876,PG,"Kaverappa Layout, Bengaluru",0.4083327899859629,1.5784419218767838,,,772,13
275,9850,Rajamatha PG For Gents,12.9502447,77.7022306,PG,"Kaverappa Layout, Bengaluru",0.4607679480397042,1.5620179814405926,,,709,12
276,9853,Vijaya pg for gents,12.9494106,77.7025676,PG,"Kaverappa Layout, Bengaluru",0.39967609590792863,1.582272868367527,,,679,11
277,9854,Stanza Living Scottsdale House Boys PG,12.9494694,77.697967,PG,"Kaverappa Layout, Bengaluru",0.4211976868535831,2.0081967569237174,,,738,12
278,9855,Sri Rajamatha Pg,12.9463348,77.7035894,PG,"Kaverappa Layout, Bengaluru",0.347106729528827,1.7223158228332982,,,829,14
279,9856,Suyash PG,12.9520119,77.6974223,PG,"Kaverappa Layout, Bengaluru",0.6913628309980963,1.9541781640808369,,,692,12
280,9857,PG Gents,12.9502826,77.7032589,PG,"Kaverappa Layout, Bengaluru",0.5221734571776755,1.465752427498396,,,654,11
281,9858,sri lakshmi venkata sai pg,12.9506345,77.7033997,PG,"Kaverappa Layout, Bengaluru",0.5628078531047441,1.4316093118621747,,,642,11
282,9860,Akshaya PG For Ladies,12.949562,77.7018484,PG,"Kaverappa Layout, Bengaluru",0.37443581471466564,1.6375149483479297,,,659,11
283,9861,James Bond PG%5BGents%5D,12.9485941,77.7043286,PG,"Kaverappa Layout, Bengaluru",0.4856147805962109,1.4893768834429102,,,755,13
284,9863,PGstay.com,12.9559808,77.6970032,PG,"Kaverappa Layout, Bengaluru",1.1154157018538369,1.9074771243602142,,,592,10
285,9865,Sai krishna Pg for gents,12.9500359,77.7015942,PG,"Kaverappa Layout, Bengaluru",0.41330414568634743,1.6330502835780538,,,661,11
286,9866,Sai Ladies PG,12.9515566,77.6978757,PG,"Kaverappa Layout, Bengaluru",0.6240047057075991,1.92463048791461,,,675,11
287,9867,Sns Pg for Ladies,12.9502212,77.7002364,PG,"Kaverappa Layout, Bengaluru",0.41315643500983346,1.7512616874370248,,,603,10
288,9868,PSR PG HOSTEL,12.9532653,77.6942165,PG,"Kaverappa Layout, Bengaluru",1.006091125665647,2.2527050931955075,,,697,12
289,9871,Parvati Pg,12.9489554,77.7042999,PG,"Kaverappa Layout, Bengaluru",0.5034116889938106,1.4651098029564233,,,731,12
290,9873,GVS PG FOR GENTS,12.957451,77.7038386,PG,"Kaverappa Layout, Bengaluru",1.2727885238161047,1.1586349807601164,,,793,13
291,9876,SAI TEJA GENTS PG,12.957698,77.7019245,PG,"Kaverappa Layout, Bengaluru",1.2552421014911581,1.3660518050957557,,,712,12
292,9877,SLB PG for Gents,12.9593054,77.70022,PG,"Kaverappa Layout, Bengaluru",1.4230545677535482,1.5626388812601224,,,800,13
293,9878,Sri Malyadri Lakshmi Narasimha Swamy PG,12.9504835,77.7015681,PG,"Kaverappa Layout, Bengaluru",0.46001025382715377,1.6105504158449042,,,678,11
294,9880,Sri Lakshmi Narasimha PG For Ladies,12.949864,77.7012694,PG,"Kaverappa Layout, Bengaluru",0.3850386005066883,1.6730699697662068,,,638,11
295,9881,Zolo Mustard - PG in Marathahalli for Gents in Bangalore,12.9589426,77.7084164,PG,"Kaverappa Layout, Bengaluru",1.6333508616902503,0.6798441466970156,,,677,11
296,9883,Zolo Asmi Co-Living %7C Redefining PG,12.954909,77.7106108,PG,"Kaverappa Layout, Bengaluru",1.4487707143748378,0.5176117979414988,,,407,7
297,9884,Vinayaka Gents PG,12.9514553,77.7045527,PG,"Kaverappa Layout, Bengaluru",0.7112700536383488,1.2772114429549828,,,653,11
298,9886,Anjanadri Gents PG,12.9509894,77.7041698,PG,"Kaverappa Layout, Bengaluru",0.6449005114576777,1.3400927241962373,,,613,10
299,9887,24%C3%977 Freedom Pg For Gents,12.9478653,77.7040257,PG,"Kaverappa Layout, Bengaluru",0.42174877332071437,1.5685122232951296,,,772,13
300,9888,Zolo Pepper - PG in Marathahalli Bangalore,12.9571713,77.7096945,PG,"Kaverappa Layout, Bengaluru",1.556304144007207,0.5258649732243398,,,686,11
301,9890,SAI THANMAYEE PG FOR GENTS..,12.9518572,77.7035315,PG,"Kaverappa Layout, Bengaluru",0.6852014547935017,1.3505677778307634,,,607,10
302,9891,Shri Shriyan Comforts PG for GENTS,12.9584082,77.7030492,PG,"Kaverappa Layout, Bengaluru",1.3541537478542414,1.247585683307115,,,736,12
303,9892,sai veer bhadra pg for ladies,12.9502267,77.7008261,PG,"Kaverappa Layout, Bengaluru",0.4161024027641035,1.6947092582131706,,,635,11
304,9893,Srl PG For Gents,12.9590171,77.7034406,PG,"Kaverappa Layout, Bengaluru",1.4295882252899546,1.2124097964883271,,,734,12
305,9895,Sri Balaji Pg,12.9584096,77.7036529,PG,"Kaverappa Layout, Bengaluru",1.3697112992469418,1.182371849252343,,,757,13
306,9896,Sri Vengamamba pg for gents,12.9524042,77.7004268,PG,"Kaverappa Layout, Bengaluru",0.6555651874156355,1.6326724244104218,,,549,9
307,9897,SMS deluxe PG FOR GENTS,12.9504264,77.7013135,PG,"Kaverappa Layout, Bengaluru",0.44694713950517984,1.6377383977397553,,,683,11
308,9898,Samrat PG Fit Gents,12.9504253,77.7020202,PG,"Kaverappa Layout, Bengaluru",0.4699216393238231,1.571268348211077,,,721,12
309,9899,Tamarind PG Hostel,12.9502827,77.7042962,PG,"Kaverappa Layout, Bengaluru",0.5959639128162586,1.3734846649539587,,,654,11
310,9900,Biswajit's PG,12.9586971,77.7027262,PG,"Kaverappa Layout, Bengaluru",1.378708963700345,1.2852252107036528,,,715,12
311,9901,Varsha gents pg,12.9578292,77.7036867,PG,"Kaverappa Layout, Bengaluru",1.3084603609539815,1.1753723971819725,,,793,13
312,9902,Siri Ladies PG,12.9523744,77.7013488,PG,"Kaverappa Layout, Bengaluru",0.6604413478022183,1.540788652143778,,,572,10
313,9903,Srivari Gents PG,12.9546172,77.707987,PG,"Kaverappa Layout, Bengaluru",1.2208412570201022,0.781361105319862,,,432,7
314,9904,SLVR Gents PG,12.9488153,77.7025968,PG,"Kaverappa Layout, Bengaluru",0.3505796321995721,1.618608610496604,,,700,12
315,9905,Zolo Utopia - PG in Kundalahalli,12.9516806,77.7158713,PG,"Kaverappa Layout, Bengaluru",1.7733608740766198,0.6708087099562016,,,412,7
316,9906,Sathvika's PG,12.9601141,77.7021335,PG,"Kaverappa Layout, Bengaluru",1.5245908346883592,1.3727871679256294,,,701,12
317,9907,Sri Lakshmi Venkatwara Pg for Gents,12.9548242,77.6940365,PG,"Kaverappa Layout, Bengaluru",1.1529155986133877,2.24165275550313,,,648,11
318,9914,Anitha Gents PG,12.9578398,77.7098863,PG,"Kaverappa Layout, Bengaluru",1.6267177081849586,0.5041015101512936,,,685,11
319,9916,Paying Guest Accommation,12.9566294,77.7046823,PG,"Kaverappa Layout, Bengaluru",1.217657329862067,1.0722479428908287,,,430,7
320,9918,Sri Siddhi Vinayaka PG,12.9578456,77.7032481,PG,"Kaverappa Layout, Bengaluru",1.2980662935890126,1.2229312321769303,,,781,13
321,9920,"HIGH TECH LUXURY PG ,, SREE GANGA BHAVANI LADIES PG",12.9537298,77.7150254,PG,"Kaverappa Layout, Bengaluru",1.77753889901611,0.43037267266740836,,,495,8
322,9921,Kushpoo Gents pg,12.9593241,77.7020559,PG,"Kaverappa Layout, Bengaluru",1.4363837793768761,1.3657338543866668,,,673,11
323,9923,Ganga pg,12.9584153,77.7005669,PG,"Kaverappa Layout, Bengaluru",1.324095343977042,1.516006551451787,,,664,11
324,9924,PG For Gents,12.9589914,77.6999564,PG,"Kaverappa Layout, Bengaluru",1.3888182052618279,1.5871333495813402,,,717,12
325,9926,Colive Campbell PG in Munnekollal Bengaluru,12.9513605,77.7118356,PG,"Kaverappa Layout, Bengaluru",1.3524479570911272,0.7496630109958362,,,476,8
326,9927,Raj Pg,12.9574167,77.7025336,PG,"Kaverappa Layout, Bengaluru",1.2349354264221195,1.3000858635386958,,,733,12
327,9929,Vaishnavi PG,12.9560918,77.7125719,PG,"Kaverappa Layout, Bengaluru",1.696407000327809,0.2684037243751775,,,359,6
328,9933,Dream house pg for ladies,12.9500957,77.7019862,PG,"Kaverappa Layout, Bengaluru",0.434694890775471,1.5932564995854082,,,728,12
329,9935,Venkata Sai Gents Pg,12.961647,77.7021142,PG,"Kaverappa Layout, Bengaluru",1.6936295222056714,1.4197353427310309,,,728,12
330,9938,Zolo Elements PG,12.965503,77.721947,PG,"Kaverappa Layout, Bengaluru",3.1491465496284077,1.1933505507515119,,,352,6
331,9943,Colive Cupertino PG in Spice Garden Layout Bengaluru,12.9589186,77.7096366,PG,"Kaverappa Layout, Bengaluru",1.705264960314443,0.5510612930328765,,,714,12
332,9945,PG,12.9524453,77.7012029,PG,"Kaverappa Layout, Bengaluru",0.6659565675639866,1.5525457971730623,,,568,9
333,9949,"Grm Pg,srinivasa Residency",12.9501205,77.7004395,PG,"Kaverappa Layout, Bengaluru",0.4016516212715679,1.7371376802141623,,,610,10
334,9950,Sri Lakshmi Narayana Swamy PG for Gents,12.948689,77.7021343,PG,"Kaverappa Layout, Bengaluru",0.30733330055868846,1.6672041299071065,,,708,12
335,9954,PG,12.9502139,77.6981023,PG,"Kaverappa Layout, Bengaluru",0.48091581229537095,1.9591184359077056,,,723,12
336,9957,SSV Gents PG,12.9591867,77.7047267,PG,"Kaverappa Layout, Bengaluru",1.4859564743177573,1.077421142707273,,,669,11
337,10754,Zolo Amber PG,12.9510146,77.7150464,PG,"Koramangala, Karnataka",1.665292174908811,0.7310730838384942,,,447,7
338,11038,Sai Krupa Apartments,12.968987,77.7032398,Apartment,"Lakkasandra, Bengaluru",2.5184667716814446,1.763071474266641,,,582,10
339,11065,Sobha Dream Acres - Flats for Sale in Bangalore,12.9382954,77.7262934,Apartment,"Lakkasandra, Bengaluru",2.9518444478464856,2.4936980867608844,,,806,13
340,11076,Saroj Group,12.9522835,77.7119978,Apartment,"Lakkasandra, Bengaluru",1.412193687552859,0.6487245116076025,,,448,7
341,11513,Sri Venkateswara PG for MEN,12.969941,77.7106587,PG,"Lakkasandra, Bengaluru",2.833166240150162,1.438137047950773,,,405,7
342,11549,Zolo Elements PG,12.965503,77.721947,PG,"Lakkasandra, Bengaluru",3.1491465496284077,1.1933505507515119,,,352,6
343,11560,Royal Enclave Apartment,12.9510903,77.69739,Apartment,"Marathahalli, Bengaluru",0.6044260264481528,1.9922313160112783,,,699,12
344,11562,Vanshee Richfield Apts,12.9600728,77.7003039,Apartment,"Marathahalli, Bengaluru",1.5082942944142088,1.5665033672948854,,,826,14
345,11563,Arjun Mahatej Apartment,12.9502107,77.6981104,Apartment,"Marathahalli, Bengaluru",0.4801585502556852,1.9584695371668481,,,723,12
346,11564,Brindavanam,12.9537549,77.6950325,Apartment,"Marathahalli, Bengaluru",0.993208500857502,2.1550036837085744,,,737,12
347,11565,Subiksha Courette,12.9520817,77.6978671,Apartment,"Marathahalli, Bengaluru",0.6773828228870374,1.9060129418700902,,,663,11
348,11566,Aishwarya Opulence Apartments,12.9536844,77.6998776,Apartment,"Marathahalli, Bengaluru",0.7998458104410127,1.6455346204518906,,,885,15
349,11567,KNR apartments,12.9535988,77.6924478,Apartment,"Marathahalli, Bengaluru",1.1672886077908058,2.4333290349092307,,,706,12
350,11568,Grand Bay Apartments,12.9493202,77.7004617,Apartment,"Marathahalli, Bengaluru",0.31272124470410956,1.779230567581404,,,695,12
351,11569,Venkatadri Apartments,12.9530647,77.6971181,Apartment,"Marathahalli, Bengaluru",0.8107153539811657,1.9522067396226015,,,675,11
352,11571,Saritha Elan,12.9492907,77.6999715,Apartment,"Marathahalli, Bengaluru",0.3126760396532268,1.826603266020877,,,724,12
353,11572,Nithya Apartment,12.9520902,77.7049983,Apartment,"Marathahalli, Bengaluru",0.7965145567587736,1.1992347539496733,,,696,12
354,11573,Janani Residency,12.9523274,77.6926414,Apartment,"Marathahalli, Bengaluru",1.06016939475222,2.4425388537729673,,,738,12
355,11574,Panchratan Apartments,12.9547319,77.6923359,Apartment,"Marathahalli, Bengaluru",1.2641693199345108,2.4256639422637685,,,689,11
356,11575,Aishwarya Serenity Apartments,12.9563145,77.7053664,Apartment,"Marathahalli, Bengaluru",1.2163650573273512,1.0027691361903084,,,445,7
357,11576,"E4, Rekha park Appartments",12.955397,77.6985275,Apartment,"Marathahalli, Bengaluru",1.008765891126877,1.750849967625442,,,586,10
358,11577,Dove Nests Apartment,12.9551694,77.7032257,Apartment,"Marathahalli, Bengaluru",1.0108255378070579,1.2537276460212352,,,525,9
359,11578,Maheshwari's Apartment,12.9501313,77.695048,Apartment,"Marathahalli, Bengaluru",0.7053776329123453,2.267425826858658,,,841,14
360,11579,Ananda Nilayam Apartment,12.9456304,77.7045013,Apartment,"Marathahalli, Bengaluru",0.45597079698072274,1.715710415611976,,,853,14
361,11580,RR Nest,12.948881,77.7008132,Apartment,"Marathahalli, Bengaluru",0.267723324823665,1.7728400561275466,,,692,12
362,11581,Saroj Regency,12.9553026,77.7030525,Apartment,"Marathahalli, Bengaluru",1.0194789414777459,1.2690465389231407,,,519,9
363,11582,M S Residency,12.9479414,77.7039955,Apartment,"Marathahalli, Bengaluru",0.4218167479250986,1.5650879325312261,,,770,13
364,11583,Purva Fountain Square,12.9574177,77.7055156,Apartment,"Marathahalli, Bengaluru",1.3340897202098159,0.976980384548552,,,598,10
365,11584,Mathrushree Residency,12.9539343,77.6947948,Apartment,"Marathahalli, Bengaluru",1.0244942034288123,2.1764695866884827,,,740,12
366,11585,AMT Apartments,12.9502182,77.6980473,Apartment,"Marathahalli, Bengaluru",0.4844241248045936,1.9643367191641032,,,721,12
367,11586,Sai Krupa Apartments,12.968987,77.7032398,Apartment,"Marathahalli, Bengaluru",2.5184667716814446,1.763071474266641,,,582,10
368,11587,Brindhavan Enclave,12.9489848,77.701154,Apartment,"Marathahalli, Bengaluru",0.2874700246532907,1.7356164146756636,,,684,11
369,11588,Sri Sai Sannidhi,12.9624667,77.7015174,Apartment,"Marathahalli, Bengaluru",1.7786451205260834,1.5115524986097213,,,757,13
370,11589,Modern View Apartment,12.9613356,77.7052839,Apartment,"Marathahalli, Bengaluru",1.7318327206905093,1.0859070636165515,,,375,6
371,11590,Samaikyaa Sai Sannidhi Apartments,12.9607464,77.7019502,Apartment,"Marathahalli, Bengaluru",1.592152275620697,1.4081981017203986,,,706,12
372,11591,RC Prime Apartment,12.9499943,77.6983744,Apartment,"Marathahalli, Bengaluru",0.4449672861923098,1.9428273286291773,,,733,12
373,11592,Sai Krupa building,12.9530889,77.7029675,Apartment,"Marathahalli, Bengaluru",0.7831378087295456,1.3484075867127867,,,595,10
374,11593,Sree Charitha Gardens,12.9549897,77.703041,Apartment,"Marathahalli, Bengaluru",0.9857924584694495,1.2776295664708062,,,527,9
375,11594,St Enclave Apartment,12.9540768,77.6996074,Apartment,"Marathahalli, Bengaluru",0.8458160558125365,1.6630751626993951,,,655,11
376,11595,Jagath Premier Residency,12.9547311,77.6919018,Apartment,"Marathahalli, Bengaluru",1.2970367024486766,2.472323990298109,,,703,12
377,11596,Vaskar Homes,12.9523828,77.6957679,Apartment,"Marathahalli, Bengaluru",0.8232059681553374,2.1133836180220555,,,747,12
378,11597,Rohan Vasantha Apts,12.9582053,77.7067979,Apartment,"Marathahalli, Bengaluru",1.474301805472206,0.8408502027866112,,,650,11
379,11598,Sri Sai Apartment,12.9490703,77.7074455,Apartment,"Marathahalli, Bengaluru",0.8157867410045974,1.2176402783974518,,,712,12
380,11599,RAMKALA,12.9468141,77.7037271,Apartment,"Marathahalli, Bengaluru",0.3630817690037544,1.6735843892589348,,,801,13
381,11600,Sri Sai Abba,12.9626259,77.701266,Apartment,"Marathahalli, Bengaluru",1.7946612750285293,1.543356815163112,,,765,13
382,11601,Power star apartments,12.95175,77.7042667,Apartment,"Marathahalli, Bengaluru",0.7183558469199304,1.2867626466335333,,,589,10
383,11602,Sri Maruti Nilayam Apartments,12.9553425,77.6984224,Apartment,"Marathahalli, Bengaluru",1.0051850365474788,1.7629721477585008,,,584,10
384,11603,shree vishnu paradise apartment,12.9520819,77.694593,Apartment,"Marathahalli, Bengaluru",0.882537768646907,2.24500222657749,,,775,13
385,11604,Karthik Apartment,12.9677348,77.7026762,Apartment,"Marathahalli, Bengaluru",2.3731923660015632,1.7109793200771473,,,590,10
386,11606,Yuvi's Flat - Marathahalli,12.9604042,77.7025024,Apartment,"Marathahalli, Bengaluru",1.5619578763201072,1.3409075168692217,,,712,12
387,11607,Ittina Akya,12.9540634,77.7000581,Apartment,"Marathahalli, Bengaluru",0.8408246945445509,1.615985292247508,,,669,11
388,11608,R J Residency Apartments,12.96034,77.7023593,Apartment,"Marathahalli, Bengaluru",1.5526907613175713,1.354343631874283,,,710,12
389,11609,Rama Building,12.9470175,77.7034075,Apartment,"Marathahalli, Bengaluru",0.33171607303784706,1.6821366109794729,,,804,13
390,11610,Hobson StayAbode,12.9538486,77.6981795,Apartment,"Marathahalli, Bengaluru",0.8506325553185491,1.8194925953646552,,,626,10
391,11611,Elite Residency,12.9614945,77.7004808,Apartment,"Marathahalli, Bengaluru",1.6663787621549664,1.583719047737853,,,795,13
392,11612,Ramakka Residency,12.9545053,77.6996524,Apartment,"Marathahalli, Bengaluru",0.8927844146193746,1.6478236276003555,,,645,11
393,11613,Shabari Apartment,12.9612994,77.703236,Apartment,"Marathahalli, Bengaluru",1.6732960496085525,1.2921985832607106,,,766,13
394,11614,Bharat Regency Apartments,12.9573861,77.7000894,Apartment,"Marathahalli, Bengaluru",1.2099592243621213,1.5649703247151687,,,631,11
395,11615,SJR Spencer,12.9575392,77.7040753,Apartment,"Marathahalli, Bengaluru",1.289873930532557,1.1329147124938193,,,839,14
396,11616,Tirumala Apartments,12.9515582,77.7048072,Apartment,"Marathahalli, Bengaluru",0.7377383385106614,1.2477839299196296,,,673,11
397,11617,Vijay Enclave,12.9463151,77.7045776,Apartment,"Marathahalli, Bengaluru",0.45416797642655915,1.652087834267167,,,833,14
398,11618,MS Sai Residency,12.9614706,77.7025899,Apartment,"Marathahalli, Bengaluru",1.6806652654788097,1.3646245834243012,,,746,12
399,11619,Viceroy Boulevard,12.9544416,77.6972199,Apartment,"Marathahalli, Bengaluru",0.9466895257729289,1.9077799721328952,,,650,11
400,11621,CKB Apartment 2,12.9518484,77.7042768,Apartment,"Marathahalli, Bengaluru",0.7278935487709564,1.2803445546968448,,,585,10
401,11622,Saroj Meadows Apartment,12.9510494,77.7128088,Apartment,"Marathahalli, Bengaluru",1.4372538648659277,0.7486647984602995,,,523,9
402,11623,Brindavan Apartment,12.947947,77.7046945,Apartment,"Marathahalli, Bengaluru",0.4929885653216132,1.510285096027097,,,827,14
403,11624,"%2326, Apartment",12.9509827,77.7033013,Apartment,"Marathahalli, Bengaluru",0.5890146421097175,1.420253499886667,,,624,10
404,11625,Apartment sabeesh,12.946427,77.7021212,Apartment,"Marathahalli, Bengaluru",0.1876810529273985,1.8285065108115612,,,851,14
405,11626,Sri Srinivasa Nilaya,12.9484545,77.7020817,Apartment,"Marathahalli, Bengaluru",0.2834950448824496,1.6873342574254733,,,708,12
406,11627,New Home,12.949667,77.7004882,Apartment,"Marathahalli, Bengaluru",0.3513475517978618,1.7571704776452322,,,698,12
407,11628,SAR Complex,12.9551517,77.6930463,Apartment,"Marathahalli, Bengaluru",1.2478742164134795,2.3435418542154003,,,657,11
408,11629,MSR VISTAA Apartment,12.9556653,77.7027367,Apartment,"Marathahalli, Bengaluru",1.04941439840248,1.2954009217883034,,,498,8
409,11630,Sri krishna nilayam,12.9507505,77.7013934,Apartment,"Marathahalli, Bengaluru",0.48400919640346424,1.6129178719343473,,,736,12
410,11631,Kaushika Enclave,12.9463406,77.7025813,Apartment,"Marathahalli, Bengaluru",0.23805629953237106,1.7988140111226492,,,839,14
411,11632,Sri Lakshmi Venkateswara nilaya,12.954611,77.6919727,Apartment,"Marathahalli, Bengaluru",1.2821798690239716,2.4664505955896066,,,702,12
412,11633,"Srinivasam Building, Sanjay Nagar Marathahalli",12.9582065,77.6993377,Apartment,"Marathahalli, Bengaluru",1.305742908380331,1.6478116517790682,,,643,11
413,11634,SJR spencer entrance,12.9572392,77.7043899,Apartment,"Marathahalli, Bengaluru",1.2694246416299673,1.0994344857282865,,,785,13
414,11635,Samskruthi Apartment (Prabhu Clinic),12.955214,77.693509,Apartment,"Marathahalli, Bengaluru",1.2219848108024123,2.2929380329870828,,,642,11
415,11636,Sri Apartment,12.9498993,77.7017692,Apartment,"Marathahalli, Bengaluru",0.4055119336360485,1.6247237934293617,,,668,11
416,11637,Sunkhara residency,12.9536392,77.695126,Apartment,"Marathahalli, Bengaluru",0.9768475296614207,2.147652595757963,,,734,12
417,11639,TRISHA RESIDENCY,12.951484,77.6950809,Apartment,"Marathahalli, Bengaluru",0.7982747711709949,2.213583270924946,,,777,13
418,11640,TRISHA RESIDENCY,12.951484,77.6950809,Apartment,"Marathahalli, Bengaluru",0.7982747711709949,2.213583270924946,,,777,13
419,11641,Vanshee Citadel,12.9606981,77.69925,Apartment,"Marathahalli, Bengaluru",1.5826351110383778,1.69192587191909,,,858,14
420,11642,Lords Enclave,12.9546103,77.7041011,Apartment,"Marathahalli, Bengaluru",0.9864917676376409,1.1770648288231287,,,512,9
421,11643,CKB Apartment,12.9514056,77.7041735,Apartment,"Marathahalli, Bengaluru",0.6815296950189986,1.3150513276641516,,,601,10
422,11644,Ankareddy H Building,12.953568,77.6933119,Apartment,"Marathahalli, Bengaluru",1.097601479168863,2.341956134146894,,,680,11
423,11645,Amara Courtyard,12.9494537,77.7034833,Apartment,"Marathahalli, Bengaluru",0.46851782872394987,1.499164458937743,,,713,12
424,11646,Rama Reddy Apartments,12.947865,77.7053252,Apartment,"Marathahalli, Bengaluru",0.5555360364587775,1.469536531833596,,,845,14
425,11647,Maangalya Suryodaya Apartments,12.9554828,77.7107703,Apartment,"Marathahalli, Bengaluru",1.5035895848554144,0.46888411210245473,,,386,6
426,11648,SVN Residency,12.9613098,77.7053909,Apartment,"Marathahalli, Bengaluru",1.7326923292714467,1.0741042704334545,,,376,6
427,11649,Narayani Homes,12.9542603,77.6964737,Apartment,"Marathahalli, Bengaluru",0.9608240160728511,1.9909689208252683,,,669,11
428,11650,SAI Nest,12.9485277,77.7039384,Apartment,"Marathahalli, Bengaluru",0.445147443547662,1.5258812198182992,,,756,13
429,11651,Nirvana Enclave,12.946059,77.7021267,Apartment,"Marathahalli, Bengaluru",0.19459107886952665,1.8560478629068746,,,866,14
430,11653,L Building,12.9578145,77.7054566,Apartment,"Marathahalli, Bengaluru",1.3717598357209366,0.9836020763887879,,,614,10
431,11654,Samhita Maruthi Homes,12.9581796,77.7047816,Apartment,"Marathahalli, Bengaluru",1.3822070940234528,1.0585434682705124,,,479,8
432,11655,Raju Apartments,12.953293,77.6965972,Apartment,"Marathahalli, Bengaluru",0.8591556568504748,2.000628960367546,,,687,11
433,11656,Vanshee Eldorado Apartment,12.9521457,77.6995145,Apartment,"Marathahalli, Bengaluru",0.6339715488602258,1.735344509589813,,,872,15
434,11659,Blue Bell Homes,12.9676128,77.7042125,Apartment,"Marathahalli, Bengaluru",2.382927474828021,1.5801925653466569,,,541,9
435,11660,Satya's room,12.9515226,77.7051267,Apartment,"Marathahalli, Bengaluru",0.7577360726211926,1.2208661735923665,,,684,11
436,11662,Greenfields Apartment,12.9532989,77.7130882,Apartment,"Marathahalli, Bengaluru",1.5694711764169476,0.4999650001151752,,,413,7
437,11664,Ittina Abha,12.9535176,77.7055654,Apartment,"Marathahalli, Bengaluru",0.9600935805806946,1.07086479435706,,,611,10
438,11665,Manju shree residency,12.9533371,77.7035135,Apartment,"Marathahalli, Bengaluru",0.8312584266184149,1.2832349203024098,,,604,10
439,11666,Lake Paradise Apartment,12.9597833,77.7088494,Apartment,"Marathahalli, Bengaluru",1.7374918785422633,0.6629426266741898,,,723,12
440,11667,Sai Leela Lake Vista Apartments,12.959796,77.7082625,Apartment,"Marathahalli, Bengaluru",1.7060210135353429,0.7228643936201729,,,712,12
441,11668,C.K.B Plaza,12.9562018,77.6952085,Apartment,"Marathahalli, Bengaluru",1.2153850636416885,2.099274085064378,,,594,10
442,11669,Building No.36,12.9457733,77.7043636,Apartment,"Marathahalli, Bengaluru",0.43816471645674704,1.7130029406611296,,,852,14
443,11670,Sri.Sai Residency %239 Rekha,12.9492115,77.7002645,Apartment,"Marathahalli, Bengaluru",0.30085560928189053,1.8037731592333788,,,717,12
444,11671,Aunty home,12.9543591,77.7027084,Apartment,"Marathahalli, Bengaluru",0.9083238209648671,1.329864048266764,,,553,9
445,11672,Vaikuntam Apartment Owners Association,12.9511982,77.6997663,Apartment,"Marathahalli, Bengaluru",0.5258335489365502,1.7497345273127627,,,565,9
446,11673,Building No. 11,12.9460188,77.7024492,Apartment,"Marathahalli, Bengaluru",0.22956240249063017,1.8340259014880156,,,858,14
447,11674,Shruthi Apartment,12.9490891,77.711463,Apartment,"Marathahalli, Bengaluru",1.2336438126014926,0.9998874720038609,,,678,11
448,11675,Krishna Dham Apartments,12.9586041,77.700868,Apartment,"Marathahalli, Bengaluru",1.3459437962714456,1.4849199072719423,,,770,13
449,11676,Interior design,12.956924,77.701127,Apartment,"Marathahalli, Bengaluru",1.1608739437170166,1.4541751329640646,,,479,8
450,11677,Purvi Khosala,12.9540677,77.7122439,Apartment,"Marathahalli, Bengaluru",1.5350010940990368,0.46155547365905186,,,427,7
451,11678,Thirumal residency,12.9533517,77.7083694,Apartment,"Marathahalli, Bengaluru",1.1517139472191897,0.8158978353162313,,,500,8
452,11679,Vanshee Solitaire,12.9624765,77.7047556,Apartment,"Marathahalli, Bengaluru",1.8374497476608782,1.19143473712763,,,415,7
453,11680,Mia Rooms - Fully Furnished Houses,12.9492938,77.7042204,Apartment,"Marathahalli, Bengaluru",0.5177738292842686,1.4474279576781408,,,725,12
454,11681,"No 12 , sumukha buildings",12.9491602,77.7052387,Apartment,"Marathahalli, Bengaluru",0.6023835375135003,1.3741268094299512,,,707,12
455,11682,Satko Palm Trees,12.9553099,77.7085648,Apartment,"Marathahalli, Bengaluru",1.319953683275153,0.6935477668907841,,,405,7
456,11683,DSR Krishna Royale Apartment,12.9549887,77.7095674,Apartment,"Marathahalli, Bengaluru",1.3703714776805265,0.6095733559201522,,,418,7
457,11684,PBR Nest,12.9501498,77.7011286,Apartment,"Marathahalli, Bengaluru",0.41268320607302744,1.670267133586527,,,666,11
458,11685,Aaspire Heights,12.949386,77.7019825,Apartment,"Marathahalli, Bengaluru",0.3634510858673332,1.6361427042577816,,,665,11
459,11686,Kusumanjali 27 Apartments,12.9499725,77.7014641,Apartment,"Marathahalli, Bengaluru",0.402322365951039,1.6487692331738433,,,657,11
460,11687,Sapthagiri Residency,12.9489612,77.7024344,Apartment,"Marathahalli, Bengaluru",0.3512674088242908,1.6230818241245024,,,695,12
461,11688,Motati Maple Appartments,12.9549178,77.7031811,Apartment,"Marathahalli, Bengaluru",0.9827108536006139,1.2646806982258116,,,529,9
462,11689,Ac krishna house,12.958249,77.6976771,Apartment,"Marathahalli, Bengaluru",1.3381919352298535,1.8277993363807286,,,635,11
463,11690,Keshavam apartment,12.965359,77.7091563,Apartment,"Marathahalli, Bengaluru",2.301221364434251,1.0436499776097048,,,294,5
464,11691,Joshua Josh Apartment,12.9537085,77.7102632,Apartment,"Marathahalli, Bengaluru",1.3361775428676237,0.630993401663215,,,582,10
465,11692,RPS Residency,12.9633636,77.7081904,Apartment,"Marathahalli, Bengaluru",2.0559271167028834,0.9417816835102231,,,286,5
466,11693,Absolute Apartments,12.9523006,77.7128689,Apartment,"Marathahalli, Bengaluru",1.4977012527140687,0.6129578038481998,,,443,7
467,11694,Nandanam Residency,12.9492927,77.7050342,Apartment,"Marathahalli, Bengaluru",0.5907447816184768,1.3805804247873592,,,737,12
468,11695,A.R. Homes,12.9719444,77.6975568,Apartment,"Marathahalli, Bengaluru",2.8449581444985292,2.4367008063396036,,,726,12
469,11696,Govindam Meghana Homes,12.9556583,77.7097061,Apartment,"Marathahalli, Bengaluru",1.4331754697768337,0.5643058697465826,,,403,7
470,11697,Subhashree Saikrupa Apartment,12.9447523,77.7081902,Apartment,"Marathahalli, Bengaluru",0.867424055999343,1.5822071438717848,,,844,14
471,11698,Shaashwatha Serviced Apartments,12.9563714,77.6976701,Apartment,"Marathahalli, Bengaluru",1.1356424141880046,1.8318595450175936,,,551,9
472,11699,Sriven Paradise,12.95495,77.7067788,Apartment,"Marathahalli, Bengaluru",1.1662574781444621,0.8890413054136922,,,632,11
473,11700,"SriSaiNivas Apartment, vinayaka layout",12.9716507,77.7019456,Apartment,"Marathahalli, Bengaluru",2.800738716512392,2.0762900078577364,,,630,11
474,11701,Sree Sai Samruddhi,12.9523663,77.6987997,Apartment,"Marathahalli, Bengaluru",0.6737904598416995,1.800140271793115,,,678,11
475,11702,Emerald Elegance Apartment,12.9525919,77.7033189,Apartment,"Marathahalli, Bengaluru",0.7471270433183174,1.3350503099079043,,,596,10
476,11703,YKRR RESIDENCY,12.9463312,77.7105461,Apartment,"Marathahalli, Bengaluru",1.1006319627931263,1.3221687299334457,,,832,14
477,11704,SDR Enclaves,12.9464163,77.7040056,Apartment,"Marathahalli, Bengaluru",0.39180543974288323,1.6849034084274068,,,829,14
478,11705,Oasis Breeze,12.9599545,77.7100509,Apartment,"Marathahalli, Bengaluru",1.8251207473794042,0.553068765496382,,,179,3
479,11706,Damden Neptunia,12.9521251,77.7128458,Apartment,"Marathahalli, Bengaluru",1.4871420381776215,0.6323560401367847,,,447,7
480,11707,Marathahali home,12.9512974,77.7071281,Apartment,"Marathahalli, Bengaluru",0.9036055281631408,1.062947393494934,,,657,11
481,11708,Studio Rooms for Rent,12.9587013,77.702718,Apartment,"Marathahalli, Bengaluru",1.379005310527003,1.2861551417211705,,,714,12
482,11709,2bhk 20k,12.970867,77.70167,Apartment,"Marathahalli, Bengaluru",2.7120682240567158,2.0317575443343814,,,629,10
483,11710,Shraddha Tulip Apartment,12.9655015,77.7128192,Apartment,"Marathahalli, Bengaluru",2.504766983705648,0.9012173117476127,,,292,5
484,11711,Vishnupriya Parimala Harmony Apartment,12.9651489,77.7095135,Apartment,"Marathahalli, Bengaluru",2.2963574840245893,1.0028476435462181,,,286,5
485,11712,SLV NILAYA,12.9472587,77.7050257,Apartment,"Marathahalli, Bengaluru",0.5090943376155566,1.541231217101061,,,819,14
486,11713,Blue Bells Apartment,12.9489334,77.7003549,Apartment,"Marathahalli, Bengaluru",0.2696469799574338,1.811586738790543,,,712,12
487,11714,Shararitu residential Apartments,12.9570946,77.7145268,Apartment,"Marathahalli, Bengaluru",1.9318377596724228,0.05286327847871532,,,14,1
488,11715,Parimala Winsome Apartment,12.9597242,77.7141925,Apartment,"Marathahalli, Bengaluru",2.0967033059424547,0.24231231943019252,,,84,1
489,11716,Siddhartha Ruby,12.9648926,77.7085674,Apartment,"Marathahalli, Bengaluru",2.227947091208764,1.0394482146590593,,,324,5
490,11717,Shikharam Apartments,12.9559221,77.709914,Apartment,"Marathahalli, Bengaluru",1.4698736012065852,0.5327143834272211,,,369,6
491,11718,Parimala Elan,12.959865,77.7025812,Apartment,"Marathahalli, Bengaluru",1.503997399099676,1.319717885512536,,,698,12
492,11719,Srinivas Reddy Building,12.9483332,77.7061178,Apartment,"Marathahalli, Bengaluru",0.65288579189081,1.3732843970075488,,,775,13
493,11720,AKSHAYA TEMPLE TREE,12.9599499,77.7113199,Apartment,"Marathahalli, Bengaluru",1.906918985930047,0.43707534412556903,,,157,3
494,11721,Shree Residency,12.9491612,77.7132551,Apartment,"Marathahalli, Bengaluru",1.4248785879356487,0.9451687641061176,,,572,10
495,11722,Pearl Residency Apartment and Row house,12.9591722,77.697419,Apartment,"Marathahalli, Bengaluru",1.4444920082436323,1.8627436906421841,,,668,11
496,11723,SMR Galaxy,12.9663329,77.7082957,Apartment,"Marathahalli, Bengaluru",2.3649236517914,1.185672527450951,,,350,6
497,11724,Raycon Lotus Apartment,12.9642873,77.7118888,Apartment,"Marathahalli, Bengaluru",2.3367555557952557,0.7998871712331685,,,242,4
498,11725,Raghu reddy building,12.9560015,77.7027695,Apartment,"Marathahalli, Bengaluru",1.0865604901844108,1.2862937398255938,,,489,8
499,11726,Golden Residency,12.9409679,77.7020761,Apartment,"Marathahalli, Bengaluru",0.6425892733678931,2.28678552369119,,,794,13
500,11727,Paloma Residency,12.9503014,77.7162763,Apartment,"Marathahalli, Bengaluru",1.7723223704046012,0.8300909406966334,,,441,7
501,11728,Bren Avalon,12.975292,77.7067616,Apartment,"Marathahalli, Bengaluru",3.2741595194808197,2.142862235468993,,,522,9
502,11729,Heritage IX,12.96412,77.708005,Apartment,"Marathahalli, Bengaluru",2.1249989640364775,1.0150862899124895,,,313,5
503,11730,Sai Gowri Grand Vault Apartments,12.9638456,77.7136563,Apartment,"Marathahalli, Bengaluru",2.404705744490725,0.704209147661845,,,180,3
504,11731,Pearl Residency Apartment and Row Houses,12.9557412,77.7077381,Apartment,"Marathahalli, Bengaluru",1.2991431483270925,0.7635741042470827,,,437,7
505,11732,Sowparnika Tulsi Apartments,12.958838,77.7136836,Apartment,"Marathahalli, Bengaluru",1.988556756755716,0.1682023280102007,,,143,2
506,11733,S Apartment,12.9459951,77.7028219,Apartment,"Marathahalli, Bengaluru",0.26951474780428614,1.807293843062666,,,842,14
507,11734,Ushodaya Aura Apartment,12.9592822,77.7126583,Apartment,"Marathahalli, Bengaluru",1.945375749992242,0.278181712076326,,,137,2
508,11735,Serikar Apartment,12.9615908,77.7115566,Apartment,"Marathahalli, Bengaluru",2.0679561603286767,0.5510979396241625,,,199,3
509,11736,Sai Flora Apartment,12.9625063,77.706101,Apartment,"Marathahalli, Bengaluru",1.8833897422543848,1.0656268883487292,,,315,5
510,11737,Apartment Number 6,12.9497134,77.7086947,Apartment,"Marathahalli, Bengaluru",0.9678085496838459,1.0784540140170904,,,740,12
511,11738,Balaji Paradise,12.9586061,77.7140781,Apartment,"Marathahalli, Bengaluru",2.0023251912883713,0.12518454483825364,,,31,1
512,11739,Sriven Heights,12.9558293,77.7064753,Apartment,"Marathahalli, Bengaluru",1.2283375537100036,0.894043429492877,,,587,10
513,11740,Kashif Home,12.9625338,77.69907,Apartment,"Marathahalli, Bengaluru",1.7876593871060433,1.7638678977777138,,,860,14
514,11741,Royal hights,12.9485211,77.7159555,Apartment,"Marathahalli, Bengaluru",1.7014356262948283,1.0179819560949188,,,519,9
515,11743,VAK Residency,12.9652377,77.7154639,Apartment,"Marathahalli, Bengaluru",2.6466737724636538,0.8585953543633518,,,269,4
516,11744,VILLAGESITE E-COMMERCE PRIVATE LIMITED,12.9566888,77.7011466,Apartment,"Marathahalli, Bengaluru",1.1349352137207096,1.4535829745596438,,,675,11
517,11745,Anand Nilaya Apartments,12.9640572,77.7073397,Apartment,"Marathahalli, Bengaluru",2.091543322321627,1.0618021755853724,,,335,6
518,11746,Thaswi Homes,12.9408073,77.7017815,Apartment,"Marathahalli, Bengaluru",0.6516181335241568,2.3200933271020245,,,805,13
519,11748,OYO 9946 CKB Apartment,12.9513785,77.7041685,Apartment,"Marathahalli, Bengaluru",0.6787976836721448,1.3170864527462007,,,602,10
520,11751,"Sai Shelter Apartment,",12.9613644,77.7096275,Apartment,"Marathahalli, Bengaluru",1.9314442494168325,0.6784103131381588,,,253,4
521,11752,Nakshatra Apartment,12.9589488,77.7124042,Apartment,"Marathahalli, Bengaluru",1.8995005484137357,0.27671449142248455,,,168,3
522,11753,DLT Residency Apartments,12.9506727,77.7160876,Apartment,"Marathahalli, Bengaluru",1.762857526347707,0.7852998262574885,,,432,7
523,11755,"A-Block, Rohan Vasantha Apartments",12.9567057,77.7073259,Apartment,"Marathahalli, Bengaluru",1.360274386760221,0.7865573886964747,,,569,9
524,11756,"Sriven Towers, Block B, 1st Cross,",12.9554329,77.7066231,Apartment,"Marathahalli, Bengaluru",1.2003197544439057,0.8891671156585202,,,453,8
525,11758,Ashish A N Reddy Apartment,12.9528459,77.7219938,Apartment,"Marathahalli, Bengaluru",2.4447522406298448,0.9644241412042095,,,388,6
526,11759,Benson StayAbode,12.9493461,77.6981495,Apartment,"Marathahalli, Bengaluru",0.39820530931033987,1.9967827506234004,,,743,12
527,11760,Samaprabha apartment,12.9627549,77.714661,Apartment,"Marathahalli, Bengaluru",2.377936204483543,0.5767101061582903,,,197,3
528,11761,Building 5,12.9596638,77.7122716,Apartment,"Marathahalli, Bengaluru",1.9486322782757433,0.3377821687495486,,,138,2
529,11762,Sri Sai Krishna Vihar,12.9635797,77.7093813,Apartment,"Marathahalli, Bengaluru",2.1336053555302095,0.8705385409377797,,,256,4
530,11763,SpringSeas Blossom,12.9586015,77.7086129,Apartment,"Marathahalli, Bengaluru",1.6130358041437631,0.6513750534863173,,,662,11
531,11764,Shri Renuka Apartments,12.9524551,77.7103278,Apartment,"Marathahalli, Bengaluru",1.2635938822270547,0.7285881733059384,,,579,10
532,11765,Chinni Nilaya,12.9612088,77.7057818,Apartment,"Marathahalli, Bengaluru",1.7358212549903733,1.030718516022214,,,367,6
533,11766,Building 10%2FA,12.9534063,77.7064175,Apartment,"Marathahalli, Bengaluru",1.007331945914789,0.993570914223095,,,546,9
534,11767,Reddy Apartment,12.9539496,77.7244457,Apartment,"Marathahalli, Bengaluru",2.7348557279767776,1.1474464301576974,,,452,8
535,11769,Ganga Chelston Apartment,12.95282,77.711816,Apartment,"Marathahalli, Bengaluru",1.423126994862568,0.6045381672001396,,,427,7
536,11770,Aarna Saptagiri Towers,12.9634024,77.7129251,Apartment,"Marathahalli, Bengaluru",2.3180843079065503,0.6714473562504787,,,167,3
537,11771,Lovedale Guest House,12.953265,77.7016062,Apartment,"Marathahalli, Bengaluru",0.7627183146867199,1.4800335456316984,,,647,11
538,11772,Lakshmi Pearl Casa,12.94771,77.709661,Apartment,"Marathahalli, Bengaluru",1.0133781708999665,1.2167388410137119,,,788,13
539,11773,PGHub,12.955494,77.700339,Apartment,"Marathahalli, Bengaluru",0.9991405956347623,1.5550244307298162,,,652,11
540,11774,VENKATADRI COMFORTS,12.9517614,77.7041902,Apartment,"Marathahalli, Bengaluru",0.7145767790160467,1.2933009963321291,,,590,10
541,11776,Sarvada Apartments,12.9624356,77.7155828,Apartment,"Marathahalli, Bengaluru",2.4179480665276794,0.5529281127801959,,,197,3
542,11777,Abhivrudhi appartment(flat no3 second floor),12.9572884,77.7175609,Apartment,"Marathahalli, Bengaluru",2.2132762831129282,0.3299288261285578,,,242,4
543,11779,Garuda Comforts (Icon) - Colive 1RK %26 Studio Rooms,12.9596088,77.7022256,Apartment,"Marathahalli, Bengaluru",1.470168994483536,1.3524798855707838,,,682,11
544,11780,SVR Co-living Studio Rooms,12.9573878,77.7015721,Apartment,"Marathahalli, Bengaluru",1.2164538626928791,1.4043120208701858,,,702,12
545,11782,TrustedStay Service apartments in AECS Layout,12.9635966,77.7093385,Apartment,"Marathahalli, Bengaluru",2.133165344479266,0.8749566425154889,,,257,4
546,11783,Nirvasa Moonlight,12.9493082,77.7160446,Apartment,"Marathahalli, Bengaluru",1.724635770192599,0.9332181462845432,,,500,8
547,11784,Suyash PG,12.9520119,77.6974223,Apartment,"Marathahalli, Bengaluru",0.6913628309980963,1.9541781640808369,,,692,12
548,11785,366 Apartment,12.9630597,77.7143974,Apartment,"Marathahalli, Bengaluru",2.3855090473743683,0.6105967229245813,,,179,3
549,11788,Garuda Comforts (Galaxy) - PG for Gents,12.9578565,77.7038303,Apartment,"Marathahalli, Bengaluru",1.3157037389755175,1.159895469371496,,,794,13
550,11789,OASIS BREEZE APARTMENT,12.952552,77.7242352,Apartment,"Marathahalli, Bengaluru",2.669842012717259,1.1905520941663885,,,487,8
551,11790,Building no 56,12.9473968,77.7166977,Apartment,"Marathahalli, Bengaluru",1.769848315632632,1.1553422869821945,,,588,10
552,11791,Park Inn Apartment,12.9647029,77.7177069,Apartment,"Marathahalli, Bengaluru",2.759313812036898,0.8646318980111317,,,230,4
553,11792,Sobha Dream Acres - Flats for Sale in Bangalore,12.9382954,77.7262934,Apartment,"Marathahalli, Bengaluru",2.9518444478464856,2.4936980867608844,,,806,13
554,11794,Apartment 558,12.9600563,77.7211189,Apartment,"Marathahalli, Bengaluru",2.704538416300532,0.7656497404723845,,,227,4
555,11795,Agarwal Estates,12.9563841,77.7100837,Apartment,"Marathahalli, Bengaluru",1.5195403798460032,0.49953751189111933,,,622,10
556,11796,Sobha Dream Acres,12.9391078,77.7201689,Apartment,"Marathahalli, Bengaluru",2.295853248100709,2.141923021586672,,,696,12
557,11797,Varsha Enclave,12.9652518,77.715539,Apartment,"Marathahalli, Bengaluru",2.65293526335873,0.8611476729995206,,,271,5
558,11799,AGARWAL REALTY AND INVESTMENT,12.9571633,77.7075917,Apartment,"Marathahalli, Bengaluru",1.4186058076120946,0.7532189506773403,,,611,10
559,11800,Marathahalli,12.9584512,77.7028661,Apartment,"Marathahalli, Bengaluru",1.3547591724386125,1.267732941640494,,,730,12
560,11801,AVR Nakshatra Villas,12.9644951,77.7063618,Apartment,"Marathahalli, Bengaluru",2.1020465905653283,1.1732011611506687,,,397,7
561,11802,Green House Pharma,12.9539856,77.6980229,Apartment,"Marathahalli, Bengaluru",0.870113467391693,1.832648085972447,,,612,10
562,11805,Dream house pg for ladies,12.9500957,77.7019862,Apartment,"Marathahalli, Bengaluru",0.434694890775471,1.5932564995854082,,,728,12
563,11806,Compact Panache,12.957336,77.7087685,Apartment,"Marathahalli, Bengaluru",1.5078411200484743,0.6248794278716544,,,620,10
564,11807,Stanza Living Stavanger House,12.9581369,77.7093968,Apartment,"Marathahalli, Bengaluru",1.6199394040058654,0.5598120315351516,,,658,11
565,11808,Manjunatha Enterprises,12.956977,77.7034019,Apartment,"Marathahalli, Bengaluru",1.208880517053074,1.2076844297987621,,,749,12
566,11809,Zolo Pepper - PG in Marathahalli Bangalore,12.9571713,77.7096945,Apartment,"Marathahalli, Bengaluru",1.556304144007207,0.5258649732243398,,,686,11
567,11810,Mathru Homeo house,12.9594583,77.7007862,Apartment,"Marathahalli, Bengaluru",1.4405707393555673,1.504050989792268,,,788,13
568,11811,Zolo Asmi Co-Living %7C Redefining PG,12.954909,77.7106108,Apartment,"Marathahalli, Bengaluru",1.4487707143748378,0.5176117979414988,,,407,7
569,11812,SHIVA XEROX Rental%2FLEASE Agreements for House,12.9580812,77.7017945,Apartment,"Marathahalli, Bengaluru",1.2957608513562702,1.3812340099183678,,,698,12
570,11813,Abhi Residency,12.9478171,77.7031633,Apartment,"Marathahalli, Bengaluru",0.3337701023231956,1.6411339573412125,,,775,13
571,11817,Fashion House,12.9533097,77.6981671,Apartment,"Marathahalli, Bengaluru",0.7937244890009261,1.8353492267703764,,,632,11
572,11818,Club House Richfields,12.9599767,77.699132,Apartment,"Marathahalli, Bengaluru",1.503783890686234,1.689899648589232,,,862,14
573,11819,Zolo Mustang Co-Living %7C Redefining PG,12.9516315,77.7047574,Apartment,"Marathahalli, Bengaluru",0.7405006326165632,1.2480122888805,,,674,11
574,11820,Sri Manjunatha Tent House,12.9575861,77.6992406,Apartment,"Marathahalli, Bengaluru",1.2380520165638298,1.6568161245250952,,,623,10
575,11821,Kalamandir - Marathahalli,12.9597839,77.7015194,Apartment,"Marathahalli, Bengaluru",1.4811931462655805,1.431200556585128,,,661,11
576,11822,Chickpet Donne Biryani House - Marathahalli,12.9497678,77.6997403,Apartment,"Marathahalli, Bengaluru",0.36920305701120126,1.822440571689779,,,590,10
577,11823,LOTUS SUITES MARATHAHALLI,12.9631508,77.7073679,Apartment,"Marathahalli, Bengaluru",1.9989973926441362,0.9936935521469035,,,309,5
578,11824,Pure Water House,12.9503232,77.6952236,Apartment,"Marathahalli, Bengaluru",0.7025154756582261,2.241960596496991,,,829,14
579,11825,Spicy House Restaurant,12.9531305,77.6980736,Apartment,"Marathahalli, Bengaluru",0.7779748427366774,1.850356560062847,,,637,11
580,11826,The best Irani chai house,12.9500613,77.7000615,Apartment,"Marathahalli, Bengaluru",0.39664889347292337,1.7763351107031937,,,724,12
581,11827,Aswath Nagar,12.9587847,77.6999044,Apartment,"Marathahalli, Bengaluru",1.3660537118552434,1.5906246392712227,,,711,12
582,11828,Nizam's Biryani House,12.960407,77.701724,Apartment,"Marathahalli, Bengaluru",1.5521586407388626,1.4231016452076108,,,645,11
583,11830,Karnataka tent house,12.9496459,77.7074919,Apartment,"Marathahalli, Bengaluru",0.8448537723200392,1.1653602731583164,,,685,11
584,11831,Treat House,12.9576758,77.7057246,Apartment,"Marathahalli, Bengaluru",1.3696391762792863,0.9542576138759647,,,607,10
585,11835,"Biriyani Zone, Marathahalli",12.9522009,77.7002645,Apartment,"Marathahalli, Bengaluru",0.6330972261279935,1.6571571189034773,,,546,9
586,11836,Suchithra Biriyani,12.9567212,77.7018078,Apartment,"Marathahalli, Bengaluru",1.1459100257634653,1.3818533825032548,,,478,8
587,11839,Super Glass House,12.9568977,77.7064432,Apartment,"Marathahalli, Bengaluru",1.328383426775676,0.8794992255491001,,,884,15
588,11840,"Biriyani Zone, Marathahalli",12.9522009,77.7002645,Apartment,"Marathahalli, Bengaluru",0.6330972261279935,1.6571571189034773,,,546,9
589,11841,Suchithra Biriyani,12.9567212,77.7018078,Apartment,"Marathahalli, Bengaluru",1.1459100257634653,1.3818533825032548,,,478,8
590,11844,Super Glass House,12.9568977,77.7064432,Apartment,"Marathahalli, Bengaluru",1.328383426775676,0.8794992255491001,,,884,15
591,11845,Corner House,12.9557425,77.7125871,Apartment,"Marathahalli, Bengaluru",1.6735836833811166,0.2926110183490259,,,328,5
592,11847,Novel Office - Marathahalli %7C Office Spaces in Bangalore %7C Co working Spaces,12.9567022,77.6998849,Office,"Marathahalli, Bengaluru",1.1347982903218372,1.5899301881186727,,,499,8
593,11848,BBMP Corparator Office,12.9515033,77.6980081,Office,"Marathahalli, Bengaluru",0.6124921625819003,1.9132649877852035,,,675,11
594,11849,LIC OFFICE MARATHAHALLI,12.9647533,77.7026774,Office,"Marathahalli, Bengaluru",2.0437821124451245,1.5124848565197044,,,578,10
595,11850,Office furniture Sales %26 service,12.9587847,77.6999044,Office,"Marathahalli, Bengaluru",1.3660537118552434,1.5906246392712227,,,711,12
596,11851,BBMP Office,12.9567739,77.7007529,Office,"Marathahalli, Bengaluru",1.1421152951987288,1.4955613702818495,,,496,8
597,11852,Bangalore TDP Forum Office,12.9547456,77.6981412,Office,"Marathahalli, Bengaluru",0.9478093336794311,1.8035155150903481,,,591,10
598,11853,BESCOM Office,12.9543169,77.6937394,Office,"Marathahalli, Bengaluru",1.128476952457612,2.281814327250676,,,652,11
599,11854,sdlc coworking space shared office in Marathahalli available 24 by 7,12.9579196,77.7040347,Office,"Marathahalli, Bengaluru",1.3288461729388377,1.1379724013454797,,,840,14
600,11855,JEEVAN PRAMAAN CENTER,12.9547683,77.6938033,Office,"Marathahalli, Bengaluru",1.1632725404087674,2.2675362878426344,,,643,11
601,11856,"REGISTER MARRIAGE CERTIFICATE IN MARTHALLI, MARRIAGE CERTIFICATE AGENTS IN MARATHALLI",12.9593258,77.7018879,Office,"Marathahalli, Bengaluru",1.434399102302378,1.3837813667438763,,,667,11
602,11857,BWSSB AE office,12.9473227,77.6982627,Office,"Marathahalli, Bengaluru",0.2478014925272442,2.099018859370107,,,882,15
603,11858,Jio office,12.9568624,77.7004165,Office,"Marathahalli, Bengaluru",1.1512870639651653,1.531415169645104,,,491,8
604,11859,Featherlite Living,12.9503715,77.6998173,Office,"Marathahalli, Bengaluru",0.4340091326950641,1.7839945103237889,,,579,10
605,11860,Mani Enterprises,12.9586335,77.6975733,Office,"Marathahalli, Bengaluru",1.382374117728758,1.8412873986630809,,,654,11
606,11861,Spinny (Bangalore Office),12.9580298,77.7009518,Office,"Marathahalli, Bengaluru",1.2825317899845992,1.4722699920348719,,,743,12
607,11862,Office TechGlobal,12.9563329,77.6950248,Office,"Marathahalli, Bengaluru",1.237560186342289,2.1181314757835463,,,582,10
608,11863,Blue Dart DHL,12.9592316,77.7009952,Office,"Marathahalli, Bengaluru",1.416239762563568,1.478267158557009,,,765,13
609,11864,Krishna Summit Office Space,12.958599,77.701171,Office,"Marathahalli, Bengaluru",1.347037389680902,1.4521418272752453,,,934,16
610,11865,Ashwini Travel Link,12.959172,77.697419,Office,"Marathahalli, Bengaluru",1.4444703292044543,1.8627415645283345,,,668,11
611,11866,Kent office,12.9570821,77.7024758,Office,"Marathahalli, Bengaluru",1.1972157307092464,1.3073645477989781,,,725,12
612,11867,I2 Imperial India Consultancy,12.9559957,77.6943271,Office,"Marathahalli, Bengaluru",1.2428587410896643,2.1962544811083147,,,592,10
613,11868,MSR Properties,12.9515877,77.7017643,Office,"Marathahalli, Bengaluru",0.5840323487500898,1.5349800485018663,,,598,10
614,11869,Corporator Ward Office Marathahalli,12.9571382,77.7008262,Office,"Marathahalli, Bengaluru",1.1828904380549545,1.485771103967156,,,629,10
615,11870,New office,12.957309,77.702245,Office,"Marathahalli, Bengaluru",1.2176269286440313,1.3315644635011654,,,726,12
616,11872,NANDAJYOTHICHITS INDIA PVT LTD,12.955805,77.692797,Office,"Marathahalli, Bengaluru",1.321299536028206,2.3632390288849217,,,632,11
617,11873,Oracle HCM Training,12.95942,77.7009817,Office,"Marathahalli, Bengaluru",1.4371010000175626,1.4824795393001073,,,776,13
618,11874,Electoral Id Registration Office,12.9545393,77.7004503,Office,"Marathahalli, Bengaluru",0.8929893973073942,1.562511320973353,,,895,15
619,11875,my Priority office Marathahalli,12.9521013,77.7001841,Office,"Marathahalli, Bengaluru",0.6222783679030941,1.6692903427434906,,,554,9
620,11876,Enable Communication,12.95849,77.700857,Office,"Marathahalli, Bengaluru",1.3332202244953884,1.4851808580130534,,,756,13
621,11877,Vijay Kumar Chourasia %26 Co( Head Office),12.9591011,77.7009773,Office,"Marathahalli, Bengaluru",1.40165525087792,1.4784508589102878,,,763,13
622,11878,Lawyer Office,12.9499483,77.7051396,Office,"Marathahalli, Bengaluru",0.6411334957983769,1.324290539344896,,,686,11
623,11879,E- Stamp Munnekolala,12.9514904,77.7019242,Office,"Marathahalli, Bengaluru",0.5783136273279333,1.5241507462325559,,,604,10
624,11880,Clarivate Analytics,12.9524815,77.6994359,Office,"Marathahalli, Bengaluru",0.672171641917223,1.7307684342807403,,,879,15
625,11881,BESCOM office meter name transfer,12.95809,77.7020324,Office,"Marathahalli, Bengaluru",1.300007713557406,1.3555179422743973,,,705,12
626,11882,Bhagini Hospitality Corporate office,12.9518858,77.7004112,Office,"Marathahalli, Bengaluru",0.5979142712324197,1.655396958131254,,,562,9
627,11883,Infoskaters Technologies Pvt Ltd,12.9569472,77.7015352,Office,"Marathahalli, Bengaluru",1.1673130892767944,1.4098675911868541,,,639,11
628,11884,Wood Mart,12.9512754,77.6999998,Office,"Marathahalli, Bengaluru",0.5317325963041865,1.7231239806308822,,,563,9
629,11885,Orange tour and travels marathahalli office,12.9581212,77.7016266,Office,"Marathahalli, Bengaluru",1.2981759609193768,1.3996006443056304,,,692,12
630,11886,E-Stamp Vishwabharathi,12.9567257,77.6945336,Office,"Marathahalli, Bengaluru",1.3013970502222578,2.1689193919840224,,,707,12
631,11887,Income tax return filing and Compliance,12.9559666,77.6999467,Office,"Marathahalli, Bengaluru",1.0527785671818086,1.5903302844820124,,,660,11
632,11888,NOVEL MSR GROUPS,12.9568048,77.6998387,Office,"Marathahalli, Bengaluru",1.1464443168316039,1.5942775056493845,,,501,8
633,11889,"Ramesh N (Corporator, Marathahalli, Ward No:86)",12.9554689,77.7003866,Office,"Marathahalli, Bengaluru",0.9963336267273805,1.550341855449414,,,639,11
634,11890,Easy2seva,12.9566294,77.7046823,Office,"Marathahalli, Bengaluru",1.217657329862067,1.0722479428908287,,,430,7
635,11891,Soul Space Paradigm,12.9510554,77.6992808,Office,"Marathahalli, Bengaluru",0.5197004878933815,1.8042824465145393,,,856,14
636,11892,Rigel Spaces and Travel LLP,12.967068,77.702911,Office,"Marathahalli, Bengaluru",2.302343804017082,1.6433586030198517,,,597,10
637,11893,NAMO ARMY MAIN OFFICE,12.9533091,77.692798,Office,"Marathahalli, Bengaluru",1.117547372738372,2.402166561568613,,,701,12
638,11894,Congress office,12.9566294,77.7046823,Office,"Marathahalli, Bengaluru",1.217657329862067,1.0722479428908287,,,430,7
639,11895,Chaayos Regional Office - South,12.9520274,77.7008392,Office,"Marathahalli, Bengaluru",0.6155717735064207,1.606521552947685,,,573,10
640,11896,Bescom S7 Subdivision Office,12.9580529,77.7019315,Office,"Marathahalli, Bengaluru",1.2944661467904928,1.366273704405688,,,702,12
641,11897,H.A.L.Ancillary Industrial Estate,12.9536392,77.695126,Office,"Marathahalli, Bengaluru",0.9768475296614207,2.147652595757963,,,734,12
642,11898,Kumar R Gowda,12.9566294,77.7046823,Office,"Marathahalli, Bengaluru",1.217657329862067,1.0722479428908287,,,430,7
643,11899,Chamunda Computer %26 Stationery,12.9558259,77.6976914,Office,"Marathahalli, Bengaluru",1.0765518194016217,1.834975690413555,,,569,9
644,11900,SHIVA XEROX Rental%2FLEASE Agreements for House,12.9580812,77.7017945,Office,"Marathahalli, Bengaluru",1.2957608513562702,1.3812340099183678,,,698,12
645,11901,MS Office Training centre at Marathahalli,12.9570861,77.7018721,Office,"Marathahalli, Bengaluru",1.187053703759689,1.3727125641494287,,,717,12
646,11902,M.N motor craft,12.951994,77.699721,Office,"Marathahalli, Bengaluru",0.6142524233636703,1.7203875034675995,,,857,14
647,11903,Digital Suvidha Center,12.9587847,77.6999044,Office,"Marathahalli, Bengaluru",1.3660537118552434,1.5906246392712227,,,711,12
648,11904,ACS Group of Company,12.953783,77.7047311,Office,"Marathahalli, Bengaluru",0.9356486241183888,1.1423014973886996,,,528,9
649,11905,Bike transport,12.9562336,77.6982975,Office,"Marathahalli, Bengaluru",1.1049134899367992,1.7652834116211427,,,544,9
650,11906,Zenith Square,12.9628154,77.7014481,Office,"Marathahalli, Bengaluru",1.8168406440501985,1.5328893364930067,,,742,12
651,11907,Xerox and rental agreement center,12.9592848,77.7009084,Office,"Marathahalli, Bengaluru",1.4217472984896284,1.4883459413262117,,,778,13
652,11908,Innerwork Solutions Pvt Ltd,12.9585974,77.7019167,Office,"Marathahalli, Bengaluru",1.3543323008666603,1.371586404774888,,,693,12
653,11909,BTF PARTY OFFICE,12.9528172,77.6981116,Office,"Marathahalli, Bengaluru",0.7437098382942563,1.8560070939177105,,,647,11
654,11910,Mindmap consulting,12.957123,77.701941,Office,"Marathahalli, Bengaluru",1.1921480755366978,1.3650964152674787,,,718,12
655,11911,BMTC Bus Pass Issue Counter,12.9569828,77.7022487,Office,"Marathahalli, Bengaluru",1.181935457294966,1.3324488309607248,,,722,12
656,11912,Alpha Enterprises,12.9569472,77.7015352,Office,"Marathahalli, Bengaluru",1.1673130892767944,1.4098675911868541,,,639,11
657,11914,Aqua Solution Engineers Private Limited,12.9537426,77.7035363,Office,"Marathahalli, Bengaluru",0.8735979879396264,1.2650629721933215,,,564,9
658,11915,SLV MAN POWER SOLUTIONS,12.9567998,77.6984426,Office,"Marathahalli, Bengaluru",1.1636458323710752,1.7453945047408925,,,523,9
659,11916,Coworking Nomads Coworking Space in Bangalore,12.9580524,77.7020737,Office,"Marathahalli, Bengaluru",1.2964879715045041,1.3508742414570805,,,707,12
660,11918,bajaj capital ltd,12.9577533,77.7008575,Office,"Marathahalli, Bengaluru",1.2513675340774466,1.4817416668233212,,,737,12
661,11919,VRL Travels,12.959817,77.701985,Office,"Marathahalli, Bengaluru",1.4898637005851025,1.3821863868025694,,,679,11
662,11920,RAMESHA NAIK S,12.9577205,77.6973949,Office,"Marathahalli, Bengaluru",1.2882936406353107,1.8568968520676883,,,621,10
663,11921,Zeta-byte solutions,12.9567368,77.7010792,Office,"Marathahalli, Bengaluru",1.1397577821820655,1.4605217423784569,,,675,11
664,11922,Abstream Technologies,12.9567685,77.6982913,Office,"Marathahalli, Bengaluru",1.1633194054163813,1.761943113026175,,,525,9
665,11923,"KV Jagannath Reddy, Notary Public %26 Advocate",12.9538203,77.6964154,Office,"Marathahalli, Bengaluru",0.9201296309515565,2.0067716004644107,,,694,12
666,11924,Muse Hub Co-working space,12.9579879,77.7010511,Office,"Marathahalli, Bengaluru",1.2784345736701777,1.4613605841396806,,,742,12
667,11925,Samson Visio,12.9564422,77.702574,Office,"Marathahalli, Bengaluru",1.1296001355060683,1.301653846804594,,,471,8
668,11926,Inspire Work,12.9709722,77.6995132,Office,"Marathahalli, Bengaluru",2.7218881036035136,2.206525158415508,,,682,11
669,11927,Fly Pack And Move Head office Dropped Pin,12.9578897,77.7009311,Office,"Marathahalli, Bengaluru",1.2668655037333114,1.4740542347053178,,,740,12
670,11928,namo army head office,12.9559092,77.6944757,Office,"Marathahalli, Bengaluru",1.2262103863514797,2.180996935634432,,,605,10
671,11929,Office Of Back Office Associate,12.9587651,77.6973404,Office,"Marathahalli, Bengaluru",1.4023842763609844,1.8674575852876398,,,662,11
672,11930,DTDC,12.9485986,77.7048255,Office,"Marathahalli, Bengaluru",0.5337645140642622,1.449514063401818,,,823,14
673,11931,Vemuri Espousal Pvt Ltd,12.9576697,77.7007162,Office,"Marathahalli, Bengaluru",1.241550792274587,1.4969545588093642,,,644,11
674,11933,V S trans port,12.9596652,77.7027178,Office,"Marathahalli, Bengaluru",1.4845051643775684,1.3010371218222787,,,736,12
675,11934,Makonis Software Solutions Pvt Ltd,12.9580833,77.7016932,Office,"Marathahalli, Bengaluru",1.2947507011221655,1.3922115579861787,,,694,12
676,11935,R.D. Rubber Stamp Maker and office files Rebinding,12.956479,77.6975753,Office,"Marathahalli, Bengaluru",1.1498843799411744,1.8412779920425824,,,553,9
677,11936,Coworkyard Marathahalli 1,12.9580202,77.7018343,Office,"Marathahalli, Bengaluru",1.289540933208129,1.3766616409272976,,,699,12
678,11938,Greenvironment Innovation %26 Marketing India (P) Ltd,12.956646,77.6998929,Office,"Marathahalli, Bengaluru",1.128514653243821,1.5894567714346066,,,499,8
679,11939,AERODESIGN SOLUTIONS Private Limited,12.9574614,77.7025614,Office,"Marathahalli, Bengaluru",1.2403851974094318,1.2970176969452034,,,734,12
680,11940,Astrosat Technologies,12.9548492,77.6981399,Office,"Marathahalli, Bengaluru",0.9589817861232162,1.8016837095921532,,,589,10
681,11941,Zasha Advertising,12.9562265,77.6951473,Office,"Marathahalli, Bengaluru",1.2208941815554692,2.1056918344432973,,,580,10
682,11943,"ViaCoWorks.com- Co working, Office Space, Private Cabins, Virtual Office %26 More",12.9584823,77.7056738,Office,"Marathahalli, Bengaluru",1.449252786751494,0.9650350168941992,,,820,14
683,11944,Sharekhan,12.9564808,77.6956028,Office,"Marathahalli, Bengaluru",1.224266144181383,2.0545977760362044,,,712,12
684,11945,Sharanya Narayani International School - City Office,12.956924,77.7007577,Office,"Marathahalli, Bengaluru",1.158813697781464,1.4941463348551434,,,485,8
685,11946,HRM Visas,12.9571063,77.7009705,Office,"Marathahalli, Bengaluru",1.1800743990556457,1.4702626848600344,,,723,12
686,11947,Chourasia Constructions and Ifrastructure India Pvt Ltd.,12.9586522,77.7008707,Office,"Marathahalli, Bengaluru",1.3512995707810254,1.4850518844993483,,,770,13
687,11948,NN Creations,12.9552906,77.69696,Office,"Marathahalli, Bengaluru",1.0449087835729396,1.9207543606813624,,,610,10
688,11949,Airtel Store,12.9615456,77.7013211,Office,"Marathahalli, Bengaluru",1.6750654362697277,1.4980638765691148,,,758,13
689,11950,S.S.R WEIGHING SOLUTIONS PVT LTD,12.9553698,77.7050554,Office,"Marathahalli, Bengaluru",1.1073843927616973,1.0554530500204078,,,540,9
690,11951,SCALENEWORKS MANAGED SOLUTIONS PVT. LTD,12.9608499,77.7012094,Office,"Marathahalli, Bengaluru",1.5971363076510119,1.4888207932337387,,,798,13
691,11952,fratitude,12.9600165,77.6999631,Office,"Marathahalli, Bengaluru",1.5027209981517933,1.6017845686070604,,,838,14
692,11953,Level Up Trainings Pvt Ltd,12.9594127,77.6976336,Office,"Marathahalli, Bengaluru",1.4656551893207332,1.8423781552192906,,,670,11
693,11954,Jayanna Office,12.9567601,77.6975254,Office,"Marathahalli, Bengaluru",1.181459550606246,1.8448828907963073,,,537,9
694,11955,HP World,12.9627209,77.7019828,Office,"Marathahalli, Bengaluru",1.8109505027051436,1.4753596735173244,,,601,10
695,11956,SSR Dhanvi Castle,12.9608524,77.7042332,Office,"Marathahalli, Bengaluru",1.6483924639213643,1.1739701720185518,,,409,7
696,11957,Chourasia Interior Pvt Ltd,12.9574125,77.7017734,Office,"Marathahalli, Bengaluru",1.2216671903119543,1.3824631263477336,,,712,12
697,11958,Cognicel Consultancy Services Pvt Ltd,12.9600551,77.7022862,Office,"Marathahalli, Bengaluru",1.520227546599152,1.3552468372678312,,,697,12
698,11959,digital prints in marathahalli,12.955962,77.7054981,Office,"Marathahalli, Bengaluru",1.1879381443318038,0.9949311443408845,,,555,9
699,11960,M.S.R. Technologies,12.9545315,77.7001434,Office,"Marathahalli, Bengaluru",0.8925037813653887,1.5951852397295971,,,896,15
700,11961,All Ameen pvt ltd,12.956924,77.701127,Office,"Marathahalli, Bengaluru",1.1608739437170166,1.4541751329640646,,,479,8
701,11962,Marriage Registration certificate in Marathalli And Love Marriages and Wedding Planners,12.9602808,77.7144896,Office,"Marathahalli, Bengaluru",2.163151867511614,0.30145941340829724,,,127,2
702,11963,ISRO Satellite Integration and Test Establishment (ISITE),12.9643399,77.6959244,Office,"Marathahalli, Bengaluru",2.0409780071999815,2.1520945737331814,,,808,13
703,11964,Reliance Digital,12.9502139,77.6989321,Office,"Marathahalli, Bengaluru",0.4413089571168928,1.8777848461736109,,,840,14
704,11965,CDEF INFRA PVT LTD,12.9592317,77.6996329,Office,"Marathahalli, Bengaluru",1.417123764969374,1.62483891855107,,,821,14
705,11966,LC Adroit Vantage,12.9565797,77.6999355,Office,"Marathahalli, Bengaluru",1.120937998256537,1.5853453680112675,,,514,9
706,11967,Sk Enterprises printer service center,12.9589649,77.7016886,Office,"Marathahalli, Bengaluru",1.392187153546342,1.4001547639404182,,,674,11
707,11968,JioHomeJob.Com Solution Pvt. Ltd.,12.9635954,77.7093468,Office,"Marathahalli, Bengaluru",2.1334554678784303,0.8742763703714019,,,257,4
708,11969,KMF Dairy,12.9551988,77.7037447,Office,"Marathahalli, Bengaluru",1.0323701705988784,1.1981122452484239,,,484,8
709,11970,"Asomkriti, Assamese Mekhela Chadar, Handloom And Handicraft Product",12.9592379,77.7015842,Office,"Marathahalli, Bengaluru",1.4213180169517061,1.415055780066557,,,661,11
710,11971,Laptop Store,12.9564417,77.6962491,Office,"Marathahalli, Bengaluru",1.1922343627335945,1.9849584902937074,,,563,9
711,11972,pan center,12.9572013,77.7008044,Office,"Marathahalli, Bengaluru",1.1898100959455533,1.487922157580078,,,629,10
712,11973,COMPUTER SALES %26 SERVICE %7C Second-hand Laptops - Buyers %26 Sellers,12.9568563,77.6988208,Office,"Marathahalli, Bengaluru",1.163124805823112,1.7041575473707895,,,529,9
713,11974,Mk Computer Services,12.9560368,77.6942188,Office,"Marathahalli, Bengaluru",1.252965890153022,2.2075953457900437,,,594,10
714,11975,Xcelpros Technologies Pvt Ltd,12.9613344,77.7017895,Office,"Marathahalli, Bengaluru",1.6554959466687915,1.4426568110997917,,,625,10
715,11976,DTDC Courier,12.9617608,77.7018339,Office,"Marathahalli, Bengaluru",1.7031509338673811,1.4525614235352384,,,617,10
716,11977,ESN World,12.9544136,77.7001708,Office,"Marathahalli, Bengaluru",0.8793141976241284,1.5951171404621032,,,896,15
717,11979,"Scon Interiors - Best Interior design companies in bangalore marathahalli , Modular kitchen design companies, Commercial interior companies, Interior Designers, Office Interiors in bangalore marathahalli",12.9567305,77.701905,Office,"Marathahalli, Bengaluru",1.1483919380823862,1.3712743935846847,,,467,8
718,11980,Biscom Office,12.9485466,77.7084158,Office,"Marathahalli, Bengaluru",0.8986347375718439,1.202382792153753,,,733,12
719,11981,Pepe Jeans Innerfashion Private Limited,12.9567001,77.6998607,Office,"Marathahalli, Bengaluru",1.1346949332269016,1.592561939285227,,,499,8
720,11982,Sunil Enterprises,12.9568021,77.7004007,Office,"Marathahalli, Bengaluru",1.1445792232002068,1.533483975385671,,,504,8
721,11983,New Punjab Handloom Furnishing and Furniture - An authorised Sleepwell showroom,12.9564002,77.6961013,Office,"Marathahalli, Bengaluru",1.1941046749492825,2.0012377118250417,,,565,9
722,11984,Muthoot Finance Ltd,12.9580949,77.7016257,Office,"Marathahalli, Bengaluru",1.2952570789214228,1.3995731446481683,,,692,12
723,11985,DTDC COURIER %26 CARGO LTD,12.956243,77.6951527,Office,"Marathahalli, Bengaluru",1.2222464168337899,2.1049786680400113,,,580,10
724,11986,Big Basket Head Office,12.9745018,77.7068307,Office,"Marathahalli, Bengaluru",3.1899517847622794,2.0593039215685454,,,497,8
725,11987,Apoorva Computers,12.953545,77.697983,Office,"Marathahalli, Bengaluru",0.8247857013302318,1.8481195350763246,,,625,10
726,11988,Forever Cyber Cafe,12.9546041,77.6980218,Office,"Marathahalli, Bengaluru",0.9360799866411403,1.819045106632655,,,594,10
727,11989,The Professional Couriers,12.9563512,77.697932,Office,"Marathahalli, Bengaluru",1.1264230437739602,1.8037228809565276,,,542,9
728,11990,UDAY CLINIC %26 LABS,12.9532045,77.7023353,Office,"Marathahalli, Bengaluru",0.7737715811991904,1.4078095198397402,,,615,10
729,11991,Meru Cabs,12.9607538,77.7011462,Office,"Marathahalli, Bengaluru",1.5860990954389422,1.492891819126085,,,797,13
730,11992,"SLV PLUMBING%26ELECTRICAL services ,",12.955541,77.701093,Office,"Marathahalli, Bengaluru",1.0072247124457916,1.4734636836487518,,,513,9
731,11994,National Insurance Co Ltd,12.9609569,77.7011671,Office,"Marathahalli, Bengaluru",1.6087699389302899,1.496215379061194,,,800,13
732,11995,CoHyre.com,12.9618022,77.701341,Office,"Marathahalli, Bengaluru",1.7036761946882635,1.504681209356275,,,752,13
733,11996,Accenture,12.9493103,77.7004897,Office,"Marathahalli, Bengaluru",0.3117097347053802,1.7772000754717012,,,695,12
734,11997,"Ezi Drive - Driver %26 Cab Hire Services in Bangalore (Outstation, Office Pick and Drop)",12.959433,77.70075,Office,"Marathahalli, Bengaluru",1.4376473499167748,1.5075463507470137,,,784,13
735,11998,The Tented Hideout LLP,12.9504064,77.7000235,Office,"Marathahalli, Bengaluru",0.43523775365470074,1.762295919894774,,,661,11
736,11999,IGS Consultancy,12.961695,77.701334,Office,"Marathahalli, Bengaluru",1.6917320299979672,1.5017183768164273,,,755,13
737,12000,VENTUREWORX,12.9627297,77.7019678,Office,"Marathahalli, Bengaluru",1.811770585803866,1.4772375035801253,,,602,10
738,12001,Tekspot Solutions,12.9580958,77.7018725,Office,"Marathahalli, Bengaluru",1.298390880170793,1.372856998492671,,,700,12
739,12002,"VISA ARCHITECTS (Best Immigration Lawyers %2FCanada PR Specialist in Marathalli, Bangalore)",12.9580631,77.7008695,Office,"Marathahalli, Bengaluru",1.285840186691695,1.481315302118467,,,743,12
740,12003,Speed Cargo Packers And Movers,12.957108,77.7011562,Office,"Marathahalli, Bengaluru",1.1815041335908347,1.4501453721261577,,,671,11
741,12004,"Unimoni Financial Services, Marathahalli Bengaluru ( UAE Exchange)",12.9571273,77.7008251,Office,"Marathahalli, Bengaluru",1.1816746272670637,1.4859299326946824,,,629,10
742,12005,Wood-On Furniture,12.956924,77.7007586,Office,"Marathahalli, Bengaluru",1.1588170431599436,1.4940489202216167,,,485,8
743,12006,Harich services private limited,12.956924,77.701127,Office,"Marathahalli, Bengaluru",1.1608739437170166,1.4541751329640646,,,479,8
744,12008,Drivekool Driving School %26 RTO Services Head Office Marathahalli,12.9564411,77.709502,Office,"Marathahalli, Bengaluru",1.4813906935362418,0.5591268519184068,,,609,10
745,12010,Esteem World,12.956042,77.7091268,Office,"Marathahalli, Bengaluru",1.4212081913256842,0.6096660592638947,,,380,6
746,12011,Salarpuria Sattva Supreme,12.952544,77.6995265,Office,"Marathahalli, Bengaluru",0.6776116589480868,1.7192211652212226,,,877,15
747,12012,iSignal Research Labs,12.956243,77.7027502,Office,"Marathahalli, Bengaluru",1.1121834899914393,1.2850054988839443,,,480,8
748,12013,Global IAS Academy - Marathahalli,12.9572149,77.6999554,Office,"Marathahalli, Bengaluru",1.1914170993696405,1.5798515068458505,,,627,10
749,12014,HP Gas Agency: Murali Enterprises,12.9594954,77.700457,Office,"Marathahalli, Bengaluru",1.4440780083772389,1.5399508982643138,,,800,13
750,12015,ROCKSTAR INFRASTRUCTURES,12.9587672,77.7024522,Office,"Marathahalli, Bengaluru",1.3812616918839749,1.3155441824315284,,,701,12
751,12016,InCubes Co-working Offices,12.9639134,77.7129591,Office,"Marathahalli, Bengaluru",2.3664819742998078,0.7256049101709661,,,172,3
752,12017,Marathahalli Market,12.9564655,77.6941986,Office,"Marathahalli, Bengaluru",1.294657427250327,2.2066100803653583,,,710,12
753,12018,Marathahalli Bridge Bus Stop,12.9567883,77.7013729,Office,"Marathahalli, Bengaluru",1.1479826406290752,1.4284007566415244,,,477,8
754,12019,Cad Training Institute Marathahalli Bangalore AutoCAD Catia Solidworks Creo Ansys 3dsmax Revit Sketchup Vray Lumion Enscape Training Institutes In Marathahalli Bangalore Caddesk CADD Training Center Marathahalli,12.9581605,77.700925,Office,"Marathahalli, Bengaluru",1.2969161211752742,1.4757471789892438,,,745,12
755,12020,SeaBird Travels Pick Up Point,12.9608677,77.7012202,Office,"Marathahalli, Bengaluru",1.599177838624235,1.4881725675598123,,,799,13
756,12022,NICE COMMUNICATION,12.9567547,77.6984416,Office,"Marathahalli, Bengaluru",1.1587343244749555,1.7457561354608788,,,523,9
757,12023,Archana Computers %26 Laptops,12.9571241,77.7030497,Office,"Marathahalli, Bengaluru",1.215027869012835,1.2450359981855759,,,762,13
758,12024,Bangalore Training Institute,12.9530889,77.7029675,Office,"Marathahalli, Bengaluru",0.7831378087295456,1.3484075867127867,,,595,10
759,12025,Sikhiya Institute,12.9565681,77.6979481,Office,"Marathahalli, Bengaluru",1.1494674859500706,1.800329124984853,,,535,9
760,12026,SBI Marathahalli Branch,12.9572092,77.7007165,Office,"Marathahalli, Bengaluru",1.1903678931765713,1.497419919547844,,,627,10
761,12027,OYO 581 Serene Grove,12.959227,77.7009954,Office,"Marathahalli, Bengaluru",1.4157298136205432,1.478181825792846,,,765,13
762,12028,"Quick Ride - Carpool, Taxi %26 Bikepool",12.9614831,77.701307,Office,"Marathahalli, Bengaluru",1.6680367910138916,1.4974899123760386,,,760,13
763,12029,Sys-Link Technologies,12.9568684,77.7004197,Office,"Marathahalli, Bengaluru",1.1519551051999453,1.531034704247217,,,491,8
764,12030,Hi Win Computers,12.9580467,77.7009532,Office,"Marathahalli, Bengaluru",1.284416064346427,1.472184788168755,,,743,12
765,12031,Dotbypixel Design school,12.9568356,77.6994862,Office,"Marathahalli, Bengaluru",1.1524855023487437,1.6322475564909897,,,518,9
766,12032,Sumadhura Infracon Private Limited,12.9515894,77.7019584,Office,"Marathahalli, Bengaluru",0.5899227088957785,1.5159685830892504,,,604,10
767,12034,Nokia Mobile Service CENTER (Marathahalli BANGALORE),12.9534764,77.6998648,Office,"Marathahalli, Bengaluru",0.7768756483178897,1.6530921824845162,,,882,15
768,12035,HDFC Home Loans - BENGALURU (MARATHAHALLI),12.9661358,77.701907,Office,"Marathahalli, Bengaluru",2.1886116920853524,1.66680058732566,,,656,11
769,12038,Apple iPhone Service Center,12.9544595,77.7002608,Office,"Marathahalli, Bengaluru",0.884206365036667,1.5844827483469122,,,896,15
770,12039,Orange Travels cargo office,12.956924,77.701127,Office,"Marathahalli, Bengaluru",1.1608739437170166,1.4541751329640646,,,479,8
771,12040,RIA Institute of Technology - Marathahalli,12.959399,77.7010284,Office,"Marathahalli, Bengaluru",1.4350027740289204,1.4771448498656354,,,768,13
772,12041,Prestige Technostar,12.9740875,77.7108374,Office,"Marathahalli, Bengaluru",3.2688765114154275,1.8797451023336997,,,414,7
773,12043,SMEClabs,12.9616227,77.7018241,Office,"Marathahalli, Bengaluru",1.6877622801109433,1.4487177089745138,,,619,10
774,12047,Blossom Physiotherapy Clinic,12.957867,77.702136,Office,"Marathahalli, Bengaluru",1.2770625471996966,1.3434642635447858,,,719,12
775,12050,COEPD,12.9618166,77.7013477,Office,"Marathahalli, Bengaluru",1.7053184516486175,1.5044933675398204,,,752,13
776,12053,RentSher,12.9618582,77.7012883,Office,"Marathahalli, Bengaluru",1.7095575896237063,1.512058434648342,,,751,13
777,12054,Capital O 1324 Royal Inchara,12.970618,77.70088,PG,"Marathahalli, Bengaluru",2.6813617811867956,2.0719181040783843,,,678,11
778,12055,OYO Flagship 9018 The Residency,12.956717,77.700245,PG,"Marathahalli, Bengaluru",1.1352268586714045,1.5508805477585406,,,508,8
779,12056,Suyash PG,12.9520119,77.6974223,PG,"Marathahalli, Bengaluru",0.6913628309980963,1.9541781640808369,,,692,12
780,12057,LOTUS PG FOR GENTS,12.9544457,77.693669,PG,"Marathahalli, Bengaluru",1.1443739276900435,2.2871272344611624,,,648,11
781,12058,Akshara Girls Pg,12.9565571,77.7017454,PG,"Marathahalli, Bengaluru",1.1269296210609405,1.3899594975575613,,,484,8
782,12059,Sri Srinivasa Paying Guest For Men,12.9553917,77.6990218,PG,"Marathahalli, Bengaluru",0.9988368638680122,1.6978981963082667,,,597,10
783,12060,Neha PG For Ladies,12.9522003,77.7012648,PG,"Marathahalli, Bengaluru",0.6399202602935753,1.5565542733666347,,,571,10
784,12061,SS Ladies PG,12.949734,77.7041849,PG,"Marathahalli, Bengaluru",0.5455503995504172,1.4198453232329196,,,699,12
785,12063,Sri Balaji Pg,12.9584096,77.7036529,PG,"Marathahalli, Bengaluru",1.3697112992469418,1.182371849252343,,,757,13
786,12064,Sri Sravya pg For Gents,12.9582545,77.6992342,PG,"Marathahalli, Bengaluru",1.3120842700141617,1.6592531027619681,,,646,11
787,12065,New Vintage Pg For Gents,12.9593615,77.7031472,PG,"Marathahalli, Bengaluru",1.460039943622255,1.2494596259693898,,,741,12
788,12066,Lakshmi Srinivasa Ladies PG,12.9512918,77.6989613,PG,"Marathahalli, Bengaluru",0.5539779564400484,1.8258327350986565,,,865,14
789,12067,Reddy PG,12.952665,77.7043564,PG,"Marathahalli, Bengaluru",0.8082323064128154,1.229996184532913,,,561,9
790,12068,Uma PG,12.9573608,77.7032378,PG,"Marathahalli, Bengaluru",1.2455039223924491,1.2238856246515961,,,775,13
791,12069,SURYA PG FOR GENTS,12.9553943,77.7023163,PG,"Marathahalli, Bengaluru",1.0098186900439943,1.3454561386035215,,,529,9
792,12070,PRLD PG for Gents,12.9557849,77.6960301,PG,"Marathahalli, Bengaluru",1.1345906359180749,2.0145267214785214,,,604,10
793,12071,Maneesh Paying Guest,12.9571854,77.7032901,PG,"Marathahalli, Bengaluru",1.2280549035385122,1.2187480952022502,,,770,13
794,12072,GVS PG FOR GENTS,12.957451,77.7038386,PG,"Marathahalli, Bengaluru",1.2727885238161047,1.1586349807601164,,,793,13
795,12073,7 Hills PG for Men,12.9591079,77.7030031,PG,"Marathahalli, Bengaluru",1.4292747546199995,1.2607446116137595,,,718,12
796,12074,Pg for boys,12.9502831,77.7020503,PG,"Marathahalli, Bengaluru",0.4565808147135951,1.5765234345680517,,,717,12
797,12075,Sri kamakshi pg for ladies,12.9498374,77.6983029,PG,"Marathahalli, Bengaluru",0.4338472667673889,1.9574133320162568,,,829,14
798,12076,Akshaya Pg,12.9546741,77.6982445,PG,"Marathahalli, Bengaluru",0.9372876232006627,1.7939038849377145,,,600,10
799,12077,PRLD Comforts Ladies Pg,12.9540359,77.6993201,PG,"Marathahalli, Bengaluru",0.845003109468593,1.69441192311639,,,646,11
800,12078,Amaravate ladies pg,12.9612358,77.7009069,PG,"Marathahalli, Bengaluru",1.6385371141770035,1.5314802630259943,,,787,13
801,12079,RK Deluxe (PG for Gents),12.9588594,77.7039275,PG,"Marathahalli, Bengaluru",1.425799538397198,1.1578340133226108,,,769,13
802,12080,Maneesh PG Accommodation,12.9586028,77.7004299,PG,"Marathahalli, Bengaluru",1.3448142441741373,1.5322449467495947,,,681,11
803,12081,Om Sai Balaji PG For Gents,12.9482855,77.7043559,PG,"Marathahalli, Bengaluru",0.47288295149134707,1.5104264138868049,,,833,14
804,12082,Sai Ladies PG,12.9515566,77.6978757,PG,"Marathahalli, Bengaluru",0.6240047057075991,1.92463048791461,,,675,11
805,12083,SVP PG,12.95876,77.7017877,PG,"Marathahalli, Bengaluru",1.3706656317840336,1.3871245901967375,,,683,11
806,12084,7 Hills Gents Pg,12.9531621,77.7039309,PG,"Marathahalli, Bengaluru",0.8333503385196243,1.248775806362358,,,564,9
807,12085,Srl PG For Gents,12.9590171,77.7034406,PG,"Marathahalli, Bengaluru",1.4295882252899546,1.2124097964883271,,,734,12
808,12086,Sri Vasavi Pg For Women,12.9544807,77.6979736,PG,"Marathahalli, Bengaluru",0.9243594723961941,1.8267129421588555,,,599,10
809,12087,Sns Pg for Ladies,12.9502212,77.7002364,PG,"Marathahalli, Bengaluru",0.41315643500983346,1.7512616874370248,,,603,10
810,12088,Sri SatyaNarayana Swamy PG - Marathahalli,12.9502593,77.7020476,PG,"Marathahalli, Bengaluru",0.45403360703068135,1.5781360599404983,,,718,12
811,12089,SLV PG for Gents,12.9592753,77.701352,PG,"Marathahalli, Bengaluru",1.4233983288522936,1.4405458712314338,,,649,11
812,12090,SRI VENKATA SAI PG FOR LADIES,12.95769,77.701984,PG,"Marathahalli, Bengaluru",1.2552306581828891,1.3595955216206532,,,714,12
813,12091,sai balaji pg for gents marathahalli,12.9510769,77.7036713,PG,"Marathahalli, Bengaluru",0.6199722957632491,1.38054944243717,,,627,10
814,12092,Ashray PG for Ladies,12.9612951,77.7010266,PG,"Marathahalli, Bengaluru",1.6456187272169098,1.5207635972490372,,,786,13
815,12093,Veera Venkata Ladies Pg,12.9596294,77.7023144,PG,"Marathahalli, Bengaluru",1.4737684802572157,1.3433828597225639,,,685,11
816,12094,Varun PG,12.955623,77.6971493,PG,"Marathahalli, Bengaluru",1.0726374822251283,1.8958455123523335,,,594,10
817,12095,Sri Residential Paying Guest Hostel For Gents,12.9499676,77.6978187,PG,"Marathahalli, Bengaluru",0.475031106861969,1.9985158356862538,,,843,14
818,12096,J.p.comforts Pg,12.9502816,77.7011463,PG,"Marathahalli, Bengaluru",0.4274338560642755,1.6614013414264082,,,703,12
819,12097,Sri Sai Chandana Pg For Ladies,12.9535122,77.6977677,PG,"Marathahalli, Bengaluru",0.8290357409711221,1.8716404946324736,,,642,11
820,12098,Hanuman PG,12.9506727,77.7014719,PG,"Marathahalli, Bengaluru",0.4775969028331149,1.6095193574069702,,,733,12
821,12099,Sri Krishna PG GENTS,12.955768,77.6968041,PG,"Marathahalli, Bengaluru",1.1005346186719842,1.9312729047805886,,,606,10
822,12100,Surya PG For Boys,12.9581392,77.6990785,PG,"Marathahalli, Bengaluru",1.3010594784917346,1.6755748548553837,,,651,11
823,12101,Sri Lakshmi Chaitanya PG,12.9549456,77.6951529,PG,"Marathahalli, Bengaluru",1.096525907166014,2.1199654567659763,,,693,12
824,12102,Shri Shiva PG,12.9522143,77.6964414,PG,"Marathahalli, Bengaluru",0.765332720758648,2.0486363448205553,,,725,12
825,12103,SRI SAI RAM Ganesh PG,12.958634,77.702207,PG,"Marathahalli, Bengaluru",1.3625576248927633,1.3405933112966772,,,698,12
826,12104,Meghana PG,12.9554468,77.6978378,PG,"Marathahalli, Bengaluru",1.031679820630888,1.8241775938723153,,,568,9
827,12105,sravya ladies PG,12.955096,77.699369,PG,"Marathahalli, Bengaluru",0.961274481600981,1.6657820116158955,,,606,10
828,12106,SONAR BANGLA PG,12.9581493,77.7026443,PG,"Marathahalli, Bengaluru",1.3172044025213103,1.2895861418619892,,,728,12
829,12108,Sri Rama Luxury PG for Gents,12.9523924,77.6959787,PG,"Marathahalli, Bengaluru",0.8103669876405079,2.091122657379423,,,741,12
830,12109,VISHNU Luxury PG for Women,12.9485471,77.7035149,PG,"Marathahalli, Bengaluru",0.40737421790465,1.5593058344301929,,,744,12
831,12110,Seshu PG Deluxe,12.9531689,77.6942237,PG,"Marathahalli, Bengaluru",0.9975891305000592,2.254245860553899,,,698,12
832,12111,RISE PG Ladies,12.9573188,77.7021365,PG,"Marathahalli, Bengaluru",1.2168190158900192,1.3432960298771064,,,722,12
833,12112,SRI Lakshmi venkateshwara PG for LADIES,12.9555607,77.6985583,PG,"Marathahalli, Bengaluru",1.0259549302906947,1.7451200896554688,,,586,10
834,12113,Sri Durga Ladies Pg,12.9522681,77.7018594,PG,"Marathahalli, Bengaluru",0.659884294271393,1.4942629838195003,,,585,10
835,12114,New Thirumala Pg for Ladies,12.952199,77.6987601,PG,"Marathahalli, Bengaluru",0.6569663558678602,1.8102567574955288,,,678,11
836,12115,Balaji Comforts PG Accomodation,12.9587315,77.7038681,PG,"Marathahalli, Bengaluru",1.4103729918844903,1.1625560638647274,,,765,13
837,12116,Royal challengers paying guest accommodation,12.9506384,77.7034322,PG,"Marathahalli, Bengaluru",0.5652075148769371,1.428409328564085,,,642,11
838,12117,Aadi PG For Gents,12.9559996,77.697232,PG,"Marathahalli, Bengaluru",1.1094899318057752,1.882596344136963,,,587,10
839,12118,SAI TEJA GENTS PG,12.957698,77.7019245,PG,"Marathahalli, Bengaluru",1.2552421014911581,1.3660518050957557,,,712,12
840,12119,Neha PG New (Gokulam building),12.960105,77.7019945,PG,"Marathahalli, Bengaluru",1.5217937109917283,1.387323901175918,,,688,11
841,12120,Venkat Saanvi Reddy PG For Gents,12.9609863,77.7024592,PG,"Marathahalli, Bengaluru",1.6253621354197383,1.3620720216850108,,,730,12
842,12121,Sai elite PG for Gents Marathahalli,12.9560949,77.6979029,PG,"Marathahalli, Bengaluru",1.0995227904395293,1.80922910766596,,,550,9
843,12122,Sri Anjaneya Pg For Gents,12.9591744,77.7024196,PG,"Marathahalli, Bengaluru",1.4254143518632383,1.3243936506486274,,,694,12
844,12123,Sri Hari PG for Gents,12.9577559,77.7032629,PG,"Marathahalli, Bengaluru",1.2887684159789168,1.2211186142821948,,,782,13
845,12124,Narayana Swamy PG,12.9551073,77.6952696,PG,"Marathahalli, Bengaluru",1.1055452115731481,2.1050253521988704,,,685,11
846,12125,M%26N PG for Gents,12.9591239,77.7039465,PG,"Marathahalli, Bengaluru",1.4546938813414445,1.159806036765425,,,751,13
847,12126,SRI SAI BALAJI GENTS PG,12.955145,77.702622,PG,"Marathahalli, Bengaluru",0.990273654739829,1.3182730752546863,,,523,9
848,12127,Lakshmi Vengamamba PG For Gents,12.9583777,77.7019919,PG,"Marathahalli, Bengaluru",1.3311260133745422,1.3616372867937112,,,696,12
849,12128,Sri Balaji Ladies PG,12.9569472,77.7015352,PG,"Marathahalli, Bengaluru",1.1673130892767944,1.4098675911868541,,,639,11
850,12129,Guru venkata sai (GVS) PG FOR gents in marathahalli bridge,12.9574623,77.7038144,PG,"Marathahalli, Bengaluru",1.2732232403509687,1.1612435469384867,,,781,13
851,12130,Sharavanas pg for ladies,12.9569472,77.7015352,PG,"Marathahalli, Bengaluru",1.1673130892767944,1.4098675911868541,,,639,11
852,12131,NEW SAI PG For Gents,12.9542091,77.6981771,PG,"Marathahalli, Bengaluru",0.8892359109498752,1.8110500181149543,,,611,10
853,12132,K R New Gents PG,12.9595198,77.6996984,PG,"Marathahalli, Bengaluru",1.4487210846375025,1.6217576101520323,,,825,14
854,12133,Swathi Deluxe PG for Ladies,12.9576905,77.7025186,PG,"Marathahalli, Bengaluru",1.2645534652793524,1.3016678115750324,,,730,12
855,12134,SR PRIME PG for ladies,12.9581444,77.7004231,PG,"Marathahalli, Bengaluru",1.2938405056299653,1.5300071538328481,,,656,11
856,12135,Ganga pg,12.9584153,77.7005669,PG,"Marathahalli, Bengaluru",1.324095343977042,1.516006551451787,,,664,11
857,12136,Aishwarya Ladies PG,12.9533548,77.6975181,PG,"Marathahalli, Bengaluru",0.822471322711525,1.902139232055013,,,649,11
858,12137,SLB PG for Gents,12.9593054,77.70022,PG,"Marathahalli, Bengaluru",1.4230545677535482,1.5626388812601224,,,800,13
859,12138,Sri Balaji Comforts Pg For Boys,12.9505455,77.7011759,PG,"Marathahalli, Bengaluru",0.4568563241010908,1.644462229138324,,,690,12
860,12139,Sri thirumala new executive pg for ladies,12.9546257,77.6985075,PG,"Marathahalli, Bengaluru",0.9253730621011738,1.7668638723417507,,,609,10
861,12140,ShivaSai PG For GENT'S,12.9582777,77.6994649,PG,"Marathahalli, Bengaluru",1.3125035813654151,1.6344024618595998,,,647,11
862,12141,M%26M pg for ladies,12.9552836,77.7029331,PG,"Marathahalli, Bengaluru",1.0138613041347548,1.282147178854358,,,518,9
863,12142,PSR PG HOSTEL,12.9532653,77.6942165,PG,"Marathahalli, Bengaluru",1.006091125665647,2.2527050931955075,,,697,12
864,12143,Vengamamba gents PG Marathahalli,12.9531715,77.7034942,PG,"Marathahalli, Bengaluru",0.81360674108825,1.2920386183013246,,,578,10
865,12144,PANDU SLVPG,12.9549934,77.6980926,PG,"Marathahalli, Bengaluru",0.9757929539378783,1.804120547929722,,,589,10
866,12145,Venkataramana PG For Ladies,12.9581986,77.7017186,PG,"Marathahalli, Bengaluru",1.3077957546065675,1.3900468018572731,,,695,12
867,12146,Veerbhadra luxury Pg For Ladies,12.9582022,77.7005555,PG,"Marathahalli, Bengaluru",1.300384677176482,1.5159567095158477,,,658,11
868,12147,Sri Vishnu PG for gents,12.9591922,77.7022192,PG,"Marathahalli, Bengaluru",1.4241876369812025,1.3461786478174749,,,686,11
869,12148,Geethika Ladies Pg,12.9595974,77.7022242,PG,"Marathahalli, Bengaluru",1.4688924988376868,1.3524175979702473,,,682,11
870,12149,2GVS GENTS PG ASWATH NAGAR MARATHAHALLI,12.957795,77.7032574,PG,"Marathahalli, Bengaluru",1.292844613630005,1.2217957290291228,,,782,13
871,12150,Sri Ramanjaneya Ladies PG,12.9522209,77.7015238,PG,"Marathahalli, Bengaluru",0.6469185571390755,1.5297805543270495,,,577,10
872,12151,Lakshmi Narasimha PG Gents,12.9611356,77.7024753,PG,"Marathahalli, Bengaluru",1.642045650411773,1.3651251584780555,,,734,12
873,12152,Zolo Pepper - PG in Marathahalli Bangalore,12.9571713,77.7096945,PG,"Marathahalli, Bengaluru",1.556304144007207,0.5258649732243398,,,686,11
874,12153,Om Sai Balaji Pg For Gents,12.9585563,77.7019694,PG,"Marathahalli, Bengaluru",1.3505077133218943,1.3655210457302251,,,695,12
875,12154,Pramathi Ladies Pg,12.9576987,77.7018041,PG,"Marathahalli, Bengaluru",1.2536591546425733,1.3790988874432768,,,708,12
876,12155,Anaghaa Ladies PG,12.9580987,77.7004952,PG,"Marathahalli, Bengaluru",1.2888034506751689,1.521996376056418,,,655,11
877,12156,Siri Ladies PG,12.9523744,77.7013488,PG,"Marathahalli, Bengaluru",0.6604413478022183,1.540788652143778,,,572,10
878,12157,Sivareddy Mens pg,12.9573873,77.7016273,PG,"Marathahalli, Bengaluru",1.2170423393684418,1.3983317783504134,,,707,12
879,12158,Hari PG,12.9530232,77.7016147,PG,"Marathahalli, Bengaluru",0.7364147938088186,1.4880814146630295,,,638,11
880,12159,Maa ladies PG,12.9551597,77.702476,PG,"Marathahalli, Bengaluru",0.9881221084487399,1.3334341234708404,,,521,9
881,12160,Srinivasa PG for Gents,12.9554651,77.6991035,PG,"Marathahalli, Bengaluru",1.0056418684880748,1.6879845890948928,,,598,10
882,12161,SMS deluxe PG FOR GENTS,12.9504264,77.7013135,PG,"Marathahalli, Bengaluru",0.44694713950517984,1.6377383977397553,,,683,11
883,12162,DRR Sri Sai Pg,12.9511171,77.7033048,PG,"Marathahalli, Bengaluru",0.6018891028392925,1.4122770803153801,,,621,10
884,12163,Sathya Luxury PG For Ladies,12.9600238,77.7023335,PG,"Marathahalli, Bengaluru",1.5174815056722821,1.3495214426291628,,,699,12
885,12164,Poorvika Pg For Ladies,12.9588731,77.7000083,PG,"Marathahalli, Bengaluru",1.3754902650157854,1.5802773256506257,,,707,12
886,12165,Varsha gents pg,12.9578292,77.7036867,PG,"Marathahalli, Bengaluru",1.3084603609539815,1.1753723971819725,,,793,13
887,12166,Nani Luxury PG For Gents,12.950476,77.7049222,PG,"Marathahalli, Bengaluru",0.6600678562269121,1.3062271341105949,,,658,11
888,12167,Anu PG Marathali,12.9481267,77.7027749,PG,"Marathahalli, Bengaluru",0.3147847315090544,1.6508467301410923,,,727,12
889,12168,Kamakshi PG For Boys,12.9534581,77.701388,PG,"Marathahalli, Bengaluru",0.7802536157387507,1.4957239848246078,,,654,11
890,12169,Sithaara Stays ( PG for Ladies),12.9577771,77.7026107,PG,"Marathahalli, Bengaluru",1.2758664403044069,1.2918236058336008,,,734,12
891,12170,Sri Rama Pg For Gents,12.9592771,77.7019797,PG,"Marathahalli, Bengaluru",1.430181872020552,1.3731749361396333,,,676,11
892,12171,SLV Pg,12.9553926,77.7028971,PG,"Marathahalli, Bengaluru",1.0244900792141296,1.283629597336801,,,514,9
893,12172,Venkata Sai Gents Pg,12.961647,77.7021142,PG,"Marathahalli, Bengaluru",1.6936295222056714,1.4197353427310309,,,728,12
894,12173,Ssr inn Gents Pg,12.9542905,77.6983528,PG,"Marathahalli, Bengaluru",0.8930553687276839,1.7905589155739718,,,615,10
895,12174,Amrutham luxury PG for Ladies,12.9518298,77.7039202,PG,"Marathahalli, Bengaluru",0.7045056778153438,1.3150219747553207,,,593,10
896,12175,Metro Homestay PG for Gents,12.9572737,77.7037044,PG,"Marathahalli, Bengaluru",1.2496999873751562,1.1735648178772904,,,790,13
897,12176,Sri Hanuman PG for Gents,12.9534785,77.7021759,PG,"Marathahalli, Bengaluru",0.7987740517452969,1.4139397540473182,,,632,11
898,12177,Sree Nilayam Pg For Gents,12.9577659,77.7031472,PG,"Marathahalli, Bengaluru",1.2868802110748252,1.2336736139055324,,,778,13
899,12178,Hanuman pg near RGS,12.9541323,77.6981791,PG,"Marathahalli, Bengaluru",0.8809569292308574,1.812619897224875,,,611,10
900,12179,Sri Sai Santhan,12.9607311,77.7034378,PG,"Marathahalli, Bengaluru",1.6155540115222158,1.252324283762207,,,785,13
901,12180,MKR New Executive Pg For Gents,12.9537072,77.6978858,PG,"Marathahalli, Bengaluru",0.8452386537498624,1.8540791267101888,,,625,10
902,12181,Sri Manjunatha PG for Ladies,12.9589607,77.7016801,PG,"Marathahalli, Bengaluru",1.391629782919183,1.4010185739991445,,,674,11
903,12182,Sri Siddhi Vinayaka PG,12.9578456,77.7032481,PG,"Marathahalli, Bengaluru",1.2980662935890126,1.2229312321769303,,,781,13
904,12183,PG For Gents,12.9589914,77.6999564,PG,"Marathahalli, Bengaluru",1.3888182052618279,1.5871333495813402,,,717,12
905,12184,Lakshmi Balaji PG for Ladies,12.9581823,77.7004151,PG,"Marathahalli, Bengaluru",1.2980527759384948,1.5310548074050707,,,657,11
906,12185,MAA Pg for GENT'S,12.950479,77.7032971,PG,"Marathahalli, Bengaluru",0.5422737275782686,1.4503165829402103,,,647,11
907,12186,Sri Durga PG for Gents,12.958641,77.7034225,PG,"Marathahalli, Bengaluru",1.3884685989009478,1.2095237555656255,,,765,13
908,12187,Srinivasa PG for ladies,12.9604851,77.7018554,PG,"Marathahalli, Bengaluru",1.5621873347240531,1.4111897208711321,,,698,12
909,12188,PG Gents,12.9502826,77.7032589,PG,"Marathahalli, Bengaluru",0.5221734571776755,1.465752427498396,,,654,11
910,12189,Sai ram pg,12.9587093,77.7038798,PG,"Marathahalli, Bengaluru",1.4083341269230047,1.1610241750374164,,,765,13
911,12190,New sai luxury Pg,12.9580178,77.6995655,PG,"Marathahalli, Bengaluru",1.282883993884691,1.622370698426752,,,638,11
912,12191,Mamatha Luxury PG for Gents,12.9533262,77.6982643,PG,"Marathahalli, Bengaluru",0.7923446705443711,1.8246997270037615,,,633,11
913,12192,Prld New Deluxe Gents Pg,12.9542905,77.6983528,PG,"Marathahalli, Bengaluru",0.8930553687276839,1.7905589155739718,,,615,10
914,12193,7 hills Pg For Boys,12.9601881,77.7033928,PG,"Marathahalli, Bengaluru",1.5554711311693814,1.2414769389423261,,,767,13
915,12194,Raghu's PG,12.958307,77.6996685,PG,"Marathahalli, Bengaluru",1.3142527142902438,1.6125277904583426,,,646,11
916,12195,BABA HOMES PG FOR BOYS,12.9578376,77.702022,PG,"Marathahalli, Bengaluru",1.272054666194297,1.3557384029541397,,,715,12
917,12196,SLN PG For Gents,12.958298,77.703586,PG,"Marathahalli, Bengaluru",1.3558568238779045,1.1886896268218168,,,755,13
918,12197,Prasanna gents pg,12.9509703,77.7034613,PG,"Marathahalli, Bengaluru",0.5973309491863067,1.4061464254911642,,,629,10
919,12198,Samrat PG Fit Gents,12.9504253,77.7020202,PG,"Marathahalli, Bengaluru",0.4699216393238231,1.571268348211077,,,721,12
920,12199,Sri venkateswara PG for gents,12.9553529,77.6968122,PG,"Marathahalli, Bengaluru",1.0571563697770485,1.9357369886348332,,,616,10
921,12200,Sri Sathya Sai pg for gents,12.952304,77.6959783,PG,"Marathahalli, Bengaluru",0.8024779656800411,2.0938922182849513,,,741,12
922,12201,Temple Tree PG Homes for Ladies,12.9569338,77.7031411,PG,"Marathahalli, Bengaluru",1.1969086845729093,1.236170210387504,,,742,12
923,12202,COOL HOMES PG FOR GENTS,12.9580902,77.7018969,PG,"Marathahalli, Bengaluru",1.2981026393127009,1.3701889183154137,,,701,12
924,12203,Zolo Asmi Co-Living %7C Redefining PG,12.954909,77.7106108,PG,"Marathahalli, Bengaluru",1.4487707143748378,0.5176117979414988,,,407,7
925,12205,SRI GURU SATHYADEVA PG FOR GENTS,12.9595796,77.7033947,PG,"Marathahalli, Bengaluru",1.4894169577514977,1.2271732488022862,,,754,13
926,12206,Shri Raghava p g for gents,12.9587066,77.7021549,PG,"Marathahalli, Bengaluru",1.3697471524924019,1.3469503891099341,,,696,12
927,12207,VVGS GENTS PG,12.9576697,77.7027533,PG,"Marathahalli, Bengaluru",1.2671709364555623,1.2762141096008655,,,756,13
928,12208,Venkatadri PG,12.9505565,77.7021373,PG,"Marathahalli, Bengaluru",0.48824912806687243,1.5529559548716656,,,716,12
929,12209,Zolo Mustard - PG in Marathahalli for Gents in Bangalore,12.9589426,77.7084164,PG,"Marathahalli, Bengaluru",1.6333508616902503,0.6798441466970156,,,677,11
930,12210,Cloud nine deluxe girls PG,12.956243,77.7027502,PG,"Marathahalli, Bengaluru",1.1121834899914393,1.2850054988839443,,,480,8
931,12211,Sri Vasavi Luxury PG For Gents,12.9553878,77.6985695,PG,"Marathahalli, Bengaluru",1.006861303361383,1.7464842053874332,,,587,10
932,12212,avasa ladies pg,12.9550738,77.7026495,PG,"Marathahalli, Bengaluru",0.9833353390712906,1.3170021887452363,,,525,9
933,12213,GALAXY PG FOR LADIES,12.9497728,77.7009171,PG,"Marathahalli, Bengaluru",0.3673997160234005,1.7110883785941537,,,629,10
934,12214,Vijaya sai ladies Pg,12.9579954,77.6994245,PG,"Marathahalli, Bengaluru",1.2815579232073662,1.6375690619184904,,,637,11
935,12215,Oxygen PG for Gents,12.9595779,77.6997989,PG,"Marathahalli, Bengaluru",1.4546515329641636,1.6118475125240224,,,822,14
936,12216,Amaravati gents pg,12.9487445,77.7039012,PG,"Marathahalli, Bengaluru",0.4543993378063944,1.5131708723614439,,,742,12
937,12217,Venkatadri Gents PG Munnekolala,12.9504228,77.7045036,PG,"Marathahalli, Bengaluru",0.6229102581008351,1.3461469418123302,,,650,11
938,12218,Nishanth Boys PG Marathahalli,12.958447,77.7029196,PG,"Marathahalli, Bengaluru",1.3554613449985324,1.2619167534642153,,,731,12
939,12219,Home Stay PG for Gents,12.9597282,77.7032864,PG,"Marathahalli, Bengaluru",1.5030522005757692,1.241801397584896,,,758,13
940,12220,Sri lakshmi ladies pg,12.9571487,77.7001355,PG,"Marathahalli, Bengaluru",1.183443807538843,1.5605452068657182,,,620,10
941,12221,Bluebell Pg,12.960942,77.701011,PG,"Marathahalli, Bengaluru",1.6063193986669873,1.5121805881522248,,,814,14
942,12222,Venkatadri PG - Main Campus,12.9508289,77.703631,PG,"Marathahalli, Bengaluru",0.5950000703763748,1.398855106693899,,,634,11
943,12223,GRAND LIVE PG FOR GENTS,12.9622593,77.702443,PG,"Marathahalli, Bengaluru",1.765447613045243,1.4097544299176203,,,644,11
944,12224,Victory PG For Co-Living,12.9585926,77.708891,PG,"Marathahalli, Bengaluru",1.6290585230237806,0.6215509101428385,,,679,11
945,12225,Sri Gokulam PG for Ladies,12.9607173,77.7035511,PG,"Marathahalli, Bengaluru",1.6166078407554865,1.2401111935044584,,,803,13
946,12226,Chennakesava PG For Mens,12.959449,77.6996902,PG,"Marathahalli, Bengaluru",1.4409056975817016,1.621605316541889,,,819,14
947,12227,Dream house pg for ladies,12.9500957,77.7019862,PG,"Marathahalli, Bengaluru",0.434694890775471,1.5932564995854082,,,728,12
948,12228,Sharavana's Ladies PG,12.9556932,77.7017112,PG,"Marathahalli, Bengaluru",1.0312412748489603,1.4046860706597186,,,512,9
949,12229,VBR GENTS PG,12.9594817,77.6998871,PG,"Marathahalli, Bengaluru",1.443571687551274,1.6009274407274707,,,818,14
950,12230,Sankar PG for Gents,12.9541113,77.693868,PG,"Marathahalli, Bengaluru",1.1019924098806417,2.271815164291301,,,666,11
951,12231,Sri Veera Venkata Sai PG,12.9603714,77.7037415,PG,"Marathahalli, Bengaluru",1.5836413974392227,1.2098632281001598,,,789,13
952,12232,SRI KALIKAMBA PG FOR GENTS,12.9601865,77.7020946,PG,"Marathahalli, Bengaluru",1.5320661590949791,1.3785886239762735,,,703,12
953,12233,"MUNDEEP PG ,GENTS",12.9587162,77.7039848,PG,"Marathahalli, Bengaluru",1.4121683914392704,1.149799403147526,,,771,13
954,12234,Shri Shriyan Comforts PG for GENTS,12.9584082,77.7030492,PG,"Marathahalli, Bengaluru",1.3541537478542414,1.247585683307115,,,736,12
955,12235,Sri Laxmi Venkateswara Delux PG (Gents PG),12.9539781,77.6956223,PG,"Marathahalli, Bengaluru",0.9782257827534905,2.0874874297967017,,,720,12
956,12236,Sai Hanuman PG for Gents,12.953678,77.7033554,PG,"Marathahalli, Bengaluru",0.8594714849169355,1.285940212096648,,,573,10
957,12237,Laxmi Sai PG,12.958382,77.7020934,PG,"Marathahalli, Bengaluru",1.3330773561328184,1.350694407262554,,,706,12
958,12238,Vasundhara PG,12.9587847,77.6999044,PG,"Marathahalli, Bengaluru",1.3660537118552434,1.5906246392712227,,,711,12
959,12239,Livinn Apple tree PG campus,12.9589978,77.7031382,PG,"Marathahalli, Bengaluru",1.4202727264949864,1.2446210541927023,,,724,12
960,12240,Shree Sai Ladies PG,12.9519281,77.6965096,PG,"Marathahalli, Bengaluru",0.7349108513076013,2.0510762176923767,,,722,12
961,12241,Raj Pg,12.9574167,77.7025336,PG,"Marathahalli, Bengaluru",1.2349354264221195,1.3000858635386958,,,733,12
962,12242,SS Luxury PG For Gents New Building,12.9505785,77.7012342,PG,"Marathahalli, Bengaluru",0.4616704484958854,1.6371597054477316,,,688,11
963,12243,Sri Rama PG,12.949983,77.702593,PG,"Marathahalli, Bengaluru",0.454063603227071,1.5443484742883382,,,699,12
964,12244,Rajarajeshwari PG for Gents,12.9531926,77.7010858,PG,"Marathahalli, Bengaluru",0.747020449029331,1.536036124427162,,,660,11
965,12245,Meghna pg,12.9493641,77.7016734,PG,"Marathahalli, Bengaluru",0.3465758632404255,1.6654166164447488,,,663,11
966,12246,Anjeeneya PG for gents,12.9586645,77.7037933,PG,"Marathahalli, Bengaluru",1.4010404329489579,1.1698134454317062,,,777,13
967,12247,Biswajit's PG,12.9586971,77.7027262,PG,"Marathahalli, Bengaluru",1.378708963700345,1.2852252107036528,,,715,12
968,12248,Sri Sai pg for ladies,12.9481711,77.7030366,PG,"Marathahalli, Bengaluru",0.34109439112142226,1.6258855991626726,,,768,13
969,12249,Sri vigneswara Pg for gents in marathalli,12.9497899,77.7009264,PG,"Marathahalli, Bengaluru",0.36943510135118385,1.7092564035935052,,,629,10
970,12250,Rest-isle Women%E2%80%99s,12.9529581,77.6957247,PG,"Marathahalli, Bengaluru",0.8775195428359253,2.101365132034448,,,720,12
971,12251,Madhuri PG For Gents,12.9503711,77.7053332,PG,"Marathahalli, Bengaluru",0.686480308935711,1.278283922630883,,,674,11
972,12252,Sri Sadguru Sai Ladies Pg,12.9596761,77.7020707,PG,"Marathahalli, Bengaluru",1.475419728206437,1.3702896597481582,,,678,11
973,12253,Hari pg 2 for gents,12.9530092,77.7016419,PG,"Marathahalli, Bengaluru",0.7354209999568152,1.4858402199862415,,,637,11
974,12254,Sri Lakshmi Venkateswara PG,12.9588939,77.7026147,PG,"Marathahalli, Bengaluru",1.3980934153037894,1.2995468593361041,,,706,12
975,12255,Krishna Reddy boys P.G,12.9516425,77.7051713,PG,"Marathahalli, Bengaluru",0.7708381532380917,1.2095184033717352,,,686,11
976,12256,PS PG mens,12.9506874,77.702878,PG,"Marathahalli, Bengaluru",0.5371394578341476,1.476495394411775,,,716,12
977,12257,Nanda's Ladies Pg For Homes,12.9598015,77.7017124,PG,"Marathahalli, Bengaluru",1.485013589445425,1.4109455608370653,,,677,11
978,12258,Zolo Clove Cinnamon PG,12.9575572,77.70949,PG,"Marathahalli, Bengaluru",1.5752720460931309,0.5461546714717254,,,669,11
979,12259,SRI DURGA GENTS PG,12.9526705,77.7025069,PG,"Marathahalli, Bengaluru",0.7225023667230072,1.4121980098643776,,,626,10
980,12260,Sri Sai Luxury PG for gents,12.956172,77.697431,PG,"Marathahalli, Bengaluru",1.121381340626713,1.8594246272532915,,,548,9
981,12261,Sri Ganesha PG For Gents,12.9588651,77.7084389,PG,"Marathahalli, Bengaluru",1.6273681054558051,0.6755792486040408,,,674,11
982,12262,Venkateshwara PG,12.9585623,77.6997949,PG,"Marathahalli, Bengaluru",1.3418619236287868,1.6005538541386741,,,658,11
983,12263,Zolo Mustang Co-Living %7C Redefining PG,12.9516315,77.7047574,PG,"Marathahalli, Bengaluru",0.7405006326165632,1.2480122888805,,,674,11
984,12264,Zolo Ginger - PG in Marathahalli Bangalore,12.9574606,77.7100467,PG,"Marathahalli, Bengaluru",1.6055554668432497,0.4859791390206237,,,700,12
985,12265,SNS PG %2FSNS paying guest for gents,12.9495245,77.7042449,PG,"Marathahalli, Bengaluru",0.5355809689180264,1.4291831341925842,,,703,12
986,12266,Shri balaji ladies pg,12.9561561,77.6992664,PG,"Marathahalli, Bengaluru",1.079651262984471,1.6614793199520193,,,540,9
987,12267,Vikky's Kerala Gents PG,12.9576567,77.7026389,PG,"Marathahalli, Bengaluru",1.2633066936765172,1.288598853753672,,,735,12
988,12268,SRI LAKSHMI GANESH PG FOR GENTS,12.9483963,77.7041093,PG,"Marathahalli, Bengaluru",0.45430169853638014,1.5217554756973346,,,759,13
989,12269,7 hills Paradise PG For Gents,12.9585644,77.7091668,PG,"Marathahalli, Bengaluru",1.6435829230016294,0.5915998406805355,,,675,11
990,12270,Manish PG For Boys,12.9579875,77.7030235,PG,"Marathahalli, Bengaluru",1.307872026311204,1.2477492362623446,,,772,13
991,12271,Sri Sai PG Nilayam,12.9522062,77.6965496,PG,"Marathahalli, Bengaluru",0.7580842163544846,2.0376839359495857,,,721,12
992,12272,Pg,12.9603624,77.7037341,PG,"Marathahalli, Bengaluru",1.5824835584927173,1.2103810063467495,,,781,13
993,12273,SAI VENKATESHWARA COLIVE %26 PG,12.9595732,77.7082975,PG,"Marathahalli, Bengaluru",1.6865347550358412,0.7111578326789318,,,703,12
994,12274,Sri Nivasam Elite PG for Ladies,12.9555203,77.7004374,PG,"Marathahalli, Bengaluru",1.0020613467825799,1.544045895779208,,,649,11
995,12275,Srivari Gents PG,12.9546172,77.707987,PG,"Marathahalli, Bengaluru",1.2208412570201022,0.781361105319862,,,432,7
996,12276,JS Elite PG Homes for Ladies,12.9578931,77.7004878,PG,"Marathahalli, Bengaluru",1.2659357548174492,1.522087146301429,,,649,11
997,12277,Happy 2 Stay PG for Gents,12.9583349,77.7094112,PG,"Marathahalli, Bengaluru",1.638496516807315,0.5611738995533361,,,680,11
998,12278,Ashray PG For Ladies,12.9509338,77.7002478,PG,"Marathahalli, Bengaluru",0.4922985264582724,1.7146036542591654,,,767,13
999,12279,Sri Balaji Ladies PG,12.9583826,77.7145473,PG,"Marathahalli, Bengaluru",2.023975104943011,0.09037656768969138,,,42,1
1000,12280,Paying Guest Accommation,12.9566294,77.7046823,PG,"Marathahalli, Bengaluru",1.217657329862067,1.0722479428908287,,,430,7
1001,12282,Tamarind PG Hostel,12.9502827,77.7042962,PG,"Marathahalli, Bengaluru",0.5959639128162586,1.3734846649539587,,,654,11
1002,12283,Sri Durga Pg,12.9572328,77.7144502,PG,"Marathahalli, Bengaluru",1.9346957938900247,0.03847923553647414,,,10,1
1003,12284,PG,12.9502139,77.6981023,PG,"Marathahalli, Bengaluru",0.48091581229537095,1.9591184359077056,,,723,12
1004,12285,SLV Pg For gents,12.9641925,77.712591,PG,"Marathahalli, Bengaluru",2.369443618151519,0.7657789537284606,,,186,3
1005,12286,Vinayaka PG,12.9515706,77.7045561,PG,"Marathahalli, Bengaluru",0.7214608321804682,1.2701188861073396,,,657,11
1006,12287,Sree guru sai p g for gents,12.9590034,77.7141041,PG,"Marathahalli, Bengaluru",2.0343238999441806,0.1659344052392202,,,67,1
1007,12288,Executive PG for men,12.9599199,77.7123433,PG,"Marathahalli, Bengaluru",1.9751847753821719,0.35273960685702266,,,115,2
1008,12289,Pratap Boys PG,12.9597094,77.7122765,PG,"Marathahalli, Bengaluru",1.9527915273857923,0.34091628313624717,,,137,2
1009,12290,Studio Rooms for Rent,12.9587013,77.702718,PG,"Marathahalli, Bengaluru",1.379005310527003,1.2861551417211705,,,714,12
1010,12291,Harsha PG,12.9570054,77.7149587,PG,"Marathahalli, Bengaluru",1.9632431485754187,0.07809955012515489,,,72,1
1011,12292,Sri Balaji PG for ladies,12.9644557,77.7152808,PG,"Marathahalli, Bengaluru",2.5662912305477614,0.7699663816333124,,,237,4
1012,12293,Cloud 9 Pg,12.9691697,77.7127207,PG,"Marathahalli, Bengaluru",2.8520872794943037,1.3046451551813447,,,326,5
1013,12294,Colive Lotus park,12.9647874,77.7015315,PG,"Marathahalli, Bengaluru",2.0362566146597887,1.6211314159620145,,,692,12
1014,12299,Stanza Living Stavanger House,12.9581369,77.7093968,PG,"Marathahalli, Bengaluru",1.6199394040058654,0.5598120315351516,,,658,11
1015,12300,Executive PG for Gents,12.9662313,77.7134483,PG,"Marathahalli, Bengaluru",2.6098788217683127,0.9702006450202308,,,255,4
1016,12302,Narayani Homes,12.9542603,77.6964737,PG,"Marathahalli, Bengaluru",0.9608240160728511,1.9909689208252683,,,669,11
1017,12303,Livinn Bengaluru,12.9519504,77.7124026,PG,"Marathahalli, Bengaluru",1.4353988236597557,0.6660416227793101,,,464,8
1018,12304,Livinn Orange PG campus,12.9591174,77.7097652,PG,"Marathahalli, Bengaluru",1.7313412112104727,0.5442443778879213,,,723,12
1019,12305,Rest-isle Suites,12.9529372,77.695715,PG,"Marathahalli, Bengaluru",0.8762288433137773,2.1029526663000815,,,720,12
1020,12306,Bhawana PG Kundalahalli,12.9569209,77.7145735,PG,"Marathahalli, Bengaluru",1.9241701898231052,0.0723304915348965,,,20,1
1021,12308,Zolo Amber PG,12.9510146,77.7150464,PG,"Marathahalli, Bengaluru",1.665292174908811,0.7310730838384942,,,447,7
1022,12311,Zolo Elements PG,12.965503,77.721947,PG,"Marathahalli, Bengaluru",3.1491465496284077,1.1933505507515119,,,352,6
1023,12313,Laxmii venkateshwara PG for gents,12.9531726,77.7151821,PG,"Marathahalli, Bengaluru",1.7658248872202036,0.49404898899352884,,,481,8
1024,12314,Colive Anitha PG,12.9577113,77.7094367,PG,"Marathahalli, Bengaluru",1.5850933778101375,0.5521520201012894,,,664,11
1025,12315,P.S.R Gents PG,12.9789482,77.7130982,PG,"Marathahalli, Bengaluru",3.8609880726195724,2.382208284417106,,,566,9
1026,12317,Marathahalli Bridge Bus Stop,12.9567883,77.7013729,PG,"Marathahalli, Bengaluru",1.1479826406290752,1.4284007566415244,,,477,8
1027,12319,"Spice Garden, Bangalore",12.9577917,77.7093143,PG,"Marathahalli, Bengaluru",1.5839970065155355,0.5657294106789279,,,659,11
1028,12320,Multiplex,12.9516804,77.6996418,PG,"Marathahalli, Bengaluru",0.5807790976055217,1.7412103403984505,,,851,14
1029,12324,HelloWorld Spice,12.9570586,77.7106108,PG,"Marathahalli, Bengaluru",1.6132555748724848,0.4284893313181943,,,724,12
1030,12325,Marathahalli Market,12.9564655,77.6941986,PG,"Marathahalli, Bengaluru",1.294657427250327,2.2066100803653583,,,710,12
1031,12924,Suyash PG,12.9520119,77.6974223,PG,"MG Road, Bengaluru",0.6913628309980963,1.9541781640808369,,,692,12
1032,12929,Apex PG,12.9531808,77.715699,PG,"MG Road, Bengaluru",1.8171934162212877,0.5042295542442295,,,498,8
1033,12950,Zolo Elements PG,12.965503,77.721947,PG,"MG Road, Bengaluru",3.1491465496284077,1.1933505507515119,,,352,6
1034,13562,Zolo Elements PG,12.965503,77.721947,PG,"New BEL Road, Bengaluru",3.1491465496284077,1.1933505507515119,,,352,6
1035,13614,Venkata Reddy Apartment,12.951819,77.7042526,Apartment,"Radha Reddy Layout, Bengaluru",0.7237099325668923,1.2842457412764823,,,585,10
1036,13616,Reddy apartments,12.941468,77.7022356,Apartment,"Radha Reddy Layout, Bengaluru",0.5950646353100065,2.231771947475135,,,775,13
1037,13635,Raddy Residency,12.953949,77.7244527,Apartment,"Radha Reddy Layout, Bengaluru",2.735558581953347,1.148180190426609,,,453,8
1038,13636,Reddy layout,12.965286,77.711009,Apartment,"Radha Reddy Layout, Bengaluru",2.383976598509846,0.9389922730895965,,,255,4
1039,13647,DC Capitol,12.9370681,77.7053879,Apartment,"Radha Reddy Layout, Bengaluru",1.1811704422774987,2.4856769776113956,,,961,16
1040,13667,Sri Radha Reddy PG Accommodation,12.9681862,77.7187747,Apartment,"Radha Reddy Layout, Bengaluru",3.127077350829712,1.266914374273093,,,358,6
1041,13760,Adobe India,12.9439034,77.6968467,Office,"Radha Reddy Layout, Bengaluru",0.4811218406436456,2.4457084279283148,,,869,14
1042,13783,EL'EN EDUCATION TRUST,12.9502194,77.6968069,Office,"Radha Reddy Layout, Bengaluru",0.5666881838037623,2.087257536989744,,,897,15
1043,13825,Myntra Designs Pvt. Ltd.,12.9431803,77.6986567,Office,"Radha Reddy Layout, Bengaluru",0.4151027152801748,2.3492723380824585,,,704,12
1044,13835,Sri Radha Reddy PG Accommodation,12.9681862,77.7187747,PG,"Radha Reddy Layout, Bengaluru",3.127077350829712,1.266914374273093,,,358,6
1045,13871,Reddy PG,12.952665,77.7043564,PG,"Radha Reddy Layout, Bengaluru",0.8082323064128154,1.229996184532913,,,561,9
1046,13874,PRASANTH REDDY PG FOR LADIES,12.9580877,77.7189848,PG,"Radha Reddy Layout, Bengaluru",2.391138961132283,0.48615808298216245,,,257,4
1047,13893,Sri Reddy Raghava Ladies PG,12.9586944,77.7024378,PG,"Radha Reddy Layout, Bengaluru",1.373020921802196,1.3163032576637415,,,706,12
1048,13905,Koushik Reddy PG,12.9595562,77.714092,PG,"Radha Reddy Layout, Bengaluru",2.0758504828466404,0.22589814332775324,,,79,1
1049,13906,Teertha PG For Gents,12.9496918,77.7044937,PG,"Radha Reddy Layout, Bengaluru",0.5682563726332636,1.3965142651655496,,,705,12
1050,13915,Sangana Ultra Executive Pg for Girls,12.9655015,77.7128191,PG,"Radha Reddy Layout, Bengaluru",2.5047611573078155,0.9012195408770494,,,292,5
1051,13922,SNR PG For Gents,12.9704496,77.7142703,PG,"Radha Reddy Layout, Bengaluru",3.057575726428239,1.4324246131648242,,,493,8
1052,13927,SS Ladies PG,12.949734,77.7041849,PG,"Radha Reddy Layout, Bengaluru",0.5455503995504172,1.4198453232329196,,,699,12
1053,13930,Sri Lakshmi PG,12.9560481,77.7017996,PG,"Radha Reddy Layout, Bengaluru",1.0716591440337375,1.3898578217227233,,,502,8
1054,13931,Radha Krishna Luxury PG For Gents- Building 1,12.9789253,77.7136363,PG,"Radha Reddy Layout, Bengaluru",3.879799127992918,2.3765781362663465,,,583,10
1055,13936,Pg for ladies,12.9645836,77.7148076,PG,"Radha Reddy Layout, Bengaluru",2.5455786559229954,0.7804577452175905,,,225,4
1056,13937,SLN PG For Gents,12.9680763,77.7186626,PG,"Radha Reddy Layout, Bengaluru",3.1099197146254793,1.2511366679132194,,,354,6
1057,13943,Shirisha Reddy PG,12.9600048,77.7186638,PG,"Radha Reddy Layout, Bengaluru",2.4845363513320393,0.5234113749371729,,,187,3
1058,13944,Lakshmi Vengamamba PG For Gents,12.9583777,77.7019919,PG,"Radha Reddy Layout, Bengaluru",1.3311260133745422,1.3616372867937112,,,696,12
1059,13947,Royal pg for GENTS,12.9683776,77.7191363,PG,"Radha Reddy Layout, Bengaluru",3.168488058994221,1.30128902672875,,,337,6
1060,13962,Sri Vinayaka pg for Ladies,12.9525963,77.7040099,PG,"Radha Reddy Layout, Bengaluru",0.7822919434966977,1.26707664837081,,,582,10
1061,13970,Radha Krishna Luxury Pg For gents building-2,12.9787963,77.7128883,PG,"Radha Reddy Layout, Bengaluru",3.837127000043276,2.366954544391272,,,558,9
1062,13977,TULASI'S LADIES PAYING GUEST HOUSE,12.9661621,77.7137529,PG,"Radha Reddy Layout, Bengaluru",2.6215019613974824,0.9591030716086211,,,256,4
1063,13989,Venkateshwara deluxe pg for gents,12.9421111,77.7015029,PG,"Radha Reddy Layout, Bengaluru",0.503606539098968,2.2243472810092273,,,773,13
1064,13991,Sai Balaji PG,12.9637417,77.7106185,PG,"Radha Reddy Layout, Bengaluru",2.213633985568002,0.8066058866762917,,,229,4
1065,13993,Manu Ladies PG,12.970584,77.7135156,PG,"Radha Reddy Layout, Bengaluru",3.031378247019715,1.4512615789144094,,,467,8
1066,14005,Pg for ladies,12.9659211,77.7170204,PG,"Radha Reddy Layout, Bengaluru",2.8118666334461584,0.967019647793405,,,273,5
1067,14259,Thaswi Homes,12.9408073,77.7017815,Apartments,"Sarjapura, Bengaluru",0.6516181335241568,2.3200933271020245,,,805,13
1068,14310,Knightsbridge Apartments,12.9685357,77.7161824,Apartments,"Sarjapura, Bengaluru",2.9878389220270187,1.2324087663614787,,,330,6
1069,14329,Sobha Dream Acres - Flats for Sale in Bangalore,12.9382954,77.7262934,Apartments,"Sarjapura, Bengaluru",2.9518444478464856,2.4936980867608844,,,806,13
1070,14567,Adobe India,12.9439034,77.6968467,Office,"Sarjapura, Bengaluru",0.4811218406436456,2.4457084279283148,,,869,14
1071,14649,Tesco Bengaluru,12.9741018,77.7286173,Office,"Sarjapura, Bengaluru",4.332345083352768,2.3894318997758606,,,733,12
1072,14810,Colive Medford PG in Marathahalli Bengaluru,12.9514086,77.7152276,PG,"Sarjapura, Bengaluru",1.697577783786692,0.6892753254736727,,,438,7
1073,14814,Victory PG For Co-Living,12.9585926,77.708891,PG,"Sarjapura, Bengaluru",1.6290585230237806,0.6215509101428385,,,679,11
1074,14818,Happy 2 Stay PG for Gents,12.9583349,77.7094112,PG,"Sarjapura, Bengaluru",1.638496516807315,0.5611738995533361,,,680,11
1075,14823,Zolo Pepper - PG in Marathahalli Bangalore,12.9571713,77.7096945,PG,"Sarjapura, Bengaluru",1.556304144007207,0.5258649732243398,,,686,11
1076,14826,SS Ladies PG,12.949734,77.7041849,PG,"Sarjapura, Bengaluru",0.5455503995504172,1.4198453232329196,,,699,12
1077,14827,Nandan's PG for Gents,12.9502561,77.715085,PG,"Sarjapura, Bengaluru",1.6459363738730486,0.8154904941759755,,,499,8
1078,14834,7 hills Paradise PG For Gents,12.9585644,77.7091668,PG,"Sarjapura, Bengaluru",1.6435829230016294,0.5915998406805355,,,675,11
1079,14836,"New Shivani Paradise Gents PG, Green Heights- Top Rated Best Gents PG in Munnekolala",12.9528384,77.7155619,PG,"Sarjapura, Bengaluru",1.788317930568707,0.5378824249530627,,,485,8
1080,14844,Zolo Amber PG,12.9510146,77.7150464,PG,"Sarjapura, Bengaluru",1.665292174908811,0.7310730838384942,,,447,7
1081,14847,"Kings %26 Queens, PG, Co Living, Studio rooms",12.9578759,77.7097075,PG,"Sarjapura, Bengaluru",1.6176663744140864,0.5236892097587563,,,678,11
1082,14848,Colive Sunny Vale PG in Marathahalli Bengaluru,12.9587257,77.7096224,PG,"Sarjapura, Bengaluru",1.6870421045423625,0.5471106611112605,,,726,12
1083,14850,Sri Venkata Ramya Royal PG For Ladies,12.9540118,77.7156006,PG,"Sarjapura, Bengaluru",1.8473133352571838,0.4123127719762225,,,523,9
1084,14853,Zolo Elements PG,12.965503,77.721947,PG,"Sarjapura, Bengaluru",3.1491465496284077,1.1933505507515119,,,352,6
1085,14855,Sri Balaji Ladies PG,12.9583826,77.7145473,PG,"Sarjapura, Bengaluru",2.023975104943011,0.09037656768969138,,,42,1
1086,14865,Colive Campbell PG in Munnekollal Bengaluru,12.9513605,77.7118356,PG,"Sarjapura, Bengaluru",1.3524479570911272,0.7496630109958362,,,476,8
1087,14866,Ashray PG For Ladies,12.9509338,77.7002478,PG,"Sarjapura, Bengaluru",0.4922985264582724,1.7146036542591654,,,767,13
1088,14893,"Spice Garden, Bangalore",12.9577917,77.7093143,PG,"Sarjapura, Bengaluru",1.5839970065155355,0.5657294106789279,,,659,11
1089,14948,Knightsbridge Apartments,12.9685357,77.7161824,Apartments,"Thygaraja Layout, Bengaluru",2.9878389220270187,1.2324087663614787,,,330,6
1090,14960,Saritha Fortune,12.9452998,77.7080689,Apartments,"Thygaraja Layout, Bengaluru",0.8427949586951138,1.53355166982011,,,833,14
1091,14976,UKN Esperanza,12.9518074,77.7207664,Apartments,"Thygaraja Layout, Bengaluru",2.285249466489266,0.9312919517672924,,,480,8
1092,15000,The Greens,12.9741565,77.7016554,Apartments,"Thygaraja Layout, Bengaluru",3.0773526350137304,2.3125444636584245,,,661,11
1093,15007,DC Capitol,12.9370681,77.7053879,Apartments,"Thygaraja Layout, Bengaluru",1.1811704422774987,2.4856769776113956,,,961,16
1094,15010,S Apartment,12.9459951,77.7028219,Apartments,"Thygaraja Layout, Bengaluru",0.26951474780428614,1.807293843062666,,,842,14
1095,15026,Sobha Dream Acres - Flats for Sale in Bangalore,12.9382954,77.7262934,Apartments,"Thygaraja Layout, Bengaluru",2.9518444478464856,2.4936980867608844,,,806,13
1096,15036,Sobha Dream Acres,12.9391078,77.7201689,Apartments,"Thygaraja Layout, Bengaluru",2.295853248100709,2.141923021586672,,,696,12
1097,15050,Saroj Group,12.9522835,77.7119978,Apartments,"Thygaraja Layout, Bengaluru",1.412193687552859,0.6487245116076025,,,448,7
1098,15062,Rent my stay,12.9529902,77.7088361,Apartments,"Thygaraja Layout, Bengaluru",1.1648591508015504,0.8000296051530371,,,513,9
1099,15076,Sherwood Suites,12.9558589,77.7109044,Apartments,"Thygaraja Layout, Bengaluru",1.5423658486380458,0.43653112782366776,,,372,6
1100,15105,UPSCALE HOMES PVT LTD,12.9398805,77.701116,Apartments,"Thygaraja Layout, Bengaluru",0.7411918279491145,2.4458343006801124,,,995,17
1101,15107,emprasa,12.9481792,77.6990834,Apartments,"Thygaraja Layout, Bengaluru",0.23365585482767465,1.9728799987310615,,,876,15
1102,15143,Lakshminarayana Pura,12.9578047,77.7130364,Apartments,"Thygaraja Layout, Bengaluru",1.8588702561840895,0.16394239129500826,,,414,7
1103,15148,MRD,12.95043,77.7035625,Apartments,"Thygaraja Layout, Bengaluru",0.555175393927005,1.4292832744118251,,,651,11
1104,15160,Multiplex,12.9516804,77.6996418,Apartments,"Thygaraja Layout, Bengaluru",0.5807790976055217,1.7412103403984505,,,851,14
1105,15168,Design and Dimensions,12.9588541,77.7141157,Apartments,"Thygaraja Layout, Bengaluru",2.0239460691201066,0.1496772673984091,,,36,1
1106,15170,Aswath Nagar,12.9587847,77.6999044,Apartments,"Thygaraja Layout, Bengaluru",1.3660537118552434,1.5906246392712227,,,711,12
1107,15171,Radisson Blu Bengaluru Outer Ring Road,12.9502139,77.6989321,Apartments,"Thygaraja Layout, Bengaluru",0.4413089571168928,1.8777848461736109,,,840,14
1108,15183,HI - Tech Driving School,12.9509191,77.7156145,Apartments,"Thygaraja Layout, Bengaluru",1.7210469937535837,0.7488268857979412,,,441,7
1109,15185,Puchka's,12.9576781,77.708685,Apartments,"Thygaraja Layout, Bengaluru",1.5330622549153632,0.6334994521143258,,,632,11
1110,15195,MRD,12.95043,77.7035625,Apartments,"Thygaraja Layout, Bengaluru",0.555175393927005,1.4292832744118251,,,651,11
1111,15204,Abhiman Residency,12.9565149,77.7002089,Apartments,"Thygaraja Layout, Bengaluru",1.1128192007743565,1.5563183894671437,,,516,9
1112,15213,Radisson Blu Bengaluru Outer Ring Road,12.9502139,77.6989321,Apartments,"Thygaraja Layout, Bengaluru",0.4413089571168928,1.8777848461736109,,,840,14
1113,15217,Design and Dimensions,12.9588541,77.7141157,Apartments,"Thygaraja Layout, Bengaluru",2.0239460691201066,0.1496772673984091,,,36,1
1114,15222,"VIBGYOR High School - Marathahalli, Bengaluru",12.948474,77.7189647,Apartments,"Thygaraja Layout, Bengaluru",2.0245864079434983,1.1197938094628508,,,453,8
1115,15225,HI - Tech Driving School,12.9509191,77.7156145,Apartments,"Thygaraja Layout, Bengaluru",1.7210469937535837,0.7488268857979412,,,441,7
1116,15227,Puchka's,12.9576781,77.708685,Apartments,"Thygaraja Layout, Bengaluru",1.5330622549153632,0.6334994521143258,,,632,11
1117,15229,Apollo Medical Center,12.9562352,77.7168479,Apartments,"Thygaraja Layout, Bengaluru",2.0856705840706518,0.2917519826652661,,,272,5
1118,15265,emprasa,12.9481792,77.6990834,Offices,"Thygaraja Layout, Bengaluru",0.23365585482767465,1.9728799987310615,,,876,15
1119,15282,S Apartment,12.9459951,77.7028219,Offices,"Thygaraja Layout, Bengaluru",0.26951474780428614,1.807293843062666,,,842,14
1120,15313,MyAnatomy Integration Pvt Ltd,12.9559693,77.7166278,Offices,"Thygaraja Layout, Bengaluru",2.049985974961795,0.28871705383894797,,,249,4
1121,15320,Inspire Work,12.9709722,77.6995132,Offices,"Thygaraja Layout, Bengaluru",2.7218881036035136,2.206525158415508,,,682,11
1122,15353,Capgemini,12.9696806,77.7248741,Offices,"Thygaraja Layout, Bengaluru",3.698308234102637,1.7520980160305282,,,976,16
1123,15362,Myntra Designs Pvt. Ltd.,12.9431803,77.6986567,Offices,"Thygaraja Layout, Bengaluru",0.4151027152801748,2.3492723380824585,,,704,12
1124,15392,Adobe India,12.9439034,77.6968467,Offices,"Thygaraja Layout, Bengaluru",0.4811218406436456,2.4457084279283148,,,869,14
1125,15400,Accenture,12.9493103,77.7004897,Offices,"Thygaraja Layout, Bengaluru",0.3117097347053802,1.7772000754717012,,,695,12
1126,15423,Bike transport,12.9562336,77.6982975,Offices,"Thygaraja Layout, Bengaluru",1.1049134899367992,1.7652834116211427,,,544,9
1127,15436,DivyaSree Technopark,12.9709443,77.7256946,Offices,"Thygaraja Layout, Bengaluru",3.8601793946601197,1.9170969040130674,,,927,15
1128,15440,"ICICI Bank AECS Layout, Bangalore-Branch %26 ATM",12.9641446,77.712144,Offices,"Thygaraja Layout, Bengaluru",2.3382937845097604,0.775437060890459,,,197,3
1129,15525,DACT PG,12.9528304,77.7149515,PG,"Thygaraja Layout, Bengaluru",1.7273431826328864,0.5289958075684855,,,479,8
1130,15533,Lighthouse PG (For Gents),12.9510196,77.7029956,PG,"Thygaraja Layout, Bengaluru",0.5755359596570095,1.4466656445988044,,,661,11
1131,15551,Royal challengers paying guest accommodation,12.9506384,77.7034322,PG,"Thygaraja Layout, Bengaluru",0.5652075148769371,1.428409328564085,,,642,11
1132,15553,Suraksha PG,12.9498204,77.7015175,PG,"Thygaraja Layout, Bengaluru",0.387943301969482,1.6525586274202233,,,646,11
1133,15566,Neha PG For Ladies,12.9522003,77.7012648,PG,"Thygaraja Layout, Bengaluru",0.6399202602935753,1.5565542733666347,,,571,10
1134,15567,Venkateswara Deluxe PG for Gents,12.9415712,77.7014598,PG,"Thygaraja Layout, Bengaluru",0.5610991846242679,2.2739679606655447,,,795,13
1135,15569,Sri Malyadri Lakshmi Narasimha Swamy PG,12.9504835,77.7015681,PG,"Thygaraja Layout, Bengaluru",0.46001025382715377,1.6105504158449042,,,678,11
1136,15578,DSR PG,12.9501457,77.7017686,PG,"Thygaraja Layout, Bengaluru",0.4310809500452034,1.610564277342621,,,735,12
1137,15579,Sri Lakshmi Narasimha PG For Ladies,12.949864,77.7012694,PG,"Thygaraja Layout, Bengaluru",0.3850386005066883,1.6730699697662068,,,638,11
1138,15581,Siri Ladies PG,12.9523744,77.7013488,PG,"Thygaraja Layout, Bengaluru",0.6604413478022183,1.540788652143778,,,572,10
1139,15587,J.p.comforts Pg,12.9502816,77.7011463,PG,"Thygaraja Layout, Bengaluru",0.4274338560642755,1.6614013414264082,,,703,12
1140,15593,HOMESTAY PG For GENTS,12.9537208,77.715502,PG,"Thygaraja Layout, Bengaluru",1.8233256764819723,0.44078206487298305,,,502,8
1141,15594,Ritvik Reddy PG Hostel,12.958709,77.708407,PG,"Thygaraja Layout, Bengaluru",1.6108735752680634,0.6754886213512105,,,667,11
1142,15596,NextGen PG for Gent's,12.9486771,77.7040749,PG,"Thygaraja Layout, Bengaluru",0.46634971487532756,1.5038104119658076,,,749,12
1143,15601,Venkatadri PG,12.9526237,77.7047428,PG,"Thygaraja Layout, Bengaluru",0.8274724352753082,1.1947175335557876,,,577,10
1144,15603,Sharavana's Ladies PG,12.9556932,77.7017112,PG,"Thygaraja Layout, Bengaluru",1.0312412748489603,1.4046860706597186,,,512,9
1145,15604,Colive Medford PG in Marathahalli Bengaluru,12.9514086,77.7152276,PG,"Thygaraja Layout, Bengaluru",1.697577783786692,0.6892753254736727,,,438,7
1146,15608,MVR HEIGHTS CO-LIVING PG,12.9577325,77.7104487,PG,"Thygaraja Layout, Bengaluru",1.6569303237604764,0.44263339063680013,,,744,12
1147,15613,Suyash PG,12.9520119,77.6974223,PG,"Thygaraja Layout, Bengaluru",0.6913628309980963,1.9541781640808369,,,692,12
1148,15629,Sri SatyaNarayana Swamy PG - Marathahalli,12.9502593,77.7020476,PG,"Thygaraja Layout, Bengaluru",0.45403360703068135,1.5781360599404983,,,718,12
1149,15630,GALAXY PG FOR LADIES,12.9497728,77.7009171,PG,"Thygaraja Layout, Bengaluru",0.3673997160234005,1.7110883785941537,,,629,10
1150,15633,Zolo Amber PG,12.9510146,77.7150464,PG,"Thygaraja Layout, Bengaluru",1.665292174908811,0.7310730838384942,,,447,7
1151,15635,"Durga Pg For Ladies, Pure Veg",12.9621062,77.7150069,PG,"Thygaraja Layout, Bengaluru",2.3487240647610435,0.5070435307817045,,,175,3
1152,15639,Zolo Asmi Co-Living %7C Redefining PG,12.954909,77.7106108,PG,"Thygaraja Layout, Bengaluru",1.4487707143748378,0.5176117979414988,,,407,7
1153,15651,Sri Srinivasa New Luxury Pg For ladies,12.9639569,77.7161371,PG,"Thygaraja Layout, Bengaluru",2.5837205834148915,0.7312320739244148,,,260,4
1154,15653,Akshara Girls Pg,12.9565571,77.7017454,PG,"Thygaraja Layout, Bengaluru",1.1269296210609405,1.3899594975575613,,,484,8
1155,15659,VINAYAKA PG For LADIES,12.9493951,77.7041296,PG,"Thygaraja Layout, Bengaluru",0.5168405919481445,1.447938019182962,,,710,12
1156,15661,SLV Pg For gents,12.9641925,77.712591,PG,"Thygaraja Layout, Bengaluru",2.369443618151519,0.7657789537284606,,,186,3
1157,15662,Sangana Ultra Executive Pg for Girls,12.9655015,77.7128191,PG,"Thygaraja Layout, Bengaluru",2.5047611573078155,0.9012195408770494,,,292,5
1158,15664,Zolo Mustard - PG in Marathahalli for Gents in Bangalore,12.9589426,77.7084164,PG,"Thygaraja Layout, Bengaluru",1.6333508616902503,0.6798441466970156,,,677,11
1159,15665,Maahir luxury pg for gents,12.9595251,77.7142428,PG,"Thygaraja Layout, Bengaluru",2.0851676281854967,0.2196138597860565,,,85,1
1160,15667,Colive Drava PG in Marathahalli Bengaluru,12.9690036,77.6948067,PG,"Thygaraja Layout, Bengaluru",2.573492446925574,2.4867951380358866,,,741,12
1161,15668,Livinn Orange PG campus,12.9591174,77.7097652,PG,"Thygaraja Layout, Bengaluru",1.7313412112104727,0.5442443778879213,,,723,12
1162,15674,LOTUS PG FOR GENTS,12.9544457,77.693669,PG,"Thygaraja Layout, Bengaluru",1.1443739276900435,2.2871272344611624,,,648,11
1163,15675,S.S.Luxury New Pg For Ladies,12.9606178,77.7150851,PG,"Thygaraja Layout, Bengaluru",2.2353389579874476,0.34419726367478,,,136,2
1164,15677,"Pooja PG, Beml Layout",12.9601061,77.718162,PG,"Thygaraja Layout, Bengaluru",2.448359405074788,0.48417573758806737,,,204,3
1165,15680,Zolo Hamilton PG,12.9498443,77.7158716,PG,"Thygaraja Layout, Bengaluru",1.7180737600491451,0.8712749221812236,,,490,8
1166,15681,Pg for ladies,12.9645836,77.7148076,PG,"Thygaraja Layout, Bengaluru",2.5455786559229954,0.7804577452175905,,,225,4
1167,15692,Sri Balaji Ladies PG,12.9583826,77.7145473,PG,"Thygaraja Layout, Bengaluru",2.023975104943011,0.09037656768969138,,,42,1
1168,15695,Colive Santa Clara PG,12.9575622,77.7089574,PG,"Thygaraja Layout, Bengaluru",1.5402486037273941,0.603867915879845,,,626,10
1169,15699,Colive Mountain View PG in Marathahalli Bengaluru,12.9588489,77.7099278,PG,"Thygaraja Layout, Bengaluru",1.7177966297631229,0.5185889713013947,,,734,12
1170,15701,Zolo Pepper - PG in Marathahalli Bangalore,12.9571713,77.7096945,PG,"Thygaraja Layout, Bengaluru",1.556304144007207,0.5258649732243398,,,686,11
1171,15705,Zolo Elements PG,12.965503,77.721947,PG,"Thygaraja Layout, Bengaluru",3.1491465496284077,1.1933505507515119,,,352,6
1172,15707,SS Ladies PG,12.949734,77.7041849,PG,"Thygaraja Layout, Bengaluru",0.5455503995504172,1.4198453232329196,,,699,12
1173,15713,Vinayaka Gents PG,12.9514553,77.7045527,PG,"Thygaraja Layout, Bengaluru",0.7112700536383488,1.2772114429549828,,,653,11
1174,15714,TULASI'S LADIES PAYING GUEST HOUSE,12.9661621,77.7137529,PG,"Thygaraja Layout, Bengaluru",2.6215019613974824,0.9591030716086211,,,256,4
1175,15718,Colive Vivanta PG,12.9660968,77.7026374,PG,"Thygaraja Layout, Bengaluru",2.1916603415585714,1.5999133579644393,,,524,9
1176,15723,Colive Morgan Hill PG in Munnekollal Bengaluru,12.9575097,77.7105306,PG,"Thygaraja Layout, Bengaluru",1.6442685600144056,0.43344150435174406,,,736,12
1177,15730,SLN LUXURY PG%E2%80%99s FOR GENTS,12.9615359,77.7198466,PG,"Thygaraja Layout, Bengaluru",2.690148331992506,0.725525338199849,,,267,4
1178,15744,Colive Denver PG,12.9617708,77.7058201,PG,"Thygaraja Layout, Bengaluru",1.7961462345633517,1.053091920522938,,,345,6
1179,15754,"Spice Garden, Bangalore",12.9577917,77.7093143,PG,"Thygaraja Layout, Bengaluru",1.5839970065155355,0.5657294106789279,,,659,11
1180,15774,FF21-LIT,12.9537906,77.7197162,PG,"Thygaraja Layout, Bengaluru",2.245262008410642,0.7017509897576889,,,423,7
1181,16047,Agarwal Estates,12.9563841,77.7100837,Apartments,"Vivek nagar, Bengaluru",1.5195403798460032,0.49953751189111933,,,622,10
1182,16485,7 Hills PG for Men,12.9591079,77.7030031,PG,"Vivek nagar, Bengaluru",1.4292747546199995,1.2607446116137595,,,718,12
1183,16531,Mahaveer Tranquil,12.968808,77.733486,Apartment,"Whitefield, Bengaluru",4.359991611419908,2.4043361329798403,,,828,14
1184,16538,S.V Mayfair Apartments,12.9640116,77.7328496,Apartment,"Whitefield, Bengaluru",4.019880453942397,2.1104221064254833,,,606,10
1185,16554,Adithya Serene Apartments,12.9662114,77.7308598,Apartment,"Whitefield, Bengaluru",3.962443193393388,2.013582636200332,,,912,15
1186,16574,Silicon Pride Apartment,12.9588497,77.7322426,Apartment,"Whitefield, Bengaluru",3.7143700798628796,1.924664488955175,,,502,8
1187,16575,Greenview Apartments,12.9575696,77.7362934,Apartment,"Whitefield, Bengaluru",4.0803420053741135,2.3583614916424063,,,564,9
1188,16584,"R Block, Brigade Lakefront Apartments",12.9796308,77.7111554,Apartment,"Whitefield, Bengaluru",3.8633047734466004,2.480157076264728,,,645,11
1189,16588,Lalitha nivas,12.9637358,77.7343547,Apartment,"Whitefield, Bengaluru",4.1490929656550195,2.2550023729520188,,,634,11
1190,16601,MM Destiny Gables,12.9490909,77.7222362,Apartment,"Whitefield, Bengaluru",2.384630280661239,1.2594861145519487,,,465,8
1191,16607,White Orchids VSV Builders,12.9652276,77.7345545,Apartment,"Whitefield, Bengaluru",4.247088509652044,2.330981187353898,,,639,11
1192,16639,SRI SAI NP ENCLAVE,12.9665429,77.7339599,Apartment,"Whitefield, Bengaluru",4.265560235803383,2.32990102880568,,,651,11
1193,16741,Apartment %2357,12.947527,77.716796,Apartment,"Whitefield, Bengaluru",1.781345617130337,1.143411132743959,,,583,10
1194,16744,53A,12.9631009,77.7246415,Apartment,"Whitefield, Bengaluru",3.2108564843541747,1.256506863870457,,,379,6
1195,16758,Abhivrudhi appartment(flat no3 second floor),12.9572884,77.7175609,Apartment,"Whitefield, Bengaluru",2.2132762831129282,0.3299288261285578,,,242,4
1196,16761,Apartment 558,12.9600563,77.7211189,Apartment,"Whitefield, Bengaluru",2.704538416300532,0.7656497404723845,,,227,4
1197,16764,Apartments,12.9486089,77.7121414,Apartment,"Whitefield, Bengaluru",1.294568153589733,1.0295010584573192,,,636,11
1198,16776,104 Sree Hruday Fully furnished flats,12.9646551,77.7120193,Apartment,"Whitefield, Bengaluru",2.3789148062592136,0.8334822128677899,,,256,4
1199,16793,Saroj Group,12.9522835,77.7119978,Apartment,"Whitefield, Bengaluru",1.412193687552859,0.6487245116076025,,,448,7
1200,16804,R.K COLOUR LAB STUDIO,12.9710788,77.7119933,Apartment,"Whitefield, Bengaluru",3.007467165432023,1.5270556682360097,,,359,6
1201,16819,Whitefield Office,12.9754174,77.7208049,Office,"Whitefield, Bengaluru",3.902084035251037,2.0977937761806094,,,677,11
1202,16824,Unispace - Affordable Office Space Provider,12.9766088,77.7184301,Office,"Whitefield, Bengaluru",3.875980202243446,2.1587911287085735,,,611,10
1203,16830,office,12.9778807,77.7241612,Office,"Whitefield, Bengaluru",4.336297701114235,2.4879225019914357,,,687,11
1204,16832,Office,12.9795085,77.715939,Office,"Whitefield, Bengaluru",4.0377049515156935,2.444226403522127,,,676,11
1205,16837,"Regus - Bangalore, Brigade IRV",12.9704,77.7307,Office,"Whitefield, Bengaluru",4.2242670641940006,2.259528489580117,,,883,15
1206,16838,Capgemini,12.9696806,77.7248741,Office,"Whitefield, Bengaluru",3.698308234102637,1.7520980160305282,,,976,16
1207,16841,Bruhat Bengaluru Mahanagara Palike (BBMP),12.9568222,77.736864,Office,"Whitefield, Bengaluru",4.115418939276439,2.421625438922652,,,645,11
1208,16857,Tesco Bengaluru,12.9741018,77.7286173,Office,"Whitefield, Bengaluru",4.332345083352768,2.3894318997758606,,,733,12
1209,16862,"CoWrks Whitefield, Bengaluru",12.9782428,77.7132582,Office,"Whitefield, Bengaluru",3.794149520196487,2.302840937652006,,,510,9
1210,16864,Bounce Whitefield Office,12.9594016,77.7319941,Office,"Whitefield, Bengaluru",3.712619435063953,1.903394216121902,,,509,8
1211,16870,huntoffices coworking space in Whitefield,12.9752667,77.7268201,Office,"Whitefield, Bengaluru",4.292715873585868,2.376078087828528,,,682,11
1212,16871,Divyasree ROW Office,12.9710138,77.7246487,Office,"Whitefield, Bengaluru",3.786074171897971,1.8538945938026627,,,794,13
1213,16879,"Regus - Bangalore, Brigade IRV",12.9704,77.7307,Office,"Whitefield, Bengaluru",4.2242670641940006,2.259528489580117,,,883,15
1214,16905,Brigade irv Center,12.9701373,77.7311927,Office,"Whitefield, Bengaluru",4.247781822166409,2.2831834834254576,,,869,14
1215,16906,Republic of whitefield marketing office,12.9709401,77.7246581,Office,"Whitefield, Bengaluru",3.7808890789461196,1.8478977350719024,,,795,13
1216,16930,"GoSpaze - Coworking Space in Whitefield, Bangalore",12.9556344,77.7205616,Office,"Whitefield, Bengaluru",2.4098380411908753,0.6881337020560127,,,327,5
1217,16951,Igate Global Solutions Ltd,12.9732933,77.7180168,Office,"Whitefield, Bengaluru",3.5381147791156486,1.788713552822394,,,663,11
1218,16990,D Mart,12.9555595,77.7287428,Office,"Whitefield, Bengaluru",3.232982254036881,1.5562975314464143,,,551,9
1219,17002,Indian Post Office Kundalahalli,12.9653158,77.7134103,Office,"Whitefield, Bengaluru",2.5226373413761642,0.8697991111791888,,,230,4
1220,17017,DivyaSree Technopark,12.9709443,77.7256946,Office,"Whitefield, Bengaluru",3.8601793946601197,1.9170969040130674,,,927,15
1221,17018,DivyaSree Republic of Whitefield,12.9672153,77.7247107,Office,"Whitefield, Bengaluru",3.4994878612604863,1.5386097353917285,,,913,15
1222,17024,VK Tech Park,12.9725622,77.7212954,Office,"Whitefield, Bengaluru",3.6774961038939376,1.8211323216724458,,,694,12
1223,17047,Brigade Tech Gardens,12.964582,77.7183272,Office,"Whitefield, Bengaluru",2.795778017434219,0.8816131181571691,,,223,4
1224,17050,Maruthi Emerald,12.9597134,77.7164617,Office,"Whitefield, Bengaluru",2.2778577638589885,0.31720789977864944,,,154,3
1225,17072,Saroj Group,12.9522835,77.7119978,Office,"Whitefield, Bengaluru",1.412193687552859,0.6487245116076025,,,448,7
1226,17091,BYJU'S Tuition Centre - Whitefield,12.9598546,77.7159993,Office,"Whitefield, Bengaluru",2.250105383486378,0.299807934633242,,,141,2
1227,17132,Sri Sai Balaji PG For Gents,12.971318,77.7323062,PG,"Whitefield, Bengaluru",4.423884990067602,2.4591375641508844,,,872,15
1228,17140,Ram Sai P.G. For Ladies,12.9790645,77.7135378,PG,"Whitefield, Bengaluru",3.8902623154209146,2.3924995914146137,,,570,10
1229,17192,Sri Rama Sns Pg Accomodation For Gents,12.9701883,77.7320829,PG,"Whitefield, Bengaluru",4.327439767486536,2.3635686391793986,,,847,14
1230,17210,Sri Balaji Pg For Gents 3rd Cross,12.9700981,77.733313,PG,"Whitefield, Bengaluru",4.4280167894890665,2.4664239061787505,,,811,14
1231,17233,THE NEST PG FOR GENTS,12.9586253,77.7319823,PG,"Whitefield, Bengaluru",3.678963185556566,1.8948279192882154,,,498,8
1232,17239,Bhavya sree PG for gents,12.9788198,77.7128592,PG,"Whitefield, Bengaluru",3.8384610160401555,2.3697990595472804,,,557,9
1233,17253,VS Executive PG for Gents,12.9708006,77.732044,PG,"Whitefield, Bengaluru",4.365884667198083,2.4012755827727736,,,853,14
1234,17280,Amaravati Gents PG,12.9660024,77.7177103,PG,"Whitefield, Bengaluru",2.8671810561605096,0.9989676946091274,,,256,4
1235,17281,Sgl Pg,12.9661259,77.7151085,PG,"Whitefield, Bengaluru",2.702159797297645,0.9534370246917204,,,292,5
1236,17289,Zolo Elements PG,12.965503,77.721947,PG,"Whitefield, Bengaluru",3.1491465496284077,1.1933505507515119,,,352,6
1237,17299,SLN LUXURY LADIES PG,12.9697134,77.7118411,PG,"Whitefield, Bengaluru",2.8630613530971867,1.3813655510847138,,,376,6
1238,17304,Venkateswara paying Guest for gents,12.9679384,77.719512,PG,"Whitefield, Bengaluru",3.157728139804536,1.2730507315680168,,,329,5
1239,17310,Thanvish PG,12.9695017,77.7122414,PG,"Whitefield, Bengaluru",2.861069738358539,1.3497249429886367,,,345,6
1240,17313,New pg,12.971946,77.711727,PG,"Whitefield, Bengaluru",3.083719281804686,1.627140534272536,,,369,6
1241,17314,EXECUTIVE PG FOR GENTS,12.9606135,77.7136015,PG,"Whitefield, Bengaluru",2.1234637862266807,0.35306230167154884,,,87,1
1242,17317,FF21-LIT,12.9537906,77.7197162,PG,"Whitefield, Bengaluru",2.245262008410642,0.7017509897576889,,,423,7
1243,17319,Amaravate ladies pg,12.9612358,77.7009069,PG,"Whitefield, Bengaluru",1.6385371141770035,1.5314802630259943,,,787,13
1244,17320,SLV Pg For gents,12.9649096,77.7082607,PG,"Whitefield, Bengaluru",2.216684931591466,1.061878578115809,,,335,6
1245,17321,PG For Gents,12.9589914,77.6999564,PG,"Whitefield, Bengaluru",1.3888182052618279,1.5871333495813402,,,717,12
1246,17335,DivyaSree Republic of Whitefield,12.9672153,77.7247107,PG,"Whitefield, Bengaluru",3.4994878612604863,1.5386097353917285,,,913,15
1247,17340,Brigade irv Center,12.9701373,77.7311927,PG,"Whitefield, Bengaluru",4.247781822166409,2.2831834834254576,,,869,14
1248,17345,DivyaSree Technopark,12.9709443,77.7256946,PG,"Whitefield, Bengaluru",3.8601793946601197,1.9170969040130674,,,927,15
